"Name","Classification","Homepage","SocialMedia","Locality","Lat","Lng","Address","Country","Description","SupportRequest","SupportOffer","Hotline","Tags","Notes","ListingSource","ListingSourceId","ListingSourceUpdated"
"Burlington Babysitter Request / Services","","https://docs.google.com/forms/d/e/1FAIpQLSc1WtXhniBjOFAM8VAZz6FwTLebXfzikqalpvvhKF8mS3lYBA/viewform","","Burlington, VT",44.4724,-73.2115,"Burlington, Vermont, United States","USA","","https://docs.google.com/forms/d/e/1FAIpQLSc1WtXhniBjOFAM8VAZz6FwTLebXfzikqalpvvhKF8mS3lYBA/viewform","https://docs.google.com/forms/d/e/1FAIpQLSc1YI4uVONXpfvMgpH4YIjS-8XU_FBd6ESvBQjHiISpzOs_pg/viewform","","","","mutualaidhub.org","649",
"Mutual Aid - New Orleans","FacebookMutualAid","https://www.facebook.com/groups/MutualAidNOLA/?ref=br_rs","https://www.facebook.com/groups/MutualAidNOLA/?ref=br_rs","New Orleans, LA",29.9499,-90.0701,"New Orleans, Louisiana, USA","USA","","","","","","","mutualaidhub.org","650",
"Raising Kane County","","https://www.raisingkane.io/","","St. Charles, IL",41.9142,-88.3087,"Saint Charles, Illinois, USA","USA","","","","","","","mutualaidhub.org","651",
"Hunting Ridge COVID-19","","https://forms.gle/5kdyv6eyvyLu1WFv7","","Hunting Ridge, Baltimore, MD",39.2909,-76.6108,"Baltimore, Maryland, United States","USA","","","","","","","mutualaidhub.org","652",
"Western Massachusetts Community Mutual Aid network","","https://docs.google.com/document/d/1s7nxiKPSrAtfSyHDZwPz2M6O5SdiiF4a3z1k-capCXQ/edit","","Chicopee, MA",42.1487,-72.6079,"Chicopee, Massachusetts, USA","USA","","","","","","","mutualaidhub.org","653",
"PDX Mutual Aid","","https://linktr.ee/pdxmutualaid","https://www.facebook.com/pdxcovid19mutualaid","Portland, OR",45.5202,-122.6742,"Portland, Oregon, United States","USA","","https://docs.google.com/forms/d/e/1FAIpQLSdWmeBGnqdX14Q5ihC66u-bYzJ1oaJcigu_Vx44AJPRSoDMtQ/viewform?usp=send_form","https://docs.google.com/forms/d/e/1FAIpQLSfAMZHbn6md19Tb28SM53ayFAQK02xJv1NXVjL-J26tDZOQ-g/viewform","","","","mutualaidhub.org","654",
"Mutual Aid Society Winnipeg","FacebookMutualAid","https://www.facebook.com/groups/220944599058149/?ref=share","https://www.facebook.com/groups/220944599058149/?ref=share","Winnipeg, MB",49.8833,-97.1667,"Winnipeg, Manitoba, Canada","Canada","","","","","","","mutualaidhub.org","655",
"Mutual Aid Colorado Springs","FacebookMutualAid","https://www.facebook.com/groups/197210804946129/about/","https://www.facebook.com/groups/197210804946129/about/","Colorado Springs, CO",38.834,-104.8253,"Colorado Springs, Colorado, USA","USA","","","","","","","mutualaidhub.org","656",
"CUNY Mutual Aid","","https://forms.gle/TMCDhn3pjjwintQHA","","New York City, NY",40.7648,-73.9808,"New York City, New York, United States","USA","","https://forms.gle/TMCDhn3pjjwintQHA","","","","","mutualaidhub.org","657",
"Cville Community Care Team: COVID Response","","https://congregatecville.com/","https://www.facebook.com/cvilleareacf/","Charlottesville, VA",38.0293,-78.4767,"Charlottesville, Virginia, USA","USA","","","https://cacf.iphiview.com/cacf/GIVENOW/AccountInformation/tabid/524/dispatch/accountselection_id$140734_hash$e621469f5bc6f507dea0f0c6253f9ce280a69c36/Default.aspx","","","","mutualaidhub.org","658",
"Hartland-Area Mutual Aid","","https://docs.google.com/forms/d/e/1FAIpQLSfG9nNy5tJlqN4yWXLIvX6abE1hHSUo7sw2SkRhsSy1h6sgaA/viewform?fbclid=IwAR0SC4N2J_cWXKv1u-SwLCXXGxWEp7GVXTUoQ5mm3ujf4USjT6rl9oxQFh0","","Harland, VT",43.5406,-72.399,"Hartland, Vermont, USA","USA","","","https://docs.google.com/forms/d/e/1FAIpQLSfG9nNy5tJlqN4yWXLIvX6abE1hHSUo7sw2SkRhsSy1h6sgaA/viewform?fbclid=IwAR0SC4N2J_cWXKv1u-SwLCXXGxWEp7GVXTUoQ5mm3ujf4USjT6rl9oxQFh0","","","","mutualaidhub.org","659",
"Morgantown Delivery Team","","https://docs.google.com/forms/d/e/1FAIpQLSfmNtj_qPev4UM5pThgNs169nxCryEsJrIu1a8XujY3WynGIg/viewform?fbclid=IwAR3ukqdosbB17C7luB5hr1roz76RI7hcx_Dvy2I6BwMKOT2cYxuxymnNAX0","","Morgantown, WV",39.6295,-79.9559,"Morgantown, West Virginia, USA","USA","","","","","","","mutualaidhub.org","660",
"COVID Mutual Aid: Friendship/Bloomfield","FacebookMutualAid","https://www.facebook.com/groups/2655530078016420/?ref=share","https://www.facebook.com/groups/2655530078016420/?ref=share","Friendship/Bloomfield, Pittsburgh, PA",40.4618,-79.9496,"Bloomfield, Pittsburgh, Pennsylvania 15224, USA","USA","","","","","","","mutualaidhub.org","661",
"Combating COVID-19 in Highland Park, MI (& Surrounding Communities)","FacebookMutualAid","https://www.facebook.com/groups/646455195924175/","https://www.facebook.com/groups/646455195924175/","Highland Park, Detroit, MI",42.3487,-83.0567,"Detroit, Michigan, USA","USA","","https://docs.google.com/forms/d/e/1FAIpQLSfc15hrr6Fym_95gXA_drt18qrqZEKANTu0dgHI44BYfHL6tg/viewform","https://docs.google.com/forms/d/e/1FAIpQLSfc15hrr6Fym_95gXA_drt18qrqZEKANTu0dgHI44BYfHL6tg/viewform","","","","mutualaidhub.org","662",
"New Mexico / Albuquerque: Help Needed in Albuquerque COVID-19","FacebookMutualAid","https://www.facebook.com/groups/247465889623611/?ref=share","https://www.facebook.com/groups/247465889623611/?ref=share","Albuquerque, NM",35.0841,-106.651,"Albuquerque, New Mexico, USA","USA","","","","","","","mutualaidhub.org","663",
"High Desert Mutual Aid Society","FacebookMutualAid","https://www.facebook.com/Highdesertmutualaid","https://www.facebook.com/Highdesertmutualaid","Victorville, CA",34.5361,-117.2912,"Victorville, California, United States","USA","","","","","","","mutualaidhub.org","664",
"Nesterly Good Neighbors","","https://www.nesterlygoodneighbors.com/","https://www.facebook.com/nesterlygoodneighbors","Greater Boston, Boston, MA",42.3605,-71.0596,"Boston, Massachusetts, United States","USA","","","","","","","mutualaidhub.org","665",
"COVID-19 Lockport Area Mutual Aid","FacebookMutualAid","https://www.facebook.com/Covid-19-Lockport-Area-Mutual-Aid-100285148300404/","https://www.facebook.com/Covid-19-Lockport-Area-Mutual-Aid-100285148300404/","Lockport, IL",41.5895,-88.0578,"Lockport, Illinois, USA","USA","","","","","","","mutualaidhub.org","666",
"DSA Ventura County COVID-19 Mutual Aid","","https://www.dsaventuracounty.org/covid_19_mutual_aid","https://www.facebook.com/DSAVenturaCounty/","Oxnard, CA",34.1975,-119.1771,"Oxnard, California, USA","USA","","https://docs.google.com/forms/d/e/1FAIpQLSdwbRdSE4TSQqNXw0kvzqOYRTf6ANfR7v-GwKZBwyU3dkCGRA/viewform","https://docs.google.com/forms/d/e/1FAIpQLSdo47CkpxhXmy4wD5tJJqVGS2inJstQb25kZBPCCzZhgrosug/viewform","","","","mutualaidhub.org","667",
"361 Information & Resource Exchange","FacebookMutualAid","https://www.facebook.com/groups/1459248917568349/?ref=group_header","https://www.facebook.com/groups/1459248917568349/?ref=group_header","Corpus Christi, TX",27.8003,-97.3956,"Corpus Christi, Texas, USA","USA","","","","","","","mutualaidhub.org","668",
"DSA Mutual Aid | Solidarity Economy Milwaukee","","http://milwaukee.dsawi.org/our-committees-and-working-groups/solidarity-economy-mutual-aid-working-group/","","Milwaukee, WI",43.0115,-87.9735,"Milwaukee, Wisconsin, United States","USA","","","","","","","mutualaidhub.org","669",
"Topanga Community Center with the Canyon Sages","","https://topangacommunitycenter.org/","","Topanga, CA",34.0908,-118.597,"Topanga, California, United States","USA","","https://docs.google.com/forms/d/e/1FAIpQLSeo0fLtUyKmpz3NJ3K-fBN9nUNdqXl18_trR3Ps7BQIYsK7OA/viewform","https://docs.google.com/forms/d/e/1FAIpQLSdUG5QogDLHE2FGyXCDyq6tpfdC56C-cqmNiKWGqKnc4Bm1tw/viewform?usp=send_form","","","","mutualaidhub.org","670",
"Beverly Neighbors Helping Neighbors","","https://docs.google.com/forms/d/e/1FAIpQLSews1VUUpOzf9s7hTdRL_ieuSgEgPwTfGamo6NfHbpCO9Jp9w/viewform?fbclid=IwAR3rvSH9_voZGiX5aA7WojVd6T-nl8YoOeaG2Ep8EUEDTVdPvWkFfkj-e6c","","Beverly, MA",42.5584,-70.88,"Beverly, Massachusetts, USA","USA","","","","","","","mutualaidhub.org","671",
"Cumberland Valley Cares","","https://www.cumberlandvalleycares.com/","https://www.facebook.com/cumberlandvalleycares/","Harrisburg, PA",40.2663,-76.8861,"Harrisburg, Pennsylvania, United States","USA","","https://www.cumberlandvalleycares.com/request-delivery","https://www.cumberlandvalleycares.com/request-delivery","","","","mutualaidhub.org","672",
"Connecticut / Hartford, Bridgeport, Waterbury, New Haven: Mutual Aid Network (Spanish version)","","https://docs.google.com/document/d/19cK5eq_unhr0z4T_AGkKO93r7-qJqQ3LxuXjlWvY62A/edit","","Hartford, CT",41.7635,-72.6831,"Hartford, Connecticut, United States","USA","","","","","","","mutualaidhub.org","673",
"Moutain Communities COVID-19 Mutual Aid","FacebookMutualAid","https://www.facebook.com/groups/MCCMA","https://www.facebook.com/groups/MCCMA","Idyllwild-Pine Cove, CA",33.74,-116.7189,"Idyllwild-Pine Cove, California, United States","USA","","https://airtable.com/shrAp2BJznGM3ASLZ","https://airtable.com/shrR3vHabEP0OT9d2","","","","mutualaidhub.org","674",
"Pontiac Coronavirus Emergency Relief Food/Supplies","","https://www.signupgenius.com/go/30e0b48aaa628a13-drive","","Pontiac, MI",42.6389,-83.291,"Pontiac, Michigan, USA","USA","","","https://www.signupgenius.com/go/30e0b48aaa628a13-drive","","","","mutualaidhub.org","675",
"Brattleboro Area Mutual Aid","","https://linktr.ee/scoffsatgravity","","Brattleboro, VT",42.8509,-72.5579,"Brattleboro, Vermont, USA","USA","","https://docs.google.com/spreadsheets/d/1D-85W9O6WzZhnv5l4aIQnFJ6HDH-uoVT280SrwRin-A/edit?usp=drivesdk","https://docs.google.com/spreadsheets/d/1P0qfRBYbyCwoGgFiv_WQU4K0a-TTDpiI7yv9wPxuA4M/edit?usp=drivesdk","","","","mutualaidhub.org","676",
"California / South Bay: South Bay Mutual Aid Intake","","https://airtable.com/shr6XDSLNt5aqIFbN","","South Bay, Santa Clara, CA",37.3541,-121.9552,"Santa Clara, California, United States","USA","","https://airtable.com/shr6XDSLNt5aqIFbN","https://airtable.com/shrPVpyPFlFlJO5cG","","","","mutualaidhub.org","677",
"Medfield Mutual Aid","","https://docs.google.com/document/d/1Ig8cjg_ADScwu8Mq4oZVjBgEB0eINZoLJ0bdmKyG7JQ/edit","","Medfield, MA",42.1866,-71.3055,"Medfield, Massachusetts, United States","USA","","https://docs.google.com/document/d/1Ig8cjg_ADScwu8Mq4oZVjBgEB0eINZoLJ0bdmKyG7JQ/edit","","","","","mutualaidhub.org","678",
"Astoria Mutual Aid Network","","https://www.astoriamutualaid.com/","","New York City, NY",40.7648,-73.9808,"New York City, New York, United States","USA","","","","","","","mutualaidhub.org","679",
"North Jersey Mutual Aid Resources","","https://docs.google.com/forms/d/e/1FAIpQLSf0cqFpnzSuvbDxpgdG4Cs7l96xuOTqI8ydtFl_t-iO6A08NQ/viewform","https://www.facebook.com/groups/349149839305990/","Paterson, NJ",40.9168,-74.1718,"Paterson, New Jersey, USA","USA","","","","","","","mutualaidhub.org","680",
"Queens Mutual Aid Network","","https://docs.google.com/spreadsheets/d/1wNNGfygBEQL3GiuNoonFk-jznd0VIrmXVBloytaK1gc/edit#gid=1975280849","","Queens, New York City, NY",40.7648,-73.9808,"New York City, New York, United States","USA","","","","","","","mutualaidhub.org","681",
"Boise/Mississippi Pandemic Mutual Aid","FacebookMutualAid","https://www.facebook.com/groups/228056038575798/","https://www.facebook.com/groups/228056038575798/","Boise/Mississippi, Portland, OR",45.5202,-122.6742,"Portland, Oregon, United States","USA","","","","","","","mutualaidhub.org","682",
"Care Web Austin","","","","Austin, TX",30.2711,-97.7437,"Austin, Texas, USA","USA","","","","","","","mutualaidhub.org","683",
"New Paltz Neighbor to Neighbor","","https://docs.google.com/forms/d/e/1FAIpQLSdPvf109_31PMeVW1UJi2mc-cBoXqrNvxMZltbPXWRuObEyYw/viewform","","New Paltz, NY",41.7465,-74.0845,"New Paltz, New York, United States","USA","","","","","","","mutualaidhub.org","684",
"Haight Neighborhood Help Group","FacebookMutualAid","https://www.facebook.com/groups/214731853107680/","https://www.facebook.com/groups/214731853107680/","Haight-Ashbury, San Francisco, CA",37.7648,-122.463,"San Francisco, California, United States","USA","","","https://docs.google.com/forms/d/e/1FAIpQLSdVyyRhv2AxKHUoSXV-pvn6s1IX_BfW9J8wjkR11FcQ-i5aWw/viewform","","","","mutualaidhub.org","685",
"Southern Alameda County Mutual Aid Network","FacebookMutualAid","https://www.facebook.com/groups/581603675902738/","https://www.facebook.com/groups/581603675902738/","Fremont, CA",37.5483,-121.9886,"Fremont, California, USA","USA","","","","","","","mutualaidhub.org","686",
"The New School Student Mutual Aid Group","","https://forms.gle/kwWNwH3TmGz3AJQT8","","New York City, NY",40.7648,-73.9808,"New York City, New York, United States","USA","","","","","","","mutualaidhub.org","687",
"COVID-19 Resource Spreadsheet","","https://docs.google.com/spreadsheets/d/19ulf0RqGhtTijdL3urOq5DLSlXQ7YbuXWTTuGuK3MUo/edit?fbclid=IwAR1HvKMli_9j5XjkBjguiPgPeaRbsDfaGaBe_Wsx65-SHybWDzj-TEuRmOU#gid=0","","Greensboro, NC",36.0726,-79.792,"Greensboro, North Carolina, USA","USA","","","","","","","mutualaidhub.org","688",
"Nevada / Las Vegas: Las Vegas DSA COVID-19 Mutual Aid Form","","https://docs.google.com/forms/d/e/1FAIpQLSeTcriSCf7XcSEC21ayAZmoytmrOkD7zB92z_d5UuTAynWo0g/viewform","","Las Vegas, NV",36.1663,-115.1492,"Las Vegas, Nevada, USA","USA","","","https://docs.google.com/forms/d/e/1FAIpQLSeTcriSCf7XcSEC21ayAZmoytmrOkD7zB92z_d5UuTAynWo0g/viewform","","","","mutualaidhub.org","689",
"Knollwood Neighborhood Covid-19 Response","","https://docs.google.com/forms/d/e/1FAIpQLSeKfWok4FoQHJRXlmUEiaqtne7eOfuYWnrv69O4WX5e39jzYw/viewform?fbclid=IwAR33STBwrAQMZeHHT_5Obmy7HUVkTBHmg1G45bmgeTHZaR3hkNpRJlzTX2I","","Knollwood, Baltimore, MD",39.2909,-76.6108,"Baltimore, Maryland, United States","USA","","","","","","","mutualaidhub.org","690",
"Cascade Locks: Coronavirus Resources","","https://docs.google.com/document/d/1aRR5UXXiHMbM94cAjc6p2SJ47_yyzPFnCNUGysYrrCs/edit?usp=drivesdk","","Cascade Locks, OR",45.6695,-121.8904,"Cascade Locks, Oregon, USA","USA","","","","","","","mutualaidhub.org","691",
"South Bend Mutual Aid","","https://linktr.ee/southbend_mutualaid","","South Bend, IN",41.6834,-86.25,"South Bend, Indiana, United States","USA","","","","","","","mutualaidhub.org","692",
"DC Mutual Aid (Multiple Neighborhood Groups)","","https://docs.google.com/spreadsheets/d/1wLncKL-9ixUFV_UIW08SO-MNVVMhupcK1sFtlTt5L3M/edit#gid=1634357411","","Washington, DC",38.895,-77.0366,"Washington, DC, USA","USA","","","","","","","mutualaidhub.org","693",
"West Chester IFC","","https://docs.google.com/forms/d/e/1FAIpQLSfRaAzoa_V0whmEN5mcLzyvmF40Z1X-D1rJyH6AV8g4O5UinQ/viewform?usp=sf_link","","West Chester, PA",39.9597,-75.606,"West Chester, Pennsylvania, United States","USA","","","","","","","mutualaidhub.org","694",
"Durham Mutual Aid","","https://durhammutualaid.org/","https://www.facebook.com/groups/durhammutualaid/","Durham, NC",35.994,-78.8986,"Durham, North Carolina, USA","USA","","https://durhammutualaid.org/get-support/","","","","","mutualaidhub.org","695",
"Community Support Project DSM","","https://docs.google.com/forms/d/e/1FAIpQLSe0ptHHSGTJxMd8xeRJ3w-6KPAIKdnBvWsazYyHX9Sfx5Ct1A/viewform","","Des Moines, IA",41.5911,-93.6037,"Des Moines, Iowa, USA","USA","","https://docs.google.com/forms/d/e/1FAIpQLSe0ptHHSGTJxMd8xeRJ3w-6KPAIKdnBvWsazYyHX9Sfx5Ct1A/viewform","https://forms.gle/7p49q1XkrqdnERuy7","","","","mutualaidhub.org","696",
"Berkeley, CA Mutual Aid Network","","https://www.berkeleymutualaid.org/","","Berkeley, CA",37.8708,-122.2729,"Berkeley, California, United States","USA","","https://docs.google.com/forms/d/e/1FAIpQLSe5MXDzg9TDF91Ck00DvVHjgmQgulNdHBM1EjEWTANlAqaf_Q/viewform","https://docs.google.com/forms/d/e/1FAIpQLSeW40KnpjDAW6Lkgi-ej17fEAh903PUPsxRZtib-Sv2ylWFyQ/viewform","","","","mutualaidhub.org","697",
"Norman Community Relief - Volunteer Sign-up Form","","https://docs.google.com/forms/d/e/1FAIpQLSeJzEhGGaXUZC60uiOScPq16JRt345oEvpL6H7evEj-4PVejg/viewform","","Norman, OK",35.2226,-97.4395,"Norman, Oklahoma, USA","USA","","","","","","","mutualaidhub.org","698",
"Meridian, ID COVID-19 M.A.G. (Mutual Aid Group)","FacebookMutualAid","https://www.facebook.com/groups/634092660497074/about/","https://www.facebook.com/groups/634092660497074/about/","Meridian, ID",43.6086,-116.3923,"Meridian, Idaho, USA","USA","","https://docs.google.com/forms/d/e/1FAIpQLSesPtwSsX2ALECobtLGgUaQqIuyJ0eEuxqD6fJA12QBedaeoQ/viewform?usp=sf_link","https://docs.google.com/forms/d/e/1FAIpQLSdGdTBq4W3nXmn7C9ruDRRh1sw2oqMlV_WT7-tbLEHaS0US7Q/viewform?usp=sf_link","","","","mutualaidhub.org","699",
"Mutual Aid Dayton/Miami Valley","","https://docs.google.com/forms/d/e/1FAIpQLScdPCDu3-uo0t-JKNkm-J_yooPrin8nJagexqdt9l23XVgT_g/viewform","","Dayton, OH",39.7589,-84.1916,"Dayton, Ohio, USA","USA","","","","","","","mutualaidhub.org","700",
"Eagle, ID COVID-19 M.A.G. (Mutual Aid Group)","FacebookMutualAid","https://www.facebook.com/groups/260166328311384/?ref=br_rs","https://www.facebook.com/groups/260166328311384/?ref=br_rs","Eagle, ID",43.6954,-116.354,"Eagle, Idaho, USA","USA","","https://docs.google.com/forms/d/e/1FAIpQLSesPtwSsX2ALECobtLGgUaQqIuyJ0eEuxqD6fJA12QBedaeoQ/viewform?usp=sf_link","https://docs.google.com/forms/d/e/1FAIpQLSdGdTBq4W3nXmn7C9ruDRRh1sw2oqMlV_WT7-tbLEHaS0US7Q/viewform?usp=sf_link","","","","mutualaidhub.org","701",
"Oregon / Benton County: Benton County Family Response Team","FacebookMutualAid","https://www.facebook.com/groups/203009070792562/?ref=share","https://www.facebook.com/groups/203009070792562/?ref=share","Philomath, OR",44.54,-123.3676,"Philomath, Oregon, USA","USA","","","","","","","mutualaidhub.org","702",
"Ward 5 DC Mutual Aid","","https://docs.google.com/forms/d/e/1FAIpQLScoHwezDrIhbEhQsSr_QbgSbOyq2ZJtsNCsYkNc5Y33C4n2Sw/viewform?fbclid=IwAR1rbnFNT-wfkZHIBXCGnEZXvHQ9XCiygm0YpjVBRHw5yeqwi3FzXdRHbug","","Brookland, DC, Washington, DC",38.895,-77.0366,"Washington, DC, United States","USA","","","","","","","mutualaidhub.org","703",
"Corpus Christ Mutual Aid","FacebookMutualAid","https://www.facebook.com/CORPUSDSA/","https://www.facebook.com/CORPUSDSA/","Corpus Christi, TX",27.8003,-97.3956,"Corpus Christi, Texas, USA","USA","","https://docs.google.com/forms/d/e/1FAIpQLScZu7FTVoYqIrD6OU1sOAy2sDtUcG0-cjfKcp-iY1S00fzBrQ/viewform","https://docs.google.com/forms/d/e/1FAIpQLSdlJRBXdjnbueuVBCsCYK1SGujEHTh4FjbYWjzYhFQlRIKJMw/viewform","","","","mutualaidhub.org","704",
"Brookland Mutual Aid Exchange","","https://docs.google.com/spreadsheets/d/1cKNuQeUSxb_QLMysSSu-EhgFOhYkciW7AUPoLdXwf4I/edit?pli=1#gid=0","","Brookland, DC, Washington, DC",38.895,-77.0366,"Washington, DC, United States","USA","","","","","","","mutualaidhub.org","705",
"Manchester NH Mutual Aid Network","","https://docs.google.com/spreadsheets/d/1nsTIfaqbvnq_7d1mUei_8JJNULiWpmmcfk9kTa-gGGI/htmlview?fbclid=IwAR3eJDFJ9g52ODmKLZrf-4uekQTbdkMc5dklpqjPPiKAVUPg2aukPLHqd-Q#","","Manchester, NH",42.9956,-71.4548,"Manchester, New Hampshire, USA","USA","","","","","","","mutualaidhub.org","706",
"Stoneham Mutual Aid Network","","https://docs.google.com/document/d/1Tkt1jfFF_IXb9F3I7ENtOpkUIVz52jzhG6F-XoTtk58/edit?usp=sharing","","Stoneham, MA",42.4801,-71.0995,"Stoneham, Massachusetts, United States","USA","","https://forms.gle/dFnxWZP7v2rrtNUCA","https://forms.gle/dFnxWZP7v2rrtNUCA","","","","mutualaidhub.org","707",
"Maryland / Baltimore: Mutual Aid and Emergency Relief Fund","FacebookMutualAid","https://www.facebook.com/donate/201582851152373/?fundraiser_source=external_url","https://www.facebook.com/donate/201582851152373/?fundraiser_source=external_url","Baltimore, MD",39.2909,-76.6108,"Baltimore, Maryland, USA","USA","","","","","","","mutualaidhub.org","708",
"California / South Bay: South Bay Mutual Aid Volunteer Intake (Español)","","https://docs.google.com/forms/d/1qbZtxiIcLFHRb2Y26w708-Ex4lnN4g9JEiEaxRlsDU8/viewform?edit_requested=true","","South Bay, Santa Clara, CA",37.3541,-121.9552,"Santa Clara, California, United States","USA","","","https://docs.google.com/forms/d/1qbZtxiIcLFHRb2Y26w708-Ex4lnN4g9JEiEaxRlsDU8/viewform?edit_requested=true","","","","mutualaidhub.org","709",
"Eureka Springs Community Support","FacebookMutualAid","https://www.facebook.com/groups/1519039534918942?id=1519039534918942&ref=content_filter","https://www.facebook.com/groups/1519039534918942?id=1519039534918942&ref=content_filter","Eureka Springs, AR",36.4001,-93.7392,"Eureka Springs, Arkansas, USA","USA","","","","","","","mutualaidhub.org","710",
"Mutual Aid Lexington","","https://docs.google.com/document/d/1n7Qre55HQ8fFYC9D3BLQ1x5NWXrilNapylo2FAbaXm4/edit","","Lexington, MA",42.4473,-71.2245,"Lexington, Massachusetts, USA","USA","","","","","","","mutualaidhub.org","711",
"Emmanuel College Mutual Aid Fund","","https://alumni.emmanuel.edu/make-a-gift","","Boston, MA",42.3605,-71.0596,"Boston, Massachusetts, United States","USA","","","https://alumni.emmanuel.edu/make-a-gift","","","","mutualaidhub.org","712",
"Organizing Mutual Aid Baton Rouge","FacebookMutualAid","https://www.facebook.com/groups/211459096874868/","https://www.facebook.com/groups/211459096874868/","Baton Rouge, LA",30.4507,-91.1546,"Baton Rouge, Louisiana, United States","USA","","","","","","","mutualaidhub.org","713",
"PUSH Buffalo","","https://www.pushbuffalo.org/coronavirus/covid-19-mutual-aid/","","Buffalo, NY",42.9333,-78.877,"Buffalo, New York, USA","USA","","","","","","","mutualaidhub.org","714",
"BTV Mutual Aid Request","","https://docs.google.com/spreadsheets/d/1tyulf48eR8s5cMRuABqRh61OtyrhCzqOR1W346XQadE/edit#gid=1727309836","","Burlington, VT",44.4724,-73.2115,"Burlington, Vermont, United States","USA","","","","","","","mutualaidhub.org","715",
"Revere Mutual Aid","","https://docs.google.com/document/d/1SkHedKaWDfjbNRjKViCuOBzUXLPTbiGFsKqNck-hDG4/edit","","Revere, MA",42.4084,-71.012,"Revere, Massachusetts, USA","USA","","","","","","","mutualaidhub.org","716",
"Northwest Michigan Mutual Aid","FacebookMutualAid","https://www.facebook.com/groups/michiganmutualaid/?ref=br_rs","https://www.facebook.com/groups/michiganmutualaid/?ref=br_rs","Traverse City, MI",44.7606,-85.6165,"Traverse City, Michigan, USA","USA","","","","","","","mutualaidhub.org","717",
"Berlin area COVID-19 Mutual Aid Volunteer Signup","","https://docs.google.com/forms/d/e/1FAIpQLSf4g1a9jAQZZbvtVqkp-C1yPWITX7yKNNWMUZ8xOiNYVYbHRA/viewform","","Berlin, Barre, VT",44.197,-72.502,"Barre, Vermont, United States","USA","","","","","","","mutualaidhub.org","718",
"Maryland / Baltimore: Alanah’s COVID-19 Emergency Fund for Artists and Freelancers","","https://docs.google.com/forms/d/e/1FAIpQLSfXQfPti1mE5TT8qDjd_DzxkIiG1jPT5BhYcgdFehVTvibZCQ/viewform","","Baltimore, MD",39.2909,-76.6108,"Baltimore, Maryland, USA","USA","","","","","","","mutualaidhub.org","719",
"Mutual Aid Collective, Boulder","FacebookMutualAid","https://www.facebook.com/groups/201650704398894/","https://www.facebook.com/groups/201650704398894/","Boulder, CO",40.015,-105.2705,"Boulder, Colorado, USA","USA","","","","","","","mutualaidhub.org","720",
"COVID-19 PVD Area Mutual Aid and Community Assistance","FacebookMutualAid","https://www.facebook.com/groups/648623035913789/about/","https://www.facebook.com/groups/648623035913789/about/","Providence, RI",41.824,-71.4128,"Providence, Rhode Island, USA","USA","","","","","","","mutualaidhub.org","721",
"WA Helpers","","https://www.wahelpers.com/","","Seattle, WA",47.6038,-122.3301,"Seattle, Washington, United States","USA","","https://docs.google.com/forms/d/e/1FAIpQLSdkDlqgJTcP57DZwsPCUAkdAk-VAtXcs1Z6gaodIhsaoZvkdA/viewform","https://docs.google.com/forms/d/e/1FAIpQLSdkDlqgJTcP57DZwsPCUAkdAk-VAtXcs1Z6gaodIhsaoZvkdA/viewform","","","","mutualaidhub.org","722",
"Shelby Township Utica Resiliency Network MI","FacebookMutualAid","https://www.facebook.com/groups/1849304025203614/about","https://www.facebook.com/groups/1849304025203614/about","Shelby Township, Detroit, MI",42.3487,-83.0567,"Detroit, Michigan, USA","USA","","","https://docs.google.com/forms/d/e/1FAIpQLSd0Cm7qZgrsijamUOCNAw431lKBEH5TRBfUSzAyM9L9JEPPsA/viewform","","","","mutualaidhub.org","723",
"CTCORE Mutual Aid","","http://www.ctcore-organizenow.org/coronactsupport","https://www.facebook.com/ctcoreorganizenow.org/","Hartford, CT",41.7635,-72.6831,"Hartford, Connecticut, USA","USA","","https://docs.google.com/forms/d/e/1FAIpQLSee9baIhH7IglyvLdkBtlrMSK9AiJbJQvIksUArLV0ZksvO7g/viewform","https://docs.google.com/forms/d/e/1FAIpQLSee9baIhH7IglyvLdkBtlrMSK9AiJbJQvIksUArLV0ZksvO7g/viewform","","","","mutualaidhub.org","724",
"Utah Valley Mutual Aid","","https://utahmutualaid.org/","","Saratoga Springs, UT",40.3491,-111.9047,"Saratoga Springs, Utah, USA","USA","","https://docs.google.com/forms/d/e/1FAIpQLSdxm15E4lYHn1c3XrtrN7ze5eJbQiLizwKYsr_gq_NQA6R2tw/viewform?usp=sf_link","https://www.facebook.com/groups/utahmutualaid/","","","","mutualaidhub.org","725",
"Team Beaverton","","https://www.teambeaverton.com/","","Beaverton, OR",45.4872,-122.8038,"Beaverton, Oregon, USA","USA","","https://www.teambeaverton.com/resources","","","","","mutualaidhub.org","726",
"Buddy System MIA","","http://www.buddysystemMIA.com","","Miami, FL",25.7743,-80.1937,"Miami, Florida, USA","USA","","","","","","","mutualaidhub.org","727",
"Washtenaw County Mutual Aid Resources","FacebookMutualAid","https://www.facebook.com/groups/2424471741198383/?ref=share","https://www.facebook.com/groups/2424471741198383/?ref=share","Washtenaw County, Ann Arbor, MI",42.2682,-83.7312,"Ann Arbor, Michigan, United States","USA","","https://docs.google.com/forms/d/e/1FAIpQLSdhW2voPOll9Jmy_QR0AXk1Pge1JGn3tByJ-SlPfKNsMjcHLg/viewform","https://docs.google.com/forms/d/e/1FAIpQLSdhW2voPOll9Jmy_QR0AXk1Pge1JGn3tByJ-SlPfKNsMjcHLg/viewform","","","","mutualaidhub.org","728",
"Denver Public Schools foundation","","https://www.dpsk12.org/coronavirus/","","Denver, CO",39.7348,-104.9653,"Denver, Colorado, United States","USA","","","","","","","mutualaidhub.org","729",
"Dunbar Mutual Aid","FacebookMutualAid","https://www.facebook.com/groups/1401289083415454/","https://www.facebook.com/groups/1401289083415454/","Harlem / Sugar Hill, New York City, NY",40.7648,-73.9808,"New York City, New York, United States","USA","","","","","","","mutualaidhub.org","730",
"Huntington Delivery Team","","https://docs.google.com/forms/d/1HHE6cZKccnIBioAt0-qLuxeKuzU-DeG6gYNVIBjB_hs/viewform?fbclid=IwAR3AkXF5joHjl5LfqrsVEp5r0Y0RTmeK2BtaEMlXWbkZuekE4H3hyo9Eo0Y&edit_requested=true","","Huntington, WV",38.4192,-82.4452,"Huntington, West Virginia, USA","USA","","","","","","","mutualaidhub.org","731",
"Mutual Aid Northeast Ohio","FacebookMutualAid","https://www.facebook.com/groups/833037507201791/?ref=br_rs","https://www.facebook.com/groups/833037507201791/?ref=br_rs","Cleveland, OH",41.5052,-81.6934,"Cleveland, Ohio, USA","USA","","","","","","","mutualaidhub.org","732",
"Bloomfield/Garfiend Cooperation","","https://bloomfield-garfield.org/uncategorized/covid-19-resources-get-help/","","Bloomfield/Garfield, Pittsburgh, PA",40.4417,-79.9901,"Pittsburgh, Pennsylvania, United States","USA","","","","","","","mutualaidhub.org","733",
"ATX Mutual Aid for Covid19","FacebookMutualAid","https://www.facebook.com/groups/2600062263571948/","https://www.facebook.com/groups/2600062263571948/","Austin, TX",30.2711,-97.7437,"Austin, Texas, USA","USA","","","","","","","mutualaidhub.org","734",
"United Disaster Relief of Northern California","FacebookMutualAid","https://www.facebook.com/mendolakecomplexfirerelief/","https://www.facebook.com/mendolakecomplexfirerelief/","Ukiah, CA",39.1502,-123.2078,"Ukiah, California, USA","USA","","https://www.ncoinc.org/fs/mendocino-fire-recovery-center/?fbclid=IwAR3eKmYGEbnpVDoEvchqrrCfD5EA0KLIL10WM_qKFHDqGeS8EBqxP2Urb80","https://www.ncoinc.org/programs/volunteer-network/","","","","mutualaidhub.org","735",
"Prince William County Mutual Aid","FacebookMutualAid","https://www.facebook.com/pwcmutualaid/","https://www.facebook.com/pwcmutualaid/","Manassas, VA",38.7509,-77.4753,"Manassas, Virginia, United States","USA","","","","","","","mutualaidhub.org","736",
"Hamilton Community Response","FacebookMutualAid","https://www.facebook.com/groups/Hamont.Response.COVID19/","https://www.facebook.com/groups/Hamont.Response.COVID19/","Hamilton, ON",43.2547,-79.8678,"Hamilton, Ontario, Canada","Canada","","","","","","","mutualaidhub.org","737",
"COVID19 Love- San Francisco","","https://docs.google.com/forms/d/e/1FAIpQLSfyYeYDPAzKjywTz8T63vqxettyc40cgvOfugj8mN5SIgaOFA/viewform","","San Francisco, CA",37.7648,-122.463,"San Francisco, California, United States","USA","","https://docs.google.com/forms/d/e/1FAIpQLSfyYeYDPAzKjywTz8T63vqxettyc40cgvOfugj8mN5SIgaOFA/viewform","https://docs.google.com/forms/d/e/1FAIpQLSfyYeYDPAzKjywTz8T63vqxettyc40cgvOfugj8mN5SIgaOFA/viewform","","","","mutualaidhub.org","738",
"Williams College Mutual Aid","","https://docs.google.com/forms/d/e/1FAIpQLSdeS2RWIjqvFmj6QiY2ur9P1rogCjrlAtMQgDwLxeMZKR4Ytg/viewform","","Williamstown, MA",42.7122,-73.2036,"Williamstown, Massachusetts, United States","USA","","","https://docs.google.com/forms/d/e/1FAIpQLSdeS2RWIjqvFmj6QiY2ur9P1rogCjrlAtMQgDwLxeMZKR4Ytg/viewform","","","","mutualaidhub.org","739",
"Klamath Siskiyou Mutual Aid Network","FacebookMutualAid","https://www.facebook.com/groups/218700056182795/?ref=br_rs","https://www.facebook.com/groups/218700056182795/?ref=br_rs","Siskiyou County, Yreka, CA",41.7326,-122.6378,"Yreka, California, United States","USA","","","","","","","mutualaidhub.org","740",
"Elmhurst Tackles COVID-19 (ETC 19)","FacebookMutualAid","https://www.facebook.com/groups/2749440901818281/?ref=bookmarks","https://www.facebook.com/groups/2749440901818281/?ref=bookmarks","Elmhurst, IL",41.8995,-87.9403,"Elmhurst, Illinois, United States","USA","","","","","","","mutualaidhub.org","741",
"Minnesota / Minneapolis–Saint Paul: Twin Cities Queer and Trans Mutual Aid","","https://docs.google.com/forms/d/e/1FAIpQLSdAlOLU9hOKMjwX4W2sQKF69FAF3ow_fSPzjKC67_iyYDRLaQ/viewform","","Minneapolis, MN",44.9773,-93.2655,"Minneapolis, Minnesota, United States","USA","","https://docs.google.com/forms/d/e/1FAIpQLSdAlOLU9hOKMjwX4W2sQKF69FAF3ow_fSPzjKC67_iyYDRLaQ/viewform","","","","","mutualaidhub.org","742",
"COVID-19 Resource Spreadsheet - Durham","","https://docs.google.com/spreadsheets/d/1oASQ_jeqC578BvcTtRLv7mj59TVJlR3Mx1LSTXaNpr0/edit?usp=drivesdk","","Durham, NC",35.994,-78.8986,"Durham, North Carolina, USA","USA","","","","","","","mutualaidhub.org","743",
"Kentucky / Lexington: Mutual Aid Lexington Kentucky","","https://docs.google.com/forms/d/e/1FAIpQLSeP4koOM1yO-tb6VicTWjZhCHTSrarceghikJROf6QL2Nc8eQ/viewform?fbclid=IwAR36e-f2AdpyseehKsQ-0NqfPLyOV-2PP0d6d3rEDgZO2O_u1ykne77n2po","https://www.facebook.com/groups/199450304659978/","Lexington, KY",38.0464,-84.497,"Lexington, Kentucky, USA","USA","","","","","","","mutualaidhub.org","744",
"Neighbors4Seniors","","https://www.Neighbors4Seniors.com","","Wayland, MA",42.3632,-71.3607,"Wayland, Massachusetts, United States","USA","","","https://www.wayland.info/rsvpmaker/wayland-call-seniors-volunteer-long-term/","","","","mutualaidhub.org","745",
"Apart Not Alone - Baltimore","","https://apartnotalone.com/","","Baltimore, MD",39.2909,-76.6108,"Baltimore, Maryland, United States","USA","","","","","","","mutualaidhub.org","746",
"Petworth mutual aid volunteer sign-up","","https://docs.google.com/forms/d/e/1FAIpQLSciJvF5ei9_IoWFpJo7I7rBFB8b-CjCzOxzLE3tBscOb4m98Q/closedform","","Petworth, DC, Washington, DC",38.895,-77.0366,"Washington, DC, United States","USA","","","","","","","mutualaidhub.org","747",
"Linn County, IA Coronavirus support, swap, resources group","FacebookMutualAid","https://www.facebook.com/groups/881359378990113/","https://www.facebook.com/groups/881359378990113/","Cedar Rapids, IA",41.9759,-91.6704,"Cedar Rapids, Iowa, United States","USA","","","","","","","mutualaidhub.org","748",
"Six Feet Supplies SCV","","https://www.sixfeetsupplies.com/","","Valencia, CA",34.4436,-118.6095,"Valencia, California, United States","USA","","","","","","","mutualaidhub.org","749",
"Troy Mutual Aid Society 2020","FacebookMutualAid","https://www.facebook.com/groups/220879635954876/","https://www.facebook.com/groups/220879635954876/","Troy, NY",42.7284,-73.6918,"Troy, New York, USA","USA","","","","","","","mutualaidhub.org","750",
"Project Pasadena","","http://contact88536.wixsite.com/projectpasadena","https://www.facebook.com/ProjectPasadena/","Pasadena, CA",34.1476,-118.1445,"Pasadena, California, United States","USA","","https://www.projectpasadena.com/forum","https://www.projectpasadena.com/forum","","","","mutualaidhub.org","751",
"Hallowell All Age-Friendly Committee","","http://age-friendly-hallowell.org","","Hallowell, ME",44.2859,-69.7909,"Hallowell, Maine, USA","USA","","","","","","","mutualaidhub.org","752",
"El Cerrito Mutual Aid Network","","https://docs.google.com/forms/d/e/1FAIpQLSf7xkSIiHpuq6lKG2r6C0-FnhpZH4JNe1xxsckDXLxu3eHJSQ/viewform","","El Cerrito, CA",37.9154,-122.3014,"El Cerrito, California, United States","USA","","https://docs.google.com/forms/d/e/1FAIpQLSf7xkSIiHpuq6lKG2r6C0-FnhpZH4JNe1xxsckDXLxu3eHJSQ/viewform","https://docs.google.com/forms/d/e/1FAIpQLSf7xkSIiHpuq6lKG2r6C0-FnhpZH4JNe1xxsckDXLxu3eHJSQ/viewform","","","","mutualaidhub.org","753",
"Mutual Aid East Boston / Grupo de Apoyo Mutuo East Boston y Chelsea","","http://whatsupeastie.com/mutualaideastie","","East Boston, MA",42.375,-71.03972,"East Boston, Massachusetts, USA","USA","","","","","","","mutualaidhub.org","754",
"Whatcom Mutual Aid","FacebookMutualAid","https://www.facebook.com/groups/2466079660320179/?ref=br_rs","https://www.facebook.com/groups/2466079660320179/?ref=br_rs","Bellingham, WA",48.7544,-122.4789,"Bellingham, Washington, USA","USA","","","","","","","mutualaidhub.org","755",
"South Brooklyn Community - COVID-19 Neighborhood Volunteers","","https://docs.google.com/spreadsheets/d/1RduJEBqZFa9jXgDZskga06cH52mDR87yoNdXIajLOsU/edit?ts=5e6bbc0a#gid=1419997113","","South Brooklyn, New York City, NY",40.7648,-73.9808,"New York City, New York, United States","USA","","","","","","","mutualaidhub.org","756",
"Michigan / Kalamazoo: Kzoo Covid-19 Mutual Aid List","","https://docs.google.com/forms/d/e/1FAIpQLSeW-Dmt_Z_QPu81ad0jo5gs4vjx2zREupOmdoLnn2JBntapGg/viewform","https://www.facebook.com/groups/225779971877883/?ref=search","Kalamazoo, MI",42.2917,-85.5872,"Kalamazoo, Michigan, USA","USA","","","","","","","mutualaidhub.org","757",
"Supporting Frederick, Maryland Small Businesses Through Covid-19","FacebookMutualAid","https://www.facebook.com/groups/FrederickCoronaResponse/?ref=br_rs","https://www.facebook.com/groups/FrederickCoronaResponse/?ref=br_rs","Fredrick, MD",39.4144,-77.4106,"Frederick, Maryland, USA","USA","","","","","","","mutualaidhub.org","758",
"Albuquerque, What do you need?","","https://docs.google.com/forms/d/e/1FAIpQLSeGo_Doo8bczJ1L0F7RKU76eTTUaqqbdljGtVMM1H08_JKqCQ/viewform?fbclid=IwAR3F9-CJ9hkLCbFxZinlGkLkMQoJ61NaWWg_Q36FIBPbyDsSxdesDoxCeWA","","Albuquerque, NM",35.0841,-106.651,"Albuquerque, New Mexico, USA","USA","","","","","","","mutualaidhub.org","759",
"HGSU COVID-19 Assistance Request & Volunteer Form","","https://docs.google.com/forms/d/e/1FAIpQLSegRedWMV9Mbz3C-QO1wrthrOv5lgHfV9y-v3EPIBUDzyWS3g/viewform?link_id=0&can_id=1c65141e56529df26d0674ba2adc42dc&source=email-new-covid-19-assistance-request-volunteer-form-and-other-resources&email_referrer=email_747884&email_subject=new-covid-19-assistance-request-volunteer-form-and-other-resources&fbzx=799117970475840452","","Cambridge, MA",42.3751,-71.1056,"Cambridge, Massachusetts, United States","USA","","","https://docs.google.com/forms/d/e/1FAIpQLSegRedWMV9Mbz3C-QO1wrthrOv5lgHfV9y-v3EPIBUDzyWS3g/viewform?link_id=0&can_id=1c65141e56529df26d0674ba2adc42dc&source=email-new-covid-19-assistance-request-volunteer-form-and-other-resources&email_referrer=email_747884&email_subject=new-covid-19-assistance-request-volunteer-form-and-other-resources&fbzx=799117970475840452","","","","mutualaidhub.org","760",
"Rutland County Mutual Aid","","https://sites.google.com/view/rutvtmutualaid?fbclid=IwAR0DE58yEqe4umAUwOyykjcLR6P7188uL5V7En2LCEH2mFiJeZTQlKNXcIM","","Rutland, VT",43.6106,-72.9726,"Rutland, Vermont, USA","USA","","","https://docs.google.com/forms/d/e/1FAIpQLSfhRQdUOXzUF-VhFgsmlqlDzNW4QMEqMr1ALtEzz_blzO3HGA/viewform","","","","mutualaidhub.org","761",
"Share The Care - Connecticut","FacebookMutualAid","http://www.facebook.com/sharethecareandlove","http://www.facebook.com/sharethecareandlove","Ansonia, CT",41.343,-73.0787,"Ansonia, Connecticut, USA","USA","","","","","","","mutualaidhub.org","762",
"COVID 19 North Country Neighbors Helping Neighbors","FacebookMutualAid","https://www.facebook.com/groups/539812396667366/","https://www.facebook.com/groups/539812396667366/","Plattsburgh, NY",44.6928,-73.4556,"Plattsburgh, New York, USA","USA","","https://docs.google.com/forms/d/e/1FAIpQLSfnqN_S0R75zyJSMZ9F-2yLw4r_qF2OcY8pd2TfUmv6ETsSIA/viewform","","","","","mutualaidhub.org","763",
"Lawrence Mutual Aid Network","FacebookMutualAid","https://www.facebook.com/lfkmutual/","https://www.facebook.com/lfkmutual/","Lawrence, KS",38.9719,-95.2359,"Lawrence, Kansas, United States","USA","","https://airtable.com/shrByTwSPRXqze4aC","https://airtable.com/shrt5WWjMDOKCLSdV","","","","mutualaidhub.org","764",
"Caremongering Detroit","FacebookMutualAid","https://www.facebook.com/groups/caremongeringdetroit/","https://www.facebook.com/groups/caremongeringdetroit/","Detroit, MI",42.3487,-83.0567,"Detroit, Michigan, United States","USA","","","https://www.facebook.com/groups/caremongeringdetroit/","","","","mutualaidhub.org","765",
"Columbia SC Mutual Aid","FacebookMutualAid","https://www.facebook.com/groups/174031214047287/","https://www.facebook.com/groups/174031214047287/","Columbia, SC",34.0007,-81.0343,"Columbia, South Carolina, United States","USA","","https://docs.google.com/forms/d/e/1FAIpQLSdw14ceghA97Q1zHmJ4xO6iMp93ZR1duxBXRJyczqj_YLp_2Q/viewform","https://docs.google.com/forms/d/e/1FAIpQLSd1AN6ebit6-tk1z1_Cq02UUMZUzhPNlWx5J62949ISLz3FIA/viewform?fbclid=IwAR3vUiGl1RMjiBb3U1bfBZ-AqWmwBkTjYF1DxMn_wzO0VUPPjZu_tBsdj68","","","","mutualaidhub.org","766",
"Common Stash: Mutual Aid in So-called Olympia","","https://www.commonstash.org/","","Olympia, WA",47.045,-122.8949,"Olympia, Washington, USA","USA","","","","","","","mutualaidhub.org","767",
"HelpAroundTown","","https://www.helparoundtown.com","https://www.facebook.com/HelpAroundTown/","Lexington, MA",42.4473,-71.2245,"Lexington, Massachusetts, United States","USA","","https://www.helparoundtown.com/help","https://www.helparoundtown.com/jobs","","","","mutualaidhub.org","768",
"Help Needed in Albuquerque COVID-19","FacebookMutualAid","https://www.facebook.com/groups/247465889623611/?multi_permalinks=247582216278645&notif_id=1584646671177003&notif_t=feedback_reaction_generic","https://www.facebook.com/groups/247465889623611/?multi_permalinks=247582216278645&notif_id=1584646671177003&notif_t=feedback_reaction_generic","Albuquerque, NM",35.0841,-106.651,"Albuquerque, New Mexico, USA","USA","","","","","","","mutualaidhub.org","769",
"Okemah Helping Hands","FacebookMutualAid","https://www.facebook.com/groups/1095919797417666/","https://www.facebook.com/groups/1095919797417666/","Okemah, OK",35.4326,-96.305,"Okemah, Oklahoma, USA","USA","","","","","","","mutualaidhub.org","770",
"Worcester Covid-19 Mutual Aid","","https://docs.google.com/forms/d/1HBrK1QB1W1ES2G2K6sdA51stmscdKohyC6R3zMXni2I/viewform?ts=5e6f6182&edit_requested=true","","Worcester, VT",44.3737,-72.5498,"Worcester, Vermont, USA","USA","","https://docs.google.com/forms/d/1i-ajw5xGi2ybiowBL1UvzyXoWl6EgbJL679ImBQscJY/viewform?ts=5e6f61bd&edit_requested=true","https://docs.google.com/forms/d/1HBrK1QB1W1ES2G2K6sdA51stmscdKohyC6R3zMXni2I/viewform?ts=5e6f6182&edit_requested=true","","","","mutualaidhub.org","771",
"Lynn MA Mutual Aid Disaster Relief","FacebookMutualAid","https://www.facebook.com/groups/242220393479479/","https://www.facebook.com/groups/242220393479479/","Lynn, MA",42.4668,-70.9495,"Lynn, Massachusetts, USA","USA","","","","","","","mutualaidhub.org","772",
"Covid-19-South Florida-Radical Mutual Aid","FacebookMutualAid","https://www.facebook.com/groups/211545970124496/","https://www.facebook.com/groups/211545970124496/","Fort Lauderdale, FL",26.1223,-80.1434,"Fort Lauderdale, Florida, United States","USA","","","","","","","mutualaidhub.org","773",
"Boulder Coronavirus Community Coping Crew","FacebookMutualAid","https://www.facebook.com/groups/199467514668513/?ref=share","https://www.facebook.com/groups/199467514668513/?ref=share","Boulder, CO",40.015,-105.2705,"Boulder, Colorado, USA","USA","","","","","","","mutualaidhub.org","774",
"Georgia Tech Mutual Aid Group","","https://docs.google.com/document/d/1_bJq94j3p2n-lDoETOH7wzhACjjmgw9l23QpbCa0Cag/edit","","Atlanta, GA",33.7491,-84.3902,"Atlanta, Georgia, USA","USA","","","","","","","mutualaidhub.org","775",
"Pilsen Vecinos Unidos: COVID-19 Neighborhood Volunteers","FacebookMutualAid","https://www.facebook.com/groups/1508709089408538/permalink/2622532194692883/","https://www.facebook.com/groups/1508709089408538/permalink/2622532194692883/","Chicago, IL",41.8756,-87.6244,"Chicago, Illinois, United States","USA","","","","","","","mutualaidhub.org","776",
"COVID-19 Mutual Aid Group Phoenix Metro Area","","https://www.mutualaidphx.com/","https://www.facebook.com/groups/144504496872461/145065600149684/","Phoenix, AZ",33.4486,-112.0773,"Phoenix, Arizona, USA","USA","","","","","","","mutualaidhub.org","777",
"Mutual Aid of NY Southern Adirondacks","FacebookMutualAid","https://www.facebook.com/groups/1573307162820055/","https://www.facebook.com/groups/1573307162820055/","Gloversville, NY",43.0528,-74.3437,"Gloversville, New York, United States","USA","","","","","","","mutualaidhub.org","778",
"California / East Bay: East Bay Disabled Folks COVID-19 Support Request Form","","https://docs.google.com/forms/d/e/1FAIpQLSc7LLhYN243k6xFlmQH26lAN9EoRXgEQGrghbqL8Ttc1K8YNA/viewform","","East Bay, Oakland, CA",37.8045,-122.2714,"Oakland, California, United States","USA","","","https://docs.google.com/forms/d/e/1FAIpQLSc7LLhYN243k6xFlmQH26lAN9EoRXgEQGrghbqL8Ttc1K8YNA/viewform","","","","mutualaidhub.org","779",
