"Name","Listing Source","Homepage","OfferOrRequestForm","SocialMedia","City","State","Country","Address"
"Burlington Babysitter Request / Services","","https://docs.google.com/forms/d/e/1FAIpQLSc1YI4uVONXpfvMgpH4YIjS-8XU_FBd6ESvBQjHiISpzOs_pg/viewform","https://docs.google.com/forms/d/e/1FAIpQLSc1YI4uVONXpfvMgpH4YIjS-8XU_FBd6ESvBQjHiISpzOs_pg/viewform","","Burlington","VT","USA","Burlington, Vermont, United States"
"Mutual Aid - New Orleans","","https://www.facebook.com/groups/MutualAidNOLA/?ref=br_rs","","https://www.facebook.com/groups/MutualAidNOLA/?ref=br_rs","New Orleans","LA","USA","New Orleans, Louisiana, USA"
"Raising Kane County","","https://www.raisingkane.io/","","","St. Charles","IL","USA","Saint Charles, Illinois, USA"
"Hunting Ridge COVID-19","","https://forms.gle/5kdyv6eyvyLu1WFv7","","","Baltimore","MD","USA","Baltimore, Maryland, United States"
"Western Massachusetts Community Mutual Aid network","","https://docs.google.com/document/d/1s7nxiKPSrAtfSyHDZwPz2M6O5SdiiF4a3z1k-capCXQ/edit","","","Chicopee","MA","USA","Chicopee, Massachusetts, USA"
"PDX Mutual Aid","","https://linktr.ee/pdxmutualaid","https://docs.google.com/forms/d/e/1FAIpQLSfAMZHbn6md19Tb28SM53ayFAQK02xJv1NXVjL-J26tDZOQ-g/viewform","https://www.facebook.com/pdxcovid19mutualaid","Portland","OR","USA","Portland, Oregon, United States"
"Mutual Aid Society Winnipeg","","https://www.facebook.com/groups/220944599058149/?ref=share","","https://www.facebook.com/groups/220944599058149/?ref=share","Winnipeg","MB","Canada","Winnipeg, Manitoba, Canada"
"Mutual Aid Colorado Springs","","https://docs.google.com/forms/d/e/1FAIpQLScjX-h6JXME_QkcbkaeXb6Rm9dSkMSu9ebvQvVu-bovF2_o1w/viewform","","https://www.facebook.com/groups/197210804946129/about/","Colorado Springs","CO","USA","Colorado Springs, Colorado, USA"
"Cville Community Care Team: COVID Response","","https://congregatecville.com/","https://cacf.iphiview.com/cacf/GIVENOW/AccountInformation/tabid/524/dispatch/accountselection_id$140734_hash$e621469f5bc6f507dea0f0c6253f9ce280a69c36/Default.aspx","https://www.facebook.com/cvilleareacf/","Charlottesville","VA","USA","Charlottesville, Virginia, USA"
"Hartland-Area Mutual Aid","","https://docs.google.com/forms/d/e/1FAIpQLSfG9nNy5tJlqN4yWXLIvX6abE1hHSUo7sw2SkRhsSy1h6sgaA/viewform?fbclid=IwAR0SC4N2J_cWXKv1u-SwLCXXGxWEp7GVXTUoQ5mm3ujf4USjT6rl9oxQFh0","https://docs.google.com/forms/d/e/1FAIpQLSfG9nNy5tJlqN4yWXLIvX6abE1hHSUo7sw2SkRhsSy1h6sgaA/viewform?fbclid=IwAR0SC4N2J_cWXKv1u-SwLCXXGxWEp7GVXTUoQ5mm3ujf4USjT6rl9oxQFh0","","Harland","VT","USA","Hartland, Vermont, USA"
"Morgantown Delivery Team","","https://docs.google.com/forms/d/e/1FAIpQLSfmNtj_qPev4UM5pThgNs169nxCryEsJrIu1a8XujY3WynGIg/viewform?fbclid=IwAR3ukqdosbB17C7luB5hr1roz76RI7hcx_Dvy2I6BwMKOT2cYxuxymnNAX0","","","Morgantown","WV","USA","Morgantown, West Virginia, USA"
"COVID Mutual Aid: Friendship/Bloomfield","","https://www.facebook.com/groups/2655530078016420/?ref=share","","https://www.facebook.com/groups/2655530078016420/?ref=share","Pittsburgh","PA","USA","Bloomfield, Pittsburgh, Pennsylvania 15224, USA"
"Combating COVID-19 in Highland Park, MI (& Surrounding Communities)","","https://www.facebook.com/groups/646455195924175/","https://docs.google.com/forms/d/e/1FAIpQLSfc15hrr6Fym_95gXA_drt18qrqZEKANTu0dgHI44BYfHL6tg/viewform","https://www.facebook.com/groups/646455195924175/","Detroit","MI","USA","Detroit, Michigan, USA"
"New Mexico / Albuquerque: Help Needed in Albuquerque COVID-19","","https://www.facebook.com/groups/247465889623611/?ref=share","","https://www.facebook.com/groups/247465889623611/?ref=share","Albuquerque","NM","USA","Albuquerque, New Mexico, USA"
"High Desert Mutual Aid Society","","https://www.facebook.com/Highdesertmutualaid","","https://www.facebook.com/Highdesertmutualaid","Victorville","CA","USA","Victorville, California, United States"
"COVID-19 Lockport Area Mutual Aid","","https://www.facebook.com/Covid-19-Lockport-Area-Mutual-Aid-100285148300404/","","https://www.facebook.com/Covid-19-Lockport-Area-Mutual-Aid-100285148300404/","Lockport","IL","USA","Lockport, Illinois, USA"
"DSA Ventura County COVID-19 Mutual Aid","","https://www.dsaventuracounty.org/covid_19_mutual_aid","https://docs.google.com/forms/d/e/1FAIpQLSdo47CkpxhXmy4wD5tJJqVGS2inJstQb25kZBPCCzZhgrosug/viewform","https://www.facebook.com/DSAVenturaCounty/","Oxnard","CA","USA","Oxnard, California, USA"
"361 Information & Resource Exchange","","https://www.facebook.com/groups/1459248917568349/?ref=group_header","","https://www.facebook.com/groups/1459248917568349/?ref=group_header","Corpus Christi","TX","USA","Corpus Christi, Texas, USA"
"DSA Mutual Aid | Solidarity Economy Milwaukee","","http://milwaukee.dsawi.org/our-committees-and-working-groups/solidarity-economy-mutual-aid-working-group/","","","Milwaukee","WI","USA","Milwaukee, Wisconsin, United States"
"Topanga Community Center with the Canyon Sages","","https://topangacommunitycenter.org/","https://docs.google.com/forms/d/e/1FAIpQLSdUG5QogDLHE2FGyXCDyq6tpfdC56C-cqmNiKWGqKnc4Bm1tw/viewform?usp=send_form","","Topanga","CA","USA","Topanga, California, United States"
"Beverly Neighbors Helping Neighbors","","https://docs.google.com/forms/d/e/1FAIpQLSews1VUUpOzf9s7hTdRL_ieuSgEgPwTfGamo6NfHbpCO9Jp9w/viewform?fbclid=IwAR3rvSH9_voZGiX5aA7WojVd6T-nl8YoOeaG2Ep8EUEDTVdPvWkFfkj-e6c","","","Beverly","MA","USA","Beverly, Massachusetts, USA"
"Cumberland Valley Cares","","https://www.cumberlandvalleycares.com/","https://www.cumberlandvalleycares.com/request-delivery","https://www.facebook.com/cumberlandvalleycares/","Harrisburg","PA","USA","Harrisburg, Pennsylvania, United States"
"Connecticut / Hartford, Bridgeport, Waterbury, New Haven: Mutual Aid Network (Spanish version)","","https://docs.google.com/document/d/19cK5eq_unhr0z4T_AGkKO93r7-qJqQ3LxuXjlWvY62A/edit","","","Hartford","CT","USA","Hartford, Connecticut, United States"
"Moutain Communities COVID-19 Mutual Aid","","https://www.facebook.com/groups/MCCMA","https://airtable.com/shrR3vHabEP0OT9d2","https://www.facebook.com/groups/MCCMA","Idyllwild-Pine Cove","CA","USA","Idyllwild-Pine Cove, California, United States"
"Pontiac Coronavirus Emergency Relief Food/Supplies","","https://www.signupgenius.com/go/30e0b48aaa628a13-drive","https://www.signupgenius.com/go/30e0b48aaa628a13-drive","","Pontiac","MI","USA","Pontiac, Michigan, USA"
"Brattleboro Area Mutual Aid","","https://linktr.ee/scoffsatgravity","https://docs.google.com/spreadsheets/d/1P0qfRBYbyCwoGgFiv_WQU4K0a-TTDpiI7yv9wPxuA4M/edit?usp=drivesdk","","Brattleboro","VT","USA","Brattleboro, Vermont, USA"
"California / South Bay: South Bay Mutual Aid Intake","","https://airtable.com/shrPVpyPFlFlJO5cG","https://airtable.com/shrPVpyPFlFlJO5cG","","Santa Clara","CA","USA","Santa Clara, California, United States"
"Rogers Park Community Response Team","","https://rpcrt.org/","","","Chicago","IL","USA","Chicago, Illinois, United States"
"Medfield Mutual Aid","","","","","Medfield","MA","USA","Medfield, Massachusetts, United States"
"North Jersey Mutual Aid Resources","","https://docs.google.com/forms/d/e/1FAIpQLSf0cqFpnzSuvbDxpgdG4Cs7l96xuOTqI8ydtFl_t-iO6A08NQ/viewform","","https://www.facebook.com/groups/349149839305990/","Paterson","NJ","USA","Paterson, New Jersey, USA"
"Boise/Mississippi Pandemic Mutual Aid","","https://www.facebook.com/groups/228056038575798/","","https://www.facebook.com/groups/228056038575798/","Portland","OR","USA","Portland, Oregon, United States"
"Care Web Austin","","","","","Austin","TX","USA","Austin, Texas, USA"
"coronavirus community care: amwa
local north east la (nela) / midcity / koreatown","","https://docs.google.com/document/d/1qP-9JQ8n2O0yKtOicmq1fefGapdAXn0TmANA1lwF15g/edit#heading=h.80woo1dqgv5s","","","Los Angeles","CA","USA","South Los Angeles, Los Angeles, California 90037, USA"
"coronavirus community care: amwa
local north east la (nela) / midcity / koreatown","","https://docs.google.com/document/d/1qP-9JQ8n2O0yKtOicmq1fefGapdAXn0TmANA1lwF15g/edit#heading=h.80woo1dqgv5s","","","Los Angeles","CA","USA","Koreatown, Los Angeles, California 90005, USA"
"New Paltz Neighbor to Neighbor","","https://docs.google.com/forms/d/e/1FAIpQLSdPvf109_31PMeVW1UJi2mc-cBoXqrNvxMZltbPXWRuObEyYw/viewform","","","New Paltz","NY","USA","New Paltz, New York, United States"
"Haight Neighborhood Help Group","","https://www.facebook.com/groups/214731853107680/","https://docs.google.com/forms/d/e/1FAIpQLSdVyyRhv2AxKHUoSXV-pvn6s1IX_BfW9J8wjkR11FcQ-i5aWw/viewform","https://www.facebook.com/groups/214731853107680/","San Francisco","CA","USA","San Francisco, California, United States"
"Southern Alameda County Mutual Aid Network","","https://www.facebook.com/groups/581603675902738/","","https://www.facebook.com/groups/581603675902738/","Fremont","CA","USA","Fremont, California, USA"
"The New School Student Mutual Aid Group","","https://forms.gle/kwWNwH3TmGz3AJQT8","","","New York City","NY","USA","New York City, New York, United States"
"COVID-19 Resource Spreadsheet","","https://docs.google.com/spreadsheets/d/19ulf0RqGhtTijdL3urOq5DLSlXQ7YbuXWTTuGuK3MUo/edit?fbclid=IwAR1HvKMli_9j5XjkBjguiPgPeaRbsDfaGaBe_Wsx65-SHybWDzj-TEuRmOU#gid=0","","","Greensboro","NC","USA","Greensboro, North Carolina, USA"
"Nevada / Las Vegas: Las Vegas DSA COVID-19 Mutual Aid Form","","https://docs.google.com/forms/d/e/1FAIpQLSeTcriSCf7XcSEC21ayAZmoytmrOkD7zB92z_d5UuTAynWo0g/viewform","https://docs.google.com/forms/d/e/1FAIpQLSeTcriSCf7XcSEC21ayAZmoytmrOkD7zB92z_d5UuTAynWo0g/viewform","","Las Vegas","NV","USA","Las Vegas, Nevada, USA"
"North Texas Mutual Aid Coalition","","https://ntxmutualaid.org/","https://docs.google.com/forms/d/e/1FAIpQLScnL2Cna1QVYTdsFsiLL3cyoj7uCeRDqHNKWK9CzB8AOviYbQ/viewform","","Dallas","TX","USA","Tejas, Bryan, Texas 77802, USA"
"Cascade Locks: Coronavirus Resources","","https://docs.google.com/document/d/1aRR5UXXiHMbM94cAjc6p2SJ47_yyzPFnCNUGysYrrCs/edit?usp=drivesdk","","","Cascade Locks","OR","USA","Cascade Locks, Oregon, USA"
"South Bend Mutual Aid","","https://linktr.ee/southbend_mutualaid","","","South Bend","IN","USA","South Bend, Indiana, United States"
"DC Mutual Aid (Multiple Neighborhood Groups)","","https://docs.google.com/spreadsheets/d/1wLncKL-9ixUFV_UIW08SO-MNVVMhupcK1sFtlTt5L3M/edit#gid=1634357411","","","Washington","DC","USA","Washington, DC, USA"
"West Chester IFC","","https://docs.google.com/forms/d/e/1FAIpQLSfRaAzoa_V0whmEN5mcLzyvmF40Z1X-D1rJyH6AV8g4O5UinQ/viewform?usp=sf_link","","","West Chester","PA","USA","West Chester, Pennsylvania, United States"
"Durham Mutual Aid","","https://durhammutualaid.org/","","https://www.facebook.com/groups/durhammutualaid/","Durham","NC","USA","Durham, North Carolina, USA"
"Community Support Project DSM","","https://forms.gle/7p49q1XkrqdnERuy7","https://forms.gle/7p49q1XkrqdnERuy7","","Des Moines","IA","USA","Des Moines, Iowa, USA"
"Berkeley, CA Mutual Aid Network","","https://www.berkeleymutualaid.org/","https://docs.google.com/forms/d/e/1FAIpQLSeW40KnpjDAW6Lkgi-ej17fEAh903PUPsxRZtib-Sv2ylWFyQ/viewform","","Berkeley","CA","USA","Berkeley, California, United States"
"Norman Community Relief - Volunteer Sign-up Form","","https://docs.google.com/forms/d/e/1FAIpQLSeJzEhGGaXUZC60uiOScPq16JRt345oEvpL6H7evEj-4PVejg/viewform","","","Norman","OK","USA","Norman, Oklahoma, USA"
"Meridian, ID COVID-19 M.A.G. (Mutual Aid Group)","","https://www.facebook.com/groups/634092660497074/about/","https://docs.google.com/forms/d/e/1FAIpQLSdGdTBq4W3nXmn7C9ruDRRh1sw2oqMlV_WT7-tbLEHaS0US7Q/viewform?usp=sf_link","https://www.facebook.com/groups/634092660497074/about/","Meridian","ID","USA","Meridian, Idaho, USA"
"Mutual Aid Dayton/Miami Valley","","https://docs.google.com/forms/d/e/1FAIpQLScdPCDu3-uo0t-JKNkm-J_yooPrin8nJagexqdt9l23XVgT_g/viewform","","","Dayton","OH","USA","Dayton, Ohio, USA"
"Eagle, ID COVID-19 M.A.G. (Mutual Aid Group)","","https://www.facebook.com/groups/260166328311384/?ref=br_rs","https://docs.google.com/forms/d/e/1FAIpQLSdGdTBq4W3nXmn7C9ruDRRh1sw2oqMlV_WT7-tbLEHaS0US7Q/viewform?usp=sf_link","https://www.facebook.com/groups/260166328311384/?ref=br_rs","Eagle","ID","USA","Eagle, Idaho, USA"
"Oregon / Benton County: Benton County Family Response Team","","https://www.facebook.com/groups/203009070792562/?ref=share","","https://www.facebook.com/groups/203009070792562/?ref=share","Philomath","OR","USA","Philomath, Oregon, USA"
"Ward 5 DC Mutual Aid","","https://docs.google.com/forms/d/e/1FAIpQLScoHwezDrIhbEhQsSr_QbgSbOyq2ZJtsNCsYkNc5Y33C4n2Sw/viewform?fbclid=IwAR1rbnFNT-wfkZHIBXCGnEZXvHQ9XCiygm0YpjVBRHw5yeqwi3FzXdRHbug","","","Washington","DC","USA","Washington, DC, United States"
"Corpus Christ Mutual Aid","","https://www.facebook.com/CORPUSDSA/","https://docs.google.com/forms/d/e/1FAIpQLSdlJRBXdjnbueuVBCsCYK1SGujEHTh4FjbYWjzYhFQlRIKJMw/viewform","https://www.facebook.com/CORPUSDSA/","Corpus Christi","TX","USA","Corpus Christi, Texas, USA"
"Brookland Mutual Aid Exchange","","https://docs.google.com/spreadsheets/d/1cKNuQeUSxb_QLMysSSu-EhgFOhYkciW7AUPoLdXwf4I/edit?pli=1#gid=0","","","Washington","DC","USA","Washington, DC, United States"
"Manchester NH Mutual Aid Network","","https://docs.google.com/spreadsheets/d/1nsTIfaqbvnq_7d1mUei_8JJNULiWpmmcfk9kTa-gGGI/htmlview?fbclid=IwAR3eJDFJ9g52ODmKLZrf-4uekQTbdkMc5dklpqjPPiKAVUPg2aukPLHqd-Q#","","","Manchester","NH","USA","Manchester, New Hampshire, USA"
"Stoneham Mutual Aid Network","","https://docs.google.com/document/d/1Tkt1jfFF_IXb9F3I7ENtOpkUIVz52jzhG6F-XoTtk58/edit?usp=sharing","https://forms.gle/dFnxWZP7v2rrtNUCA","","Stoneham","MA","USA","Stoneham, Massachusetts, United States"
"Maryland / Baltimore: Mutual Aid and Emergency Relief Fund","","https://www.facebook.com/donate/201582851152373/?fundraiser_source=external_url","","https://www.facebook.com/donate/201582851152373/?fundraiser_source=external_url","Baltimore","MD","USA","Baltimore, Maryland, USA"
"California / South Bay: South Bay Mutual Aid Volunteer Intake (Español)","","https://docs.google.com/forms/d/1qbZtxiIcLFHRb2Y26w708-Ex4lnN4g9JEiEaxRlsDU8/viewform?edit_requested=true","https://docs.google.com/forms/d/1qbZtxiIcLFHRb2Y26w708-Ex4lnN4g9JEiEaxRlsDU8/viewform?edit_requested=true","","Santa Clara","CA","USA","Santa Clara, California, United States"
"Eureka Springs Community Support","","https://www.facebook.com/groups/1519039534918942?id=1519039534918942&ref=content_filter","","https://www.facebook.com/groups/1519039534918942?id=1519039534918942&ref=content_filter","Eureka Springs","AR","USA","Eureka Springs, Arkansas, USA"
"Mutual Aid Lexington","","https://docs.google.com/document/d/1n7Qre55HQ8fFYC9D3BLQ1x5NWXrilNapylo2FAbaXm4/edit","","","Lexington","MA","USA","Lexington, Massachusetts, USA"
"Organizing Mutual Aid Baton Rouge","","https://www.facebook.com/groups/211459096874868/","","https://www.facebook.com/groups/211459096874868/","Baton Rouge","LA","USA","Baton Rouge, Louisiana, United States"
"PUSH Buffalo","","https://www.pushbuffalo.org/coronavirus/covid-19-mutual-aid/","","","Buffalo","NY","USA","Buffalo, New York, USA"
"BTV Mutual Aid Request","","https://docs.google.com/spreadsheets/d/1tyulf48eR8s5cMRuABqRh61OtyrhCzqOR1W346XQadE/edit#gid=1727309836","","","Burlington","VT","USA","Burlington, Vermont, United States"
"Revere Mutual Aid","","https://docs.google.com/document/d/1SkHedKaWDfjbNRjKViCuOBzUXLPTbiGFsKqNck-hDG4/edit","","","Revere","MA","USA","Revere, Massachusetts, USA"
"Northwest Michigan Mutual Aid","","https://www.facebook.com/groups/michiganmutualaid/?ref=br_rs","","https://www.facebook.com/groups/michiganmutualaid/?ref=br_rs","Traverse City","MI","USA","Traverse City, Michigan, USA"
"Berlin area COVID-19 Mutual Aid Volunteer Signup","","https://docs.google.com/forms/d/e/1FAIpQLSf4g1a9jAQZZbvtVqkp-C1yPWITX7yKNNWMUZ8xOiNYVYbHRA/viewform","","","Barre","VT","USA","Barre, Vermont, United States"
"Maryland / Baltimore: Alanah’s COVID-19 Emergency Fund for Artists and Freelancers","","https://docs.google.com/forms/d/e/1FAIpQLSfXQfPti1mE5TT8qDjd_DzxkIiG1jPT5BhYcgdFehVTvibZCQ/viewform","","","Baltimore","MD","USA","Baltimore, Maryland, USA"
"Mutual Aid Collective, Boulder","","https://www.facebook.com/groups/201650704398894/","","https://www.facebook.com/groups/201650704398894/","Boulder","CO","USA","Boulder, Colorado, USA"
"COVID-19 PVD Area Mutual Aid and Community Assistance","","https://www.facebook.com/groups/648623035913789/about/","","https://www.facebook.com/groups/648623035913789/about/","Providence","RI","USA","Providence, Rhode Island, USA"
"WA Helpers","","https://www.wahelpers.com/","https://docs.google.com/forms/d/e/1FAIpQLSdkDlqgJTcP57DZwsPCUAkdAk-VAtXcs1Z6gaodIhsaoZvkdA/viewform","","Seattle","WA","USA","Seattle, Washington, United States"
"Shelby Township Utica Resiliency Network MI","","https://www.facebook.com/groups/1849304025203614/about","https://docs.google.com/forms/d/e/1FAIpQLSd0Cm7qZgrsijamUOCNAw431lKBEH5TRBfUSzAyM9L9JEPPsA/viewform","https://www.facebook.com/groups/1849304025203614/about","Detroit","MI","USA","Detroit, Michigan, USA"
"CTCORE Mutual Aid","","https://docs.google.com/forms/d/e/1FAIpQLSee9baIhH7IglyvLdkBtlrMSK9AiJbJQvIksUArLV0ZksvO7g/viewform","http://www.ctcore-organizenow.org/coronactsupport","https://www.facebook.com/ctcoreorganizenow.org/","Hartford","CT","USA","Hartford, Connecticut, USA"
"Utah Valley Mutual Aid","","https://utahmutualaid.org/","https://www.facebook.com/groups/utahmutualaid/","","Saratoga Springs","UT","USA","Saratoga Springs, Utah, USA"
"Team Beaverton","","https://www.teambeaverton.com/","","","Beaverton","OR","USA","Beaverton, Oregon, USA"
"Buddy System MIA","","http://www.buddysystemMIA.com","","","Miami","FL","USA","Miami, Florida, USA"
"Washtenaw County Mutual Aid Resources","","https://www.facebook.com/groups/2424471741198383/?ref=share","https://docs.google.com/forms/d/e/1FAIpQLSdhW2voPOll9Jmy_QR0AXk1Pge1JGn3tByJ-SlPfKNsMjcHLg/viewform","https://www.facebook.com/groups/2424471741198383/?ref=share","Ann Arbor","MI","USA","Ann Arbor, Michigan, United States"
"Denver Public Schools foundation","","https://www.dpsk12.org/coronavirus/","","","Denver","CO","USA","Denver, Colorado, United States"
"Huntington Delivery Team","","https://docs.google.com/forms/d/1HHE6cZKccnIBioAt0-qLuxeKuzU-DeG6gYNVIBjB_hs/viewform?fbclid=IwAR3AkXF5joHjl5LfqrsVEp5r0Y0RTmeK2BtaEMlXWbkZuekE4H3hyo9Eo0Y&edit_requested=true","","","Huntington","WV","USA","Huntington, West Virginia, USA"
"Mutual Aid Northeast Ohio","","https://www.facebook.com/groups/833037507201791/?ref=br_rs","","https://www.facebook.com/groups/833037507201791/?ref=br_rs","Cleveland","OH","USA","Cleveland, Ohio, USA"
"Bloomfield/Garfiend Cooperation","","https://bloomfield-garfield.org/uncategorized/covid-19-resources-get-help/","","","Pittsburgh","PA","USA","Pittsburgh, Pennsylvania, United States"
"ATX Mutual Aid for Covid19","","https://www.facebook.com/groups/2600062263571948/","","https://www.facebook.com/groups/2600062263571948/","Austin","TX","USA","Austin, Texas, USA"
"United Disaster Relief of Northern California","","https://www.facebook.com/mendolakecomplexfirerelief/","https://www.ncoinc.org/programs/volunteer-network/","https://www.facebook.com/mendolakecomplexfirerelief/","Ukiah","CA","USA","Ukiah, California, USA"
"Hamilton Community Response","","https://www.facebook.com/groups/Hamont.Response.COVID19/","","https://www.facebook.com/groups/Hamont.Response.COVID19/","Hamilton","ON","Canada","Hamilton, Ontario, Canada"
"Williams College Mutual Aid","","https://docs.google.com/forms/d/e/1FAIpQLSdeS2RWIjqvFmj6QiY2ur9P1rogCjrlAtMQgDwLxeMZKR4Ytg/viewform","https://docs.google.com/forms/d/e/1FAIpQLSdeS2RWIjqvFmj6QiY2ur9P1rogCjrlAtMQgDwLxeMZKR4Ytg/viewform","","Williamstown","MA","USA","Williamstown, Massachusetts, United States"
"Klamath Siskiyou Mutual Aid Network","","https://www.facebook.com/groups/218700056182795/?ref=br_rs","","https://www.facebook.com/groups/218700056182795/?ref=br_rs","Yreka","CA","USA","Yreka, California, United States"
"Elmhurst Tackles COVID-19 (ETC 19)","","https://www.facebook.com/groups/2749440901818281/?ref=bookmarks","","https://www.facebook.com/groups/2749440901818281/?ref=bookmarks","Elmhurst","IL","USA","Elmhurst, Illinois, United States"
"Minnesota / Minneapolis–Saint Paul: Twin Cities Queer and Trans Mutual Aid","","","","","Minneapolis","MN","USA","Minneapolis, Minnesota, United States"
"COVID-19 Resource Spreadsheet - Durham","","https://docs.google.com/spreadsheets/d/1oASQ_jeqC578BvcTtRLv7mj59TVJlR3Mx1LSTXaNpr0/edit?usp=drivesdk","","","Durham","NC","USA","Durham, North Carolina, USA"
"Kentucky / Lexington: Mutual Aid Lexington Kentucky","","https://docs.google.com/forms/d/e/1FAIpQLSeP4koOM1yO-tb6VicTWjZhCHTSrarceghikJROf6QL2Nc8eQ/viewform?fbclid=IwAR36e-f2AdpyseehKsQ-0NqfPLyOV-2PP0d6d3rEDgZO2O_u1ykne77n2po","","https://www.facebook.com/groups/199450304659978/","Lexington","KY","USA","Lexington, Kentucky, USA"
"Apart Not Alone - Baltimore","","https://apartnotalone.com/","","","Baltimore","MD","USA","Baltimore, Maryland, United States"
"Petworth mutual aid volunteer sign-up","","https://docs.google.com/forms/d/e/1FAIpQLSciJvF5ei9_IoWFpJo7I7rBFB8b-CjCzOxzLE3tBscOb4m98Q/closedform","","","Washington","DC","USA","Washington, DC, United States"
"Linn County, IA Coronavirus support, swap, resources group","","https://www.facebook.com/groups/881359378990113/","","https://www.facebook.com/groups/881359378990113/","Cedar Rapids","IA","USA","Cedar Rapids, Iowa, United States"
"Six Feet Supplies SCV","","https://www.sixfeetsupplies.com/","","","Valencia","CA","USA","Valencia, California, United States"
"Troy Mutual Aid Society 2020","","https://www.facebook.com/groups/220879635954876/","","https://www.facebook.com/groups/220879635954876/","Troy","NY","USA","Troy, New York, USA"
"Project Pasadena","","http://contact88536.wixsite.com/projectpasadena","https://www.projectpasadena.com/forum","https://www.facebook.com/ProjectPasadena/","Pasadena","CA","USA","Pasadena, California, United States"
"Hallowell All Age-Friendly Committee","","http://age-friendly-hallowell.org","","","Hallowell","ME","USA","Hallowell, Maine, USA"
"El Cerrito Mutual Aid Network","","https://docs.google.com/forms/d/e/1FAIpQLSf7xkSIiHpuq6lKG2r6C0-FnhpZH4JNe1xxsckDXLxu3eHJSQ/viewform","https://docs.google.com/forms/d/e/1FAIpQLSf7xkSIiHpuq6lKG2r6C0-FnhpZH4JNe1xxsckDXLxu3eHJSQ/viewform","","El Cerrito","CA","USA","El Cerrito, California, United States"
"Mutual Aid East Boston / Grupo de Apoyo Mutuo East Boston y Chelsea","","http://whatsupeastie.com/mutualaideastie","","","East Boston","MA","USA","East Boston, Massachusetts, USA"
"Emmanuel College Mutual Aid Fund","","https://alumni.emmanuel.edu/make-a-gift","https://alumni.emmanuel.edu/make-a-gift","","Boston","MA","USA","Boston, Massachusetts, United States"
"Whatcom Mutual Aid","","https://www.facebook.com/groups/2466079660320179/?ref=br_rs","","https://www.facebook.com/groups/2466079660320179/?ref=br_rs","Bellingham","WA","USA","Bellingham, Washington, USA"
"Michigan / Kalamazoo: Kzoo Covid-19 Mutual Aid List","","https://docs.google.com/forms/d/e/1FAIpQLSeW-Dmt_Z_QPu81ad0jo5gs4vjx2zREupOmdoLnn2JBntapGg/viewform","","https://www.facebook.com/groups/225779971877883/?ref=search","Kalamazoo","MI","USA","Kalamazoo, Michigan, USA"
"Supporting Frederick, Maryland Small Businesses Through Covid-19","","https://www.facebook.com/groups/FrederickCoronaResponse/?ref=br_rs","","https://www.facebook.com/groups/FrederickCoronaResponse/?ref=br_rs","Fredrick","MD","USA","Frederick, Maryland, USA"
"Albuquerque, What do you need?","","https://docs.google.com/forms/d/e/1FAIpQLSeGo_Doo8bczJ1L0F7RKU76eTTUaqqbdljGtVMM1H08_JKqCQ/viewform?fbclid=IwAR3F9-CJ9hkLCbFxZinlGkLkMQoJ61NaWWg_Q36FIBPbyDsSxdesDoxCeWA","","","Albuquerque","NM","USA","Albuquerque, New Mexico, USA"
"HGSU COVID-19 Assistance Request & Volunteer Form","","https://docs.google.com/forms/d/e/1FAIpQLSegRedWMV9Mbz3C-QO1wrthrOv5lgHfV9y-v3EPIBUDzyWS3g/viewform?link_id=0&can_id=1c65141e56529df26d0674ba2adc42dc&source=email-new-covid-19-assistance-request-volunteer-form-and-other-resources&email_referrer=email_747884&email_subject=new-covid-19-assistance-request-volunteer-form-and-other-resources&fbzx=799117970475840452","https://docs.google.com/forms/d/e/1FAIpQLSegRedWMV9Mbz3C-QO1wrthrOv5lgHfV9y-v3EPIBUDzyWS3g/viewform?link_id=0&can_id=1c65141e56529df26d0674ba2adc42dc&source=email-new-covid-19-assistance-request-volunteer-form-and-other-resources&email_referrer=email_747884&email_subject=new-covid-19-assistance-request-volunteer-form-and-other-resources&fbzx=799117970475840452","","Cambridge","MA","USA","Cambridge, Massachusetts, United States"
"Rutland County Mutual Aid","","https://sites.google.com/view/rutvtmutualaid?fbclid=IwAR0DE58yEqe4umAUwOyykjcLR6P7188uL5V7En2LCEH2mFiJeZTQlKNXcIM","https://docs.google.com/forms/d/e/1FAIpQLSfhRQdUOXzUF-VhFgsmlqlDzNW4QMEqMr1ALtEzz_blzO3HGA/viewform","","Rutland","VT","USA","Rutland, Vermont, USA"
"Share The Care - Connecticut","","http://www.facebook.com/sharethecareandlove","","http://www.facebook.com/sharethecareandlove","Ansonia","CT","USA","Ansonia, Connecticut, USA"
"COVID 19 North Country Neighbors Helping Neighbors","","https://www.facebook.com/groups/539812396667366/","","https://www.facebook.com/groups/539812396667366/","Plattsburgh","NY","USA","Plattsburgh, New York, USA"
"Lawrence Mutual Aid Network","","https://www.facebook.com/lfkmutual/","https://airtable.com/shrt5WWjMDOKCLSdV","https://www.facebook.com/lfkmutual/","Lawrence","KS","USA","Lawrence, Kansas, United States"
"Caremongering Detroit","","https://www.facebook.com/groups/caremongeringdetroit/","https://www.facebook.com/groups/caremongeringdetroit/","https://www.facebook.com/groups/caremongeringdetroit/","Detroit","MI","USA","Detroit, Michigan, United States"
"Columbia SC Mutual Aid","","https://www.facebook.com/groups/174031214047287/","https://docs.google.com/forms/d/e/1FAIpQLSd1AN6ebit6-tk1z1_Cq02UUMZUzhPNlWx5J62949ISLz3FIA/viewform?fbclid=IwAR3vUiGl1RMjiBb3U1bfBZ-AqWmwBkTjYF1DxMn_wzO0VUPPjZu_tBsdj68","https://www.facebook.com/groups/174031214047287/","Columbia","SC","USA","Columbia, South Carolina, United States"
"Common Stash: Mutual Aid in So-called Olympia","","https://www.commonstash.org/","","","Olympia","WA","USA","Olympia, Washington, USA"
"HelpAroundTown","","https://www.helparoundtown.com","https://www.helparoundtown.com/jobs","https://www.facebook.com/HelpAroundTown/","Lexington","MA","USA","Lexington, Massachusetts, United States"
"Help Needed in Albuquerque COVID-19","","https://www.facebook.com/groups/247465889623611/?multi_permalinks=247582216278645&notif_id=1584646671177003&notif_t=feedback_reaction_generic","","https://www.facebook.com/groups/247465889623611/?multi_permalinks=247582216278645&notif_id=1584646671177003&notif_t=feedback_reaction_generic","Albuquerque","NM","USA","Albuquerque, New Mexico, USA"
"Okemah Helping Hands","","https://www.facebook.com/groups/1095919797417666/","","https://www.facebook.com/groups/1095919797417666/","Okemah","OK","USA","Okemah, Oklahoma, USA"
"Worcester Covid-19 Mutual Aid","","https://docs.google.com/forms/d/1HBrK1QB1W1ES2G2K6sdA51stmscdKohyC6R3zMXni2I/viewform?ts=5e6f6182&edit_requested=true","https://docs.google.com/forms/d/1HBrK1QB1W1ES2G2K6sdA51stmscdKohyC6R3zMXni2I/viewform?ts=5e6f6182&edit_requested=true","","Worcester","VT","USA","Worcester, Vermont, USA"
"Lynn MA Mutual Aid Disaster Relief","","https://www.facebook.com/groups/242220393479479/","","https://www.facebook.com/groups/242220393479479/","Lynn","MA","USA","Lynn, Massachusetts, USA"
"Covid-19-South Florida-Radical Mutual Aid","","https://www.facebook.com/groups/211545970124496/","","https://www.facebook.com/groups/211545970124496/","Fort Lauderdale","FL","USA","Fort Lauderdale, Florida, United States"
"Boulder Coronavirus Community Coping Crew","","https://www.facebook.com/groups/199467514668513/?ref=share","","https://www.facebook.com/groups/199467514668513/?ref=share","Boulder","CO","USA","Boulder, Colorado, USA"
"Georgia Tech Mutual Aid Group","","https://docs.google.com/document/d/1_bJq94j3p2n-lDoETOH7wzhACjjmgw9l23QpbCa0Cag/edit","","","Atlanta","GA","USA","Atlanta, Georgia, USA"
"COVID-19 Mutual Aid Group Phoenix Metro Area","","https://www.mutualaidphx.com/","","https://www.facebook.com/groups/144504496872461/145065600149684/","Phoenix","AZ","USA","Phoenix, Arizona, USA"
"Mutual Aid of NY Southern Adirondacks","","https://www.facebook.com/groups/1573307162820055/","","https://www.facebook.com/groups/1573307162820055/","Gloversville","NY","USA","Gloversville, New York, United States"
"California / East Bay: East Bay Disabled Folks COVID-19 Support Request Form","","https://docs.google.com/forms/d/e/1FAIpQLSc7LLhYN243k6xFlmQH26lAN9EoRXgEQGrghbqL8Ttc1K8YNA/viewform","https://docs.google.com/forms/d/e/1FAIpQLSc7LLhYN243k6xFlmQH26lAN9EoRXgEQGrghbqL8Ttc1K8YNA/viewform","","Oakland","CA","USA","Oakland, California, United States"
