"Name","Classification","Homepage","SocialMedia","Locality","Lat","Lng","Address","Country","Description","SupportRequest","SupportOffer","Hotline","Tags","Notes","ListingSource","ListingSourceId","ListingSourceUpdated"
"Canada / Vancouver: Mutual Aid for Metro Vancouver — COVID-19 — Social Distancing Solidarity (Coast Salish Land)","","https://coda.io/@awsamuel/vancouver-mutual-aid/","","Vancouver, BC",,,,"Canada","","","","","","","NA_Mutual_Aid_Networks.csv",,"2020-04-01"
"YVR Mutual Aid Society","","https://docs.google.com/forms/d/1qKqD1J-M_VVFhR8ZQ8IfBCnD42XkcG71-4e8DOc22bI/viewform?ts=5e712036&fbclid=IwAR2jkwnIvMN2WS8AQG-ioIx9WofmQy6qwRYt38BKUYWTGBax929tfFm4tE8&edit_requested=true#responses","https://www.facebook.com/groups/201774001271150/","Vancouver, BC",,,,"Canada","","","","","","","NA_Mutual_Aid_Networks.csv",,"2020-04-01"
"Mutual Aid Society Winnipeg","FacebookMutualAid","https://www.facebook.com/groups/220944599058149/?ref=share","https://www.facebook.com/groups/220944599058149/?ref=share","Winnipeg, MB",,,,"Canada","","","","","","","NA_Mutual_Aid_Networks.csv",,"2020-04-01"
"Hamilton Community Response","FacebookMutualAid","https://www.facebook.com/groups/Hamont.Response.COVID19/","https://www.facebook.com/groups/Hamont.Response.COVID19/","Hamilton, ON",,,,"Canada","","","","","","","NA_Mutual_Aid_Networks.csv",,"2020-04-01"
"Toronto Community Response","FacebookMutualAid","https://www.facebook.com/groups/TO.Community.Response.COVID19/","https://www.facebook.com/groups/TO.Community.Response.COVID19/","Toronto, ON",,,,"Canada","","","","","","","NA_Mutual_Aid_Networks.csv",,"2020-04-01"
"Canada / Montreal: Montreal COVID-19: Mutual Aid Mobilisation d’entraide","FacebookMutualAid","https://www.facebook.com/groups/1005041203222884/?ref=share","https://www.facebook.com/groups/1005041203222884/?ref=share","Montreal, QB",,,,"Canada","","","","","","","NA_Mutual_Aid_Networks.csv",,"2020-04-01"
"Mutual Aid Network of Anchorage (MANA)","","https://docs.google.com/document/d/1TiIejUtkzhGf19CzVoSnWi9Ag3yQK1V_dlyOBy5-I9E/edit","","Anchorage, AK",,,,"USA","","","https://forms.gle/UErVTrWf4uCvqtao6","","","","NA_Mutual_Aid_Networks.csv",,"2020-04-01"
"Alaska COVID-19 Community Response","","https://docs.google.com/document/d/1EMLgquSQCWLlMlGXDZO1x2JU73ytKL9X2MrrLGSGfLE/edit","","Anchorage, AK",,,,"USA","","","","","","","NA_Mutual_Aid_Networks.csv",,"2020-04-01"
"Anchorage Grocery Network","FacebookMutualAid","https://www.facebook.com/groups/1478276402342024/","https://www.facebook.com/groups/1478276402342024/","Anchorage, AK",,,,"USA","","","","","","","NA_Mutual_Aid_Networks.csv",,"2020-04-01"
"Fairbanks Mutual Aid","","https://docs.google.com/document/d/e/2PACX-1vTPNaoLRnV1YBI9RAqcspAlmvZje-0urve47FzVbBNd3EyN_sxq5dKCf_oXUbWEK7flbCH5R52_xXCo/pub","","Fairbanks, AK",,,,"USA","","","","","","","NA_Mutual_Aid_Networks.csv",,"2020-04-01"
"Juneau Mutual Aid","","https://juneaumutualaid.weebly.com/","","Juneau, AK",,,,"USA","","","","","","","NA_Mutual_Aid_Networks.csv",,"2020-04-01"
"Sitka COVID-19 Community Group","FacebookMutualAid","https://www.facebook.com/groups/2751993664836011/about/","https://www.facebook.com/groups/2751993664836011/about/","Sitka, AK",,,,"USA","","","","","","","NA_Mutual_Aid_Networks.csv",,"2020-04-01"
"Lee County, Alabama Mutual Aid","FacebookMutualAid","https://www.facebook.com/groups/272091500463089/","https://www.facebook.com/groups/272091500463089/","Auburn, AL",,,,"USA","","","","","","","NA_Mutual_Aid_Networks.csv",,"2020-04-01"
"Alabama / Birmingham: Birmingham Mutual Aid","","https://docs.google.com/document/d/12wY7BG4wzI0TJ6IHIg231iJX6bZ7T0NqPKRiexCColo/edit","","Birmingham, AL",,,,"USA","","","","","","","NA_Mutual_Aid_Networks.csv",,"2020-04-01"
"Birmingham Mutual Aid Offers","","https://docs.google.com/spreadsheets/d/1S_lTSSZQR_FkSFekSeIZ4bHVfCcMHiPFUMr5PRzzXHc/edit#gid=1163479279","","Birmingham, AL",,,,"USA","","","https://docs.google.com/spreadsheets/d/1S_lTSSZQR_FkSFekSeIZ4bHVfCcMHiPFUMr5PRzzXHc/edit#gid=1163479279","","","","NA_Mutual_Aid_Networks.csv",,"2020-04-01"
"Birmingham Mutual Aid","MutualAidGroup","http://bit.ly/BirminghamMutualAid","http://bit.ly/BHAMMA_Facebook","Birmingham, AL",,,,"USA","","http://bit.ly/BHAMMA_Needs","http://bit.ly/BHAMMA_Offers","","","","NA_Mutual_Aid_Networks.csv",,"2020-04-01"
"Eureka Springs Community Support","FacebookMutualAid","https://www.facebook.com/groups/1519039534918942?id=1519039534918942&ref=content_filter","https://www.facebook.com/groups/1519039534918942?id=1519039534918942&ref=content_filter","Eureka Springs, AR",,,,"USA","","","","479.259.2559","","","NA_Mutual_Aid_Networks.csv",,"2020-04-01"
"Kinlani (Flagstaff) Mutual Aid","MutualAidGroup","https://docs.google.com/forms/d/e/1FAIpQLSe4pQRyPNF9nqly1KNQobRtMUCf_kVSUp2RyBFknfUmejvfLA/viewform","https://www.facebook.com/groups/809321062887347/","Flagstaff, AZ",,,,"USA","","","","","","","NA_Mutual_Aid_Networks.csv",,"2020-04-01"
"Havasu/Parker, AZ Mutual Aid Volunteer Sign-up","","https://docs.google.com/forms/d/e/1FAIpQLSdqfMkpbPXQzIfV4m-7vn7QN0QUpkLvKZ-KLxTgqkP2BWnPnA/viewform","","Havasu/Parker, AZ",,,,"USA","","","https://docs.google.com/forms/d/e/1FAIpQLSdqfMkpbPXQzIfV4m-7vn7QN0QUpkLvKZ-KLxTgqkP2BWnPnA/viewform","","","","NA_Mutual_Aid_Networks.csv",,"2020-04-01"
"Arizona / Phoenix: Phoenix Mutual Aid","","https://docs.google.com/spreadsheets/d/1OVJ1AMWXH3tjutOq8cKYJIK8RByqmaVLV8TYRS-48OU/edit#gid=0","","Phoenix, AZ",,,,"USA","","","","","","","NA_Mutual_Aid_Networks.csv",,"2020-04-01"
"COVID-19 Mutual Aid Group Phoenix Metro Area","","https://www.mutualaidphx.com/","https://www.facebook.com/groups/144504496872461/145065600149684/","Phoenix, AZ",,,,"USA","","","","","","","NA_Mutual_Aid_Networks.csv",,"2020-04-01"
"Arizona / Tucson: Tucson COVID-19 Mutual Aid Volunteer Sign-up","","https://docs.google.com/forms/d/e/1FAIpQLSdXG35r7SWGr3tSlTJb5UDa_lpUqd79l5zZ38jo6StYd4gt0Q/viewform?fbclid=IwAR11Pb7xk6shNjAsu8ue3OWBpL5oH9u7zUNE86NQeVbdtads9S0AnNh4Cv4","","Tucson, AZ",,,,"USA","","","","","","","NA_Mutual_Aid_Networks.csv",,"2020-04-01"
"Neighbor to Neighbor Coronavirus Support (El Cerrito, Richmond, Albany)","","https://docs.google.com/spreadsheets/d/1TDoV37zYyGx-csgkxUM6rIKbVECTg0hO83GSZylJHnc/edit?fbclid=IwAR2gBRnm3K8BFAPSj1A5nEv4SJxb3F5QN2BkoA_VUa3gUQQCrbarWKTmtag#gid=0","","Albany, CA",,,,"USA","","","","","","","NA_Mutual_Aid_Networks.csv",,"2020-04-01"
"Berkeley, CA Mutual Aid Network","","https://www.berkeleymutualaid.org/","https://twitter.com/NeverAgainActn?ref_src=twsrc%5Egoogle%7Ctwcamp%5Eserp%7Ctwgr%5Eauthor","Berkeley, CA",,,,"USA","","https://docs.google.com/forms/d/e/1FAIpQLSe5MXDzg9TDF91Ck00DvVHjgmQgulNdHBM1EjEWTANlAqaf_Q/viewform","https://docs.google.com/forms/d/e/1FAIpQLSeW40KnpjDAW6Lkgi-ej17fEAh903PUPsxRZtib-Sv2ylWFyQ/viewform","","","","NA_Mutual_Aid_Networks.csv",,"2020-04-01"
"Support for Isolated South Berkeley Neighbors","","https://docs.google.com/forms/d/e/1FAIpQLSd0uVrIEA8muy73cmcY9ZlK34AC8L7lFDYVKEpFFW761uZkKg/viewform?vc=0&c=0&w=1","","Berkeley, CA",,,,"USA","","","","","","","NA_Mutual_Aid_Networks.csv",,"2020-04-01"
"El Cerrito/Richmond Coronovirus Mutual Aid","","https://docs.google.com/forms/d/e/1FAIpQLSeu6esf4-IJac-kX4Kev7qE2giV6HO-ntT0tBVZjrPkEQXRZQ/viewform?fbzx=-3920297804946702319&fbclid=IwAR36KUurIt6KgIYlTwzikGoJGSbs-TnBWCBjcuSZTc1hRxBKNKeBooKYGPU","","El Cerrito, CA",,,,"USA","","","","","","","NA_Mutual_Aid_Networks.csv",,"2020-04-01"
"El Cerrito Mutual Aid Network","","https://docs.google.com/forms/d/e/1FAIpQLSf7xkSIiHpuq6lKG2r6C0-FnhpZH4JNe1xxsckDXLxu3eHJSQ/viewform","","El Cerrito, CA",,,,"USA","","","","","","","NA_Mutual_Aid_Networks.csv",,"2020-04-01"
"Humboldt Mutual Aid","FacebookMutualAid","https://www.facebook.com/humboldtmutualaid/","https://www.facebook.com/humboldtmutualaid/","Eureka, CA",,,,"USA","","https://docs.google.com/forms/d/1VuWWRhgrW7K6ktPORRFLaLyEE_LFbSFP28hXvwxrWjs/","https://docs.google.com/forms/d/1Dix10g9YmHjdpaCOvuLNh5QonlLm_JQRgtC7R1Hq-GU/","","","","NA_Mutual_Aid_Networks.csv",,"2020-04-01"
"Southern Alameda County Mutual Aid Network","","https://docs.google.com/spreadsheets/d/1ohLvcia1Ge-cehBMce2vqXRrJU_Wj3lW82Z-YWHZhIc/edit#gid=1892489193","https://www.facebook.com/groups/581603675902738/","Fremont, CA",,,,"USA","","","","","","","NA_Mutual_Aid_Networks.csv",,"2020-04-01"
"Emergency Mutual Aid Network","","https://u1584542.ct.sendgrid.net/mps2/c/BAE/ni0YAA/t.304/2CRZML4SRzuTJEHiI5ABQg/h2/dt3IX5DZw0E70755UZXk30NB67pR9d0ENIUPGJ2gQCwr0pACrIRRU3VTrPnIuYlhYS90KwUSqV0nkVcU7MxS8oDKNEe0duJzmO8a16SJrrsBjXjI5DVFbnxkNayjA2zCKRdR37bG7LufV9dQ0N1fOmW-2Ba42Lq-2BGYOSe8FkciwKZoqbKmG6jHqP1ZbEOezM9p7aM20AmOhO2vDaDP-2Fki6DYz5FQMDjLT8t-2BaUOPUwyckf4Cb0muYhHeIuZ7hmnWmaDg3ZJzNAg2Un-2BxrWVRXohg-3D-3D/RCPU","","Fresno, CA",,,,"USA","","","","","","","NA_Mutual_Aid_Networks.csv",,"2020-04-01"
"Hayward Helping Hands","","https://www.haywardhelpinghands.org/","https://www.facebook.com/haywardhelpinghands/","Hayward, CA",,,,"USA","","https://docs.google.com/forms/d/e/1FAIpQLScGJsGgYKaN0KuiGkxPan5a3K5VsKiHaSmfARv6_1xuASknlA/viewform","https://docs.google.com/forms/d/e/1FAIpQLSfkVEZlyLbB8fwI5YeX9pjC-_V0g7fTBcljoRCJ9-oniG-isA/viewform","","","","NA_Mutual_Aid_Networks.csv",,"2020-04-01"
"Long Beach Mutual Aid Spreadsheet","","https://docs.google.com/spreadsheets/d/1P97OgODtjy9MIhLJFJUoZ8VgzaF1Zap8QFgF-ozp4fM/edit?fbclid=IwAR3yD_TrCvq5sDCl3at8wJtyJv8l5JgTPDd8chuDGZZ5KVKKbYAwLKZaXQs#gid=0","https://www.facebook.com/groups/2919149481478838/","Long Beach, CA",,,,"USA","","","","","","","NA_Mutual_Aid_Networks.csv",,"2020-04-01"
"Greetings from South LA/ Karina Esperanza","","https://docs.google.com/document/d/1tCQ6NB-70Dwdvx-0bbpYJ7ykU78v15S9pcve8Gb673A/edit","","Los Angeles, CA",,,,"USA","","","","","","","NA_Mutual_Aid_Networks.csv",,"2020-04-01"
"COVID-19 Mutual Aid Resource Links (Los Angeles)","","https://docs.google.com/document/d/1d4fgYbzC4B1o1CQOIWbTxTUnE5VUIxv04EqeBjR2Fhc/edit","https://www.facebook.com/groups/204970667387136/","Los Angeles, CA",,,,"USA","","","","","","","NA_Mutual_Aid_Networks.csv",,"2020-04-01"
"Los Angeles Mutual Aid Coordinator","","https://docs.google.com/spreadsheets/u/0/d/1e7NNgEYRFlm4JggsqH9EneTH1TErJ2W3r3vRbdTCsIw/htmlview","","Los Angeles, CA",,,,"USA","","","","","","","NA_Mutual_Aid_Networks.csv",,"2020-04-01"
"COVID-19 Mutual Aid (Greater Los Angeles & beyond)","","https://docs.google.com/spreadsheets/d/1viUrMY0Jd18HcDwrNcsDg6Db0LVIUT0TDAsmRyXj32k/edit?fbclid=IwAR13EXvL79eyZ88mN-BDk6HG-Kn2UKUe5q1nagQcGtxKAlKrGt8HRRsVY6c#gid=1186782888","","Los Angeles, CA",,,,"USA","","","","","","","NA_Mutual_Aid_Networks.csv",,"2020-04-01"
"coronavirus community care: amwa
local north east la (nela) / midcity / koreatown","","https://docs.google.com/document/d/1qP-9JQ8n2O0yKtOicmq1fefGapdAXn0TmANA1lwF15g/edit#heading=h.80woo1dqgv5s","","MidCity/Koreatown, Los Angeles, CA",,,,"USA","","","","","","","NA_Mutual_Aid_Networks.csv",,"2020-04-01"
"Coronavirus Los Angeles Mutual Aid","FacebookMutualAid","https://www.facebook.com/groups/2572703392942644/?ref=br_rs","https://www.facebook.com/groups/2572703392942644/?ref=br_rs","Los Angeles, CA",,,,"USA","","","","","","","NA_Mutual_Aid_Networks.csv",,"2020-04-01"
"Westside Friends","","http://www.westsidefriends.com","","Los Angeles, CA",,,,"USA","","","","","","","NA_Mutual_Aid_Networks.csv",,"2020-04-01"
"Ground Game COVID-19 Mutual Aid Network","","https://docs.google.com/forms/d/e/1FAIpQLSdGfypKKirsvUQCX5eVix86nIrTaf5atsnhn8bWxpCRn_lM9Q/viewform","Facebook.com/groundgamela","Los Angeles, CA",,,,"USA","","https://docs.google.com/forms/d/e/1FAIpQLSdGfypKKirsvUQCX5eVix86nIrTaf5atsnhn8bWxpCRn_lM9Q/viewform","https://docs.google.com/forms/d/e/1FAIpQLSdGfypKKirsvUQCX5eVix86nIrTaf5atsnhn8bWxpCRn_lM9Q/viewform","","","","NA_Mutual_Aid_Networks.csv",,"2020-04-01"
"Project Angel Food","","https://secure3.convio.net/paf/site/Donation2?df_id=3302&3302.donation=form1&mfc_pref=T","https://www.facebook.com/projectangelfood/","Los Angeles, CA",,,,"USA","","","","","","","NA_Mutual_Aid_Networks.csv",,"2020-04-01"
"COVID-19 Emergency Food Distribution (LA)","","https://docs.google.com/forms/d/e/1FAIpQLSe5T_atETFetd5FNVemgHOMYQ21fegVcHJlIu3t7gFGg78g1w/viewform?fbclid=IwAR2AcOwrq9kOy54L-Cmwj-Me-1_GDLqolnVWI3_ebPnBEwrshfkvW71sCzw","","Los Angeles, CA",,,,"USA","","","https://docs.google.com/forms/d/e/1FAIpQLSe5T_atETFetd5FNVemgHOMYQ21fegVcHJlIu3t7gFGg78g1w/viewform?fbclid=IwAR2AcOwrq9kOy54L-Cmwj-Me-1_GDLqolnVWI3_ebPnBEwrshfkvW71sCzw","","","","NA_Mutual_Aid_Networks.csv",,"2020-04-01"
"East Bay Mutual Aid","","https://docs.google.com/forms/d/e/1FAIpQLSeL8HnzhwF83qq3qyDJPsE0fTSRweSp4RBZrNq-pTa3un60qg/viewform","","Oakland, CA",,,,"USA","","https://docs.google.com/forms/d/e/1FAIpQLSeL8HnzhwF83qq3qyDJPsE0fTSRweSp4RBZrNq-pTa3un60qg/viewform","https://docs.google.com/forms/d/e/1FAIpQLSdOZvKC2UuF_XvoMDr6NsYABalu4X0W6r0gj0YenfiTcJ7Xdw/viewform","","","","NA_Mutual_Aid_Networks.csv",,"2020-04-01"
"California / East Bay: East Bay Disabled Folks COVID-19 Support Request Form","","https://docs.google.com/forms/d/e/1FAIpQLSc7LLhYN243k6xFlmQH26lAN9EoRXgEQGrghbqL8Ttc1K8YNA/viewform","","East Bay, Oakland, CA",,,,"USA","","","https://docs.google.com/forms/d/e/1FAIpQLSc7LLhYN243k6xFlmQH26lAN9EoRXgEQGrghbqL8Ttc1K8YNA/viewform","","","","NA_Mutual_Aid_Networks.csv",,"2020-04-01"
"California / East Bay: East Bay Disability Ally Form","","https://docs.google.com/forms/d/e/1FAIpQLSclWGR5A-rSBTPBTv9UGbCOVjpMKgts0DPP12BZjlUDADhPkw/viewform","","East Bay, Oakland, CA",,,,"USA","","","https://docs.google.com/forms/d/e/1FAIpQLSclWGR5A-rSBTPBTv9UGbCOVjpMKgts0DPP12BZjlUDADhPkw/viewform","","","","NA_Mutual_Aid_Networks.csv",,"2020-04-01"
"Alice Street Mutual Aid","FacebookMutualAid","https://www.facebook.com/groups/495154731159158/","https://www.facebook.com/groups/495154731159158/","Oakland, CA",,,,"USA","","","","","","","NA_Mutual_Aid_Networks.csv",,"2020-04-01"
"East Bay DIsabled Folks COVID19 Support","","https://docs.google.com/forms/d/e/1FAIpQLSc7LLhYN243k6xFlmQH26lAN9EoRXgEQGrghbqL8Ttc1K8YNA/viewform","","Oakland, CA",,,,"USA","","","https://tinyurl.com/DJCCally","","","","NA_Mutual_Aid_Networks.csv",,"2020-04-01"
"Oakland At Risk Match","","https://www.oaklandatrisk.com/","","Oakland, CA",,,,"USA","","https://docs.google.com/forms/d/e/1FAIpQLSf72Nd_SzKqoZkr0nRICpVfZjI2ipVy5meOpARUTanGkkNb5w/viewform","https://docs.google.com/forms/d/e/1FAIpQLSeocUMsWW9al0K8AQ2aFtHHdkWJ_QDClT_MjXUDpita7IlTQA/viewform","","","","NA_Mutual_Aid_Networks.csv",,"2020-04-01"
"El Cerrito / Richmond Mutual AId","","https://docs.google.com/forms/d/e/1FAIpQLSeu6esf4-IJac-kX4Kev7qE2giV6HO-ntT0tBVZjrPkEQXRZQ/viewform?fbzx=-3920297804946702319","","Richmond, CA",,,,"USA","","","https://docs.google.com/spreadsheets/d/1TDoV37zYyGx-csgkxUM6rIKbVECTg0hO83GSZylJHnc/edit?fbclid=IwAR20uLTo7PtY7sgc5EMwvIiB1obsVOd72_9sniM4a7yYdcAHaWwQ_w-BeWw#gid=0","","","","NA_Mutual_Aid_Networks.csv",,"2020-04-01"
"California / Sacramento: Sacramento COVID-19 Mutual Aid 2020","","https://docs.google.com/spreadsheets/d/1iRTr4P5fJsGlJ5ogNqogZMOFtuOsdMSiDylkjZo-AKE/edit#gid=634347005","","Sacramento, CA",,,,"USA","","","","","","","NA_Mutual_Aid_Networks.csv",,"2020-04-01"
"San Diego (county-wide) COVID-19 Mutual Aid Volunteer Sign-Up","FacebookMutualAid","https://www.facebook.com/groups/938774179853952/","https://www.facebook.com/groups/938774179853952/","San Diego, CA",,,,"USA","","","https://docs.google.com/forms/d/e/1FAIpQLSfebNW1h60jIfyD8pTZ9G_kXBMqrZycIbv3zGGFqQIwOTYvyQ/viewform?fbclid=IwAR2n--LeStLja83hblNrC14vYlnGsV6HqRQziNQh1Xf_ihY4ZLNZwNiO6e8","","","","NA_Mutual_Aid_Networks.csv",,"2020-04-01"
"Bay Area Senior/Disability/Worker Mutual Aid Form","","https://docs.google.com/forms/d/1hqLnUN22aMoRnKnJJF2CzNP7u-RG5-rhZAz509z9wxE/viewform?fbclid=IwAR1vv4o72t7yYK3FlcB9bcY6l8uhsFpz6mwurmN6i7D_p9arIvKKZD8Dfjc&edit_requested=true","","San Francisco, CA",,,,"USA","","","","","","","NA_Mutual_Aid_Networks.csv",,"2020-04-01"
"California / Bay Area: Covid-19 Financial Solidarity","","https://docs.google.com/spreadsheets/d/1FBEU0cdAGpScU0JrOlYFm8FrY1Bjr0_HsyW4hWOj74I/edit?usp=drivesdk","","San Francisco, CA",,,,"USA","","https://docs.google.com/spreadsheets/d/1FBEU0cdAGpScU0JrOlYFm8FrY1Bjr0_HsyW4hWOj74I/edit?usp=drivesdk","","","","","NA_Mutual_Aid_Networks.csv",,"2020-04-01"
"California / San Francisco: SF Bay Mutual Aid Form","","https://docs.google.com/forms/d/e/1FAIpQLSeRdZabsQN36mtCTfYHZ1unT1U0pLpNqSC7MXaMjNqQAeVLQw/viewform","","San Francisco Bay Area, San Francisco, CA",,,,"USA","","https://docs.google.com/forms/d/e/1FAIpQLSeRdZabsQN36mtCTfYHZ1unT1U0pLpNqSC7MXaMjNqQAeVLQw/viewform","","","","","NA_Mutual_Aid_Networks.csv",,"2020-04-01"
"Help a Neighbor 2020","FacebookMutualAid","https://www.facebook.com/groups/1306542072854295","https://www.facebook.com/groups/1306542072854295","San Francisco, CA",,,,"USA","","","","","","","NA_Mutual_Aid_Networks.csv",,"2020-04-01"
"SF Community Support","","https://www.sfcommunitysupport.org/","https://www.facebook.com/groups/communitysupportsf/","San Francisco, CA",,,,"USA","","https://docs.google.com/forms/d/e/1FAIpQLSeHPN6fTKeFq8kYCigBJ7Dicyiq5vyTKJJN7FJ7lF2QRBJKFA/viewform","https://docs.google.com/forms/d/e/1FAIpQLSffERBfg3Vs-f2U-W-f2WJyEjYPLuK8ZR5LgaR0ZvM8FuV-DQ/viewform","","","","NA_Mutual_Aid_Networks.csv",,"2020-04-01"
"COVID19 Love Peninsula","","https://docs.google.com/forms/d/e/1FAIpQLSdWEQ6A4O2I4L8Vz8-_Bc5Q1zqhqGAayobkUnMrWGoeGjWAFQ/viewform?fbclid=IwAR0x5iwEgqWZOL-pd8HOgpKEKHSQNKwx8taDtYukMptlDzCEnqbILlu5iR4","","San Mateo, CA",,,,"USA","","","","","","","NA_Mutual_Aid_Networks.csv",,"2020-04-01"
"California / South Bay: South Bay Mutual Aid Intake","","https://docs.google.com/forms/d/e/1FAIpQLSelE_VdJNsuMdO1Z8OE-y5ltQZCZSeFG1pkknvKNmv11HAssw/viewform","","South Bay, Santa Clara, CA",,,,"USA","","","https://docs.google.com/forms/d/e/1FAIpQLSelE_VdJNsuMdO1Z8OE-y5ltQZCZSeFG1pkknvKNmv11HAssw/viewform","","","","NA_Mutual_Aid_Networks.csv",,"2020-04-01"
"California / South Bay: South Bay Mutual Aid Volunteer Intake (Español)","","https://docs.google.com/forms/d/1qbZtxiIcLFHRb2Y26w708-Ex4lnN4g9JEiEaxRlsDU8/viewform?edit_requested=true","","South Bay, Santa Clara, CA",,,,"USA","","","https://docs.google.com/forms/d/1qbZtxiIcLFHRb2Y26w708-Ex4lnN4g9JEiEaxRlsDU8/viewform?edit_requested=true","","","","NA_Mutual_Aid_Networks.csv",,"2020-04-01"
"Compassionate Santa Monica/COVID19 Compassion Task Force","FacebookMutualAid","https://www.facebook.com/groups/compassionatesantamonica/","https://www.facebook.com/groups/compassionatesantamonica/","Santa Monica, CA",,,,"USA","","https://forms.gle/8tGc5iM64p3LRNcu8","https://forms.gle/8tGc5iM64p3LRNcu8","","","","NA_Mutual_Aid_Networks.csv",,"2020-04-01"
"COVID Santa Cruz County Aid and Volunteer Form","","https://docs.google.com/forms/d/e/1FAIpQLSe0o0wsubIj5NVXINzx7Ay8vEyKpLbIk_sQ0r6JLxbZWHYrjQ/viewform","","Santa Cruz, CA",,,,"USA","","","","","","","NA_Mutual_Aid_Networks.csv",,"2020-04-01"
"Klamath Siskiyou Mutual Aid Network","FacebookMutualAid","https://www.facebook.com/groups/218700056182795/?ref=br_rs","https://www.facebook.com/groups/218700056182795/?ref=br_rs","Siskiyou County, CA",,,,"USA","","","","","","","NA_Mutual_Aid_Networks.csv",,"2020-04-01"
"United Disaster Relief of Northern California","FacebookMutualAid","https://www.facebook.com/mendolakecomplexfirerelief/","https://www.facebook.com/mendolakecomplexfirerelief/","Ukiah, CA",,,,"USA","","https://www.ncoinc.org/fs/mendocino-fire-recovery-center/?fbclid=IwAR3eKmYGEbnpVDoEvchqrrCfD5EA0KLIL10WM_qKFHDqGeS8EBqxP2Urb80","","","","","NA_Mutual_Aid_Networks.csv",,"2020-04-01"
"Sign up: CA Medical Supplies Donation","","https://docs.google.com/forms/d/e/1FAIpQLSfDDdf7DQrA8PljFEQxoaBn5DRx9fGV0ffsupoE_Ut-tkkEfw/viewform","","CA",,,,"USA","","","","","","","NA_Mutual_Aid_Networks.csv",,"2020-04-01"
"DSA Ventura County COVID-19 Mutual Aid","","https://www.dsaventuracounty.org/covid_19_mutual_aid","https://www.facebook.com/DSAVenturaCounty/","Oxnard, CA",,,,"USA","","https://docs.google.com/forms/d/e/1FAIpQLSdwbRdSE4TSQqNXw0kvzqOYRTf6ANfR7v-GwKZBwyU3dkCGRA/viewform","https://docs.google.com/forms/d/e/1FAIpQLSdo47CkpxhXmy4wD5tJJqVGS2inJstQb25kZBPCCzZhgrosug/viewform","","","","NA_Mutual_Aid_Networks.csv",,"2020-04-01"
"Silicon Valley Strong","","http://www.siliconvalleystrong.org","","San Jose, CA",,,,"USA","","","","","","","NA_Mutual_Aid_Networks.csv",,"2020-04-01"
"Cooperation Humboldt","","https://cooperationhumboldt.com/covid-response/","https://www.facebook.com/cooperationhumboldt/","Eureka, CA",,,,"USA","","https://docs.google.com/forms/d/e/1FAIpQLSc2LM3ydC4IkEgnpLv7qN7jls7oURI5h5rIYLIUyql12Guf4w/viewform","https://docs.google.com/forms/d/e/1FAIpQLSeXeuwogndzP-LsEfKVt56Cnt3hqWrfI1jHsfmFga0wUmmm9Q/viewform","","","","NA_Mutual_Aid_Networks.csv",,"2020-04-01"
"Orange County COVID-19 Mutual Aid 2020","","https://docs.google.com/spreadsheets/d/1UqvDWmL4Wt_fOphAL_EZddI2WWZPeBNt3yt9RKosBJI/edit#gid=634347005","https://www.facebook.com/groups/197294515038170/","Anaheim, CA",,,,"USA","","https://docs.google.com/forms/d/e/1FAIpQLSdo_rsFIb717mt5FT4rdvk1EdERqI7NPkehGthSp1H2NbTEog/viewform","","","","","NA_Mutual_Aid_Networks.csv",,"2020-04-01"
"We All We Got SD","","https://www.weallwegotsd.com/","https://www.facebook.com/groups/938774179853952/","San Diego, CA",,,,"USA","","https://docs.google.com/forms/d/e/1FAIpQLScQqNz8d1bVllnHbRwG9zxCaDaUGUAN9BQuLOFBfOWQD8UzdQ/viewform?fbclid=IwAR2_X6pD9o0K5kPuwkXd4NIM28A24sS_1zLrXZAuk6PtJJBXvXzUQPuEoxs","https://docs.google.com/forms/d/e/1FAIpQLSfebNW1h60jIfyD8pTZ9G_kXBMqrZycIbv3zGGFqQIwOTYvyQ/viewform?fbclid=IwAR0lOjML2V1KbdxFJ1DzfZGVYTVSXuk87sFsUCj3GlNPg4wAm6xBSzyhD8U","","","","NA_Mutual_Aid_Networks.csv",,"2020-04-01"
"How Can I Help? Bay Area","InformationSite","https://docs.google.com/spreadsheets/d/1gQlAmgIsXdEUdISa3gKYd5PX6eq6nc5WALdmNxQpNGw/edit#gid=0","","San Francisco, CA",,,,"USA","","","","","","","NA_Mutual_Aid_Networks.csv",,"2020-04-01"
"SGV Pandemic Mutual Aid Group","","https://docs.google.com/spreadsheets/d/12Rj_d1WjYbWlHvrxfuHivjN-lLnUT0481Lvr1zLxXMU/edit#gid=0","","Tomales, CA",,,,"USA","","","","","","","NA_Mutual_Aid_Networks.csv",,"2020-04-01"
"Moutain Communities COVID-19 Mutual Aid","FacebookMutualAid","https://www.facebook.com/groups/MCCMA","https://www.facebook.com/groups/MCCMA","Idyllwild-Pine Cove, CA",,,,"USA","","https://airtable.com/shrAp2BJznGM3ASLZ","https://airtable.com/shrR3vHabEP0OT9d2","","","","NA_Mutual_Aid_Networks.csv",,"2020-04-01"
"Riverside Mutual Aid Network","","http://docs.google.com/document/d/19OjdlJdny63GuKlvSYPUF8Cx62s-1gGXeJlB2Wmo7aw/edit?usp=sharing","https://www.facebook.com/rivmutualaid/","Riverside, CA",,,,"USA","","https://forms.gle/XC4wzCjWQhgMZD2n6","https://forms.gle/NmqD16sV5dzMRcUn7","","","","NA_Mutual_Aid_Networks.csv",,"2020-04-01"
"Joshua Tree Mutual Aid","FacebookMutualAid","https://www.facebook.com/groups/JTMutualAid/","https://www.facebook.com/groups/JTMutualAid/","Joshua Tree, CA",,,,"USA","","","","760-885-2324","","","NA_Mutual_Aid_Networks.csv",,"2020-04-01"
"High Desert Mutual Aid Society","FacebookMutualAid","https://www.facebook.com/Highdesertmutualaid","https://www.facebook.com/Highdesertmutualaid","Victorville, CA",,,,"USA","","","","","","","NA_Mutual_Aid_Networks.csv",,"2020-04-01"
"Aurora Mutual Aid","","Hotlline: 720-477-0406","","Aurora, CO",,,,"USA","","Hotlline: 720-477-0406","","","","","NA_Mutual_Aid_Networks.csv",,"2020-04-01"
"Mutual Aid Infrastructure - Aurora","FacebookMutualAid","https://www.facebook.com/groups/2704399092941296/","https://www.facebook.com/groups/2704399092941296/","Aurora, CO",,,,"USA","","","","","","","NA_Mutual_Aid_Networks.csv",,"2020-04-01"
"Boulder Coronavirus Community Coping Crew","FacebookMutualAid","https://www.facebook.com/groups/199467514668513/?ref=share","https://www.facebook.com/groups/199467514668513/?ref=share","Boulder, CO",,,,"USA","","","","","","","NA_Mutual_Aid_Networks.csv",,"2020-04-01"
"Front Range Mutual Aid","MutualAidGroup","https://www.facebook.com/COmutualists/","https://www.facebook.com/COmutualists/","Front Range, Boulder, CO",,,,"USA","","https://docs.google.com/forms/d/e/1FAIpQLSc1-tbmQmbv2oWnr8Cv0_N73skDcnuwaucSoWIV2QEJcufAnw/viewform?fbclid=IwAR2Z7c1Q1iqZJ5r-C5QycyfaQNVyLNb0qwAmQorjo-thzlUCUssLruqTmCQ","https://docs.google.com/forms/d/e/1FAIpQLSdbwDrX-tSW9Mktdnjirl4bXTiu8mKbAB1bjML9dnzYuTX3vw/viewform?fbclid=IwAR3QNT1W0Mx0vir7NQIjdAXOf87NXR4dP0J28G3lXli4HDTYkEZ9h3wkCjI","","","","NA_Mutual_Aid_Networks.csv",,"2020-04-01"
"City of Boulder volunteer cooperative","","https://countmein.bouldercolorado.gov/","","Boulder, CO",,,,"USA","","","https://countmein.bouldercolorado.gov/Calendar?start=2020-03-01&departments=17b7c26c-18b9-4e9c-a8c7-a881f5dbb43b","","","","NA_Mutual_Aid_Networks.csv",,"2020-04-01"
"Boulder COVID-19 Mutual Aid","FacebookMutualAid","https://www.facebook.com/groups/1241349502724671/?source=unknown","https://www.facebook.com/groups/1241349502724671/?source=unknown","Boulder, CO",,,,"USA","","https://docs.google.com/forms/d/1PF0DSmwAEjomHTY-ZZ7OhnY2jxTJHfgiKZzb-bAroVc/edit","https://docs.google.com/forms/d/1PF0DSmwAEjomHTY-ZZ7OhnY2jxTJHfgiKZzb-bAroVc/edit","","","","NA_Mutual_Aid_Networks.csv",,"2020-04-01"
"Mutual Aid Collective, Boulder","FacebookMutualAid","https://www.facebook.com/groups/201650704398894/","https://www.facebook.com/groups/201650704398894/","Boulder, CO",,,,"USA","","","","","","","NA_Mutual_Aid_Networks.csv",,"2020-04-01"
"Colorado / Colorado Springs: COS Mutual Aid Network","","https://opencollective.com/cos-mutual-aid-network","https://www.facebook.com/groups/580039515935157/?ref=share","Colorado Springs, CO",,,,"USA","","","https://docs.google.com/forms/d/e/1FAIpQLScjX-h6JXME_QkcbkaeXb6Rm9dSkMSu9ebvQvVu-bovF2_o1w/viewform?usp=send_form","","","","NA_Mutual_Aid_Networks.csv",,"2020-04-01"
"Mutual Aid Colorado Springs","","https://docs.google.com/forms/d/e/1FAIpQLScjX-h6JXME_QkcbkaeXb6Rm9dSkMSu9ebvQvVu-bovF2_o1w/viewform","https://www.facebook.com/groups/197210804946129/about/","Colorado Springs, CO",,,,"USA","","","","","","","NA_Mutual_Aid_Networks.csv",,"2020-04-01"
"Help Needed in Denver Metro COVID-19","FacebookMutualAid","https://www.facebook.com/groups/516631032588738/permalink/516705622581279/","https://www.facebook.com/groups/516631032588738/permalink/516705622581279/","Denver, CO",,,,"USA","","","","","","","NA_Mutual_Aid_Networks.csv",,"2020-04-01"
"State of Colorado COVID-19 Volunteer Response","","https://covrn.com/","","Denver, CO",,,,"USA","","","","","","","NA_Mutual_Aid_Networks.csv",,"2020-04-01"
"Denver Public Schools foundation","","https://www.dpsk12.org/coronavirus/","","Denver, CO",,,,"USA","","","","","","","NA_Mutual_Aid_Networks.csv",,"2020-04-01"
"Front Range Mutual Aid","MutualAidGroup","https://frman.org/","https://www.facebook.com/groups/265712697332241","Denver, CO",,,,"USA","","http://bit.ly/getcovidaidcolorado","http://bit.ly/covidaidcolorado","","","","NA_Mutual_Aid_Networks.csv",,"2020-04-01"
"Denver Community Mutual Aid","","https://docs.google.com/spreadsheets/d/1kYhC0D1DcFgH7gB5D_akLoG10Wm1aGhXrdS0wMPhBaA/edit?fbclid=IwAR2uGHLJUUt_jSP5zc2rD0i5jzJsey37UY1GHLlEygj8Hh4mk8lVbP-rQ3Q#gid=1727309836","","Denver, CO",,,,"USA","","","","","","","NA_Mutual_Aid_Networks.csv",,"2020-04-01"
"Fort Collins Mutual Aid Network","","https://fortcollinsmutualaid.neocities.org/?fbclid=IwAR0l8fq-WnqMbrzKtFz47QBih1XvxQ9izQHDLImyc2QaHwJQK4lwnqjZe5k","https://www.facebook.com/Fort-Collins-Mutual-Aid-Network-1515855165176704/","Fort Collins, CO",,,,"USA","","","","","","","NA_Mutual_Aid_Networks.csv",,"2020-04-01"
"Northern Colorado Mutual Aid and Defense","","https://twitter.com/NoCoCMAD","","Longmont, CO",,,,"USA","","Support request is temporarily closed","https://docs.google.com/forms/d/e/1FAIpQLScB_-Rw3TlpAb9wdUNYUChyqkggEKSmfL7q1Mrt6Q3VWURe2w/viewform?usp=send_form","","","","NA_Mutual_Aid_Networks.csv",,"2020-04-01"
"Mutual Aid in Colorado Springs during COVID-19 pandemic","FacebookMutualAid","https://www.facebook.com/groups/197210804946129/","https://www.facebook.com/groups/197210804946129/","Colorado Springs, CO",,,,"USA","","","","","","","NA_Mutual_Aid_Networks.csv",,"2020-04-01"
"Mutual Aid Infrastructure--Aurora, Colorado","FacebookMutualAid","https://www.facebook.com/groups/2704399092941296/?ref=share","https://www.facebook.com/groups/2704399092941296/?ref=share","Aurora, CO",,,,"USA","","","","","","","NA_Mutual_Aid_Networks.csv",,"2020-04-01"
"Durango Helps","","https://docs.google.com/document/d/1odc1Vtb8StICRLBHEC9bvOJyFUQYkHjaBwqaLa1iap8/edit","https://www.facebook.com/CelebratingHealthyCommunities/","Durango, CO",,,,"USA","","https://docs.google.com/forms/d/e/1FAIpQLSe9L_mPUq_22xrAO_CpugS6DrQR-P53b2iBZgRMbspxR6lghQ/viewform","https://docs.google.com/forms/d/e/1FAIpQLSe9L_mPUq_22xrAO_CpugS6DrQR-P53b2iBZgRMbspxR6lghQ/viewform","","","","NA_Mutual_Aid_Networks.csv",,"2020-04-01"
"CTCORE Mutual Aid","","https://docs.google.com/forms/d/e/1FAIpQLSee9baIhH7IglyvLdkBtlrMSK9AiJbJQvIksUArLV0ZksvO7g/viewform","https://www.facebook.com/ctcoreorganizenow.org/","Hartford, CT",,,,"USA","","http://www.ctcore-organizenow.org/coronactsupport","http://www.ctcore-organizenow.org/coronactsupport","","","","NA_Mutual_Aid_Networks.csv",,"2020-04-01"
"Connecticut / Hartford, Bridgeport, Waterbury, New Haven: Mutual Aid Network (English version)","","https://docs.google.com/document/d/1F6b03pTNxGC9Fc3_AZy3Po6jWEzSdJl3FCDOlZX6FLY/edit?fbclid=IwAR0AA8_JU26LynPwwbX1jj9jh2Xlw52gXqxCVnwkNFimfMbBJ522vVmoYOs","","Hartford/Bridgeport/Waterbury/New Haven, CT",,,,"USA","","","","","","","NA_Mutual_Aid_Networks.csv",,"2020-04-01"
"Connecticut / Hartford, Bridgeport, Waterbury, New Haven: Mutual Aid Network (Spanish version)","","https://docs.google.com/document/d/19cK5eq_unhr0z4T_AGkKO93r7-qJqQ3LxuXjlWvY62A/edit","","Hartford/Bridgeport/Waterbury/New Haven, CT",,,,"USA","","","","","","","NA_Mutual_Aid_Networks.csv",,"2020-04-01"
"New London Mutual Aid Collective - Community Network","FacebookMutualAid","https://www.facebook.com/groups/646521702359874/?ref=br_rs","https://www.facebook.com/groups/646521702359874/?ref=br_rs","New London, CT",,,,"USA","","","","","","","NA_Mutual_Aid_Networks.csv",,"2020-04-01"
"Mutual Aid/Ayuda Mutua Norwalk CT","","https://docs.google.com/document/d/1mtVXb3YV0Ph_ZOFGUwM26EdrS28R04_BYrwrla3QSPY/edit?usp=sharing","https://www.facebook.com/groups/norwalkmutualaid/","Norwalk, CT",,,,"USA","","https://forms.gle/T5gudDgWvAfqRdKU9","https://docs.google.com/forms/d/e/1FAIpQLSeld67D3EQOWDaE1OfkG0zux2mYcBbd8Xv4T7BWaqXHEXc4Pw/viewform?usp=sf_link","","","","NA_Mutual_Aid_Networks.csv",,"2020-04-01"
"Stratford Mutual Aid","FacebookMutualAid","https://www.facebook.com/groups/557607951811043/","https://www.facebook.com/groups/557607951811043/","Stratford, CT",,,,"USA","","","","","","","NA_Mutual_Aid_Networks.csv",,"2020-04-01"
"CT Mutual Aid","","https://ctmutualaid.com/","","Hartford, CT",,,,"USA","","https://docs.google.com/forms/d/e/1FAIpQLSftDN2mV9dCv_5uF2n341h21hNfT80bzNYmVJQaBFHUvi909A/viewform","https://docs.google.com/forms/d/e/1FAIpQLSftDN2mV9dCv_5uF2n341h21hNfT80bzNYmVJQaBFHUvi909A/viewform","","","","NA_Mutual_Aid_Networks.csv",,"2020-04-01"
"Mutual Aid WNHBH","","https://docs.google.com/spreadsheets/d/1oY_Xpu07LYU8AWdxatmHfFQwcT6cbff1jDWAF0wS9ik/edit?fbclid=IwAR20eRilQLE63BrAE95tY-x6oU3ACN5siYOvNBIPeyPCNeIXaXbdR8NbxJU#gid=0","","New Haven, CT",,,,"USA","","https://docs.google.com/spreadsheets/d/1oY_Xpu07LYU8AWdxatmHfFQwcT6cbff1jDWAF0wS9ik/edit?fbclid=IwAR20eRilQLE63BrAE95tY-x6oU3ACN5siYOvNBIPeyPCNeIXaXbdR8NbxJU#gid=0","https://docs.google.com/forms/d/e/1FAIpQLSeWN1V25kvvY-zO5yNpeLf1_VpFVfz1RXntPw98TBin3g0GXw/viewform","","","","NA_Mutual_Aid_Networks.csv",,"2020-04-01"
"Milford Mutual Aide Network","FacebookMutualAid","https://www.facebook.com/groups/2621163948207116/","https://www.facebook.com/groups/2621163948207116/","Milford, CT",,,,"USA","","https://docs.google.com/spreadsheets/d/1U_WJVPiTyX4N7DH6vwTs2I6CCypTNE3mlbZjmXHfDVI/edit?usp=sharing","https://docs.google.com/spreadsheets/d/13Qd7oP5bw_Hqj3VvQQ_SEN5D5qix8H_lsOtelly93GY/edit?usp=sharing","","","","NA_Mutual_Aid_Networks.csv",,"2020-04-01"
"Bridgeport Mutual Aid","FacebookMutualAid","https://www.facebook.com/groups/151365126136697/?epa=SEARCH_BOX","https://www.facebook.com/groups/151365126136697/?epa=SEARCH_BOX","Bridgeport, CT",,,,"USA","","","","","","","NA_Mutual_Aid_Networks.csv",,"2020-04-01"
"Share The Care - Connecticut","FacebookMutualAid","http://www.facebook.com/sharethecareandlove","http://www.facebook.com/sharethecareandlove","Ansonia, CT",,,,"USA","","","","","","","NA_Mutual_Aid_Networks.csv",,"2020-04-01"
"Takoma DC Community Care and Mutual Aid Signup","","https://docs.google.com/forms/d/e/1FAIpQLSfwZ4xkZzW2-TdWlIUPlSpvaG1QRIRHy4ulYKqsyV9NqgKYMw/viewform","","Takoma, Washington, DC",,,,"USA","","","https://docs.google.com/forms/d/e/1FAIpQLSfwZ4xkZzW2-TdWlIUPlSpvaG1QRIRHy4ulYKqsyV9NqgKYMw/viewform","","","","NA_Mutual_Aid_Networks.csv",,"2020-04-01"
"Petworth Helping Hands","","https://docs.google.com/spreadsheets/d/1F-hOHjM4rgGbLwiPx4rWkkpbPxqI6ceEY8yWllKhKDA/edit#gid=0","","Petworth, Washington, DC",,,,"USA","","","","","","","NA_Mutual_Aid_Networks.csv",,"2020-04-01"
"DC Mutual Aid","FacebookMutualAid","https://www.facebook.com/DCMutualAid/","https://www.facebook.com/DCMutualAid/","Washington, DC",,,,"USA","","","","","","","NA_Mutual_Aid_Networks.csv",,"2020-04-01"
"DC Mutual Aid (Multiple Neighborhood Groups)","","https://docs.google.com/spreadsheets/d/1wLncKL-9ixUFV_UIW08SO-MNVVMhupcK1sFtlTt5L3M/edit#gid=1634357411","","Washington, DC",,,,"USA","","","","","","","NA_Mutual_Aid_Networks.csv",,"2020-04-01"
"Help your neighbors - DMV (COVID-19 Relief)","FacebookMutualAid","https://www.facebook.com/groups/691495051389925/?ref=br_rs","https://www.facebook.com/groups/691495051389925/?ref=br_rs","Washington, DC",,,,"USA","","","","","","","NA_Mutual_Aid_Networks.csv",,"2020-04-01"
"DC Mutual Aid Network (Ward 7 and 8)","","https://www.congressheightsontherise.com/blog/dc-mutual-aid-network-for-ward-7-and-8-residents","","Washington, DC",,,,"USA","","","","","","","NA_Mutual_Aid_Networks.csv",,"2020-04-01"
"SW Neighbor Aid","","https://docs.google.com/forms/d/e/1FAIpQLSe94u6848X7Mrn0Z2XyUi4IxuoThn-Zvhf47OqT-oR1S4bjxQ/viewform","","Washington, DC",,,,"USA","","","","","","","NA_Mutual_Aid_Networks.csv",,"2020-04-01"
"DC Mutual Aid Network","FacebookMutualAid","https://www.facebook.com/groups/492881801379594/about/","https://www.facebook.com/groups/492881801379594/about/","Washington, DC",,,,"USA","","","","","","","NA_Mutual_Aid_Networks.csv",,"2020-04-01"
"The Helpers: Delaware Pandemic Response","FacebookMutualAid","https://www.facebook.com/groups/thehelpersDE/","https://www.facebook.com/groups/thehelpersDE/","DE",,,,"USA","","","","","","","NA_Mutual_Aid_Networks.csv",,"2020-04-01"
"Los Ayudantes: Respuesta de Delaware a la Pandemia","FacebookMutualAid","https://www.facebook.com/groups/890745734716986/learning_content/","https://www.facebook.com/groups/890745734716986/learning_content/","DE",,,,"USA","","","","","","","NA_Mutual_Aid_Networks.csv",,"2020-04-01"
"BocaHelps","","https://bocahelps.com/","","Boca Raton, FL",,,,"USA","","","","","","","NA_Mutual_Aid_Networks.csv",,"2020-04-01"
"Gainesville COVID-19 Mutual Aid","FacebookMutualAid","facebook.com/groups/243135496869312/?ref=br_rs","facebook.com/groups/243135496869312/?ref=br_rs","Gainesville, FL",,,,"USA","","","","","","","NA_Mutual_Aid_Networks.csv",,"2020-04-01"
"Hernando County, FL Mutual Aid Effort","FacebookMutualAid","https://www.facebook.com/groups/150711639466015/about/","https://www.facebook.com/groups/150711639466015/about/","Hernando County, FL",,,,"USA","","","","","","","NA_Mutual_Aid_Networks.csv",,"2020-04-01"
"Coronavirus Mutual Aid Network of Brevard County, FL","FacebookMutualAid","https://www.facebook.com/groups/mutualaidbrevard/?ref=br_rs","https://www.facebook.com/groups/mutualaidbrevard/?ref=br_rs","Melbourne, FL",,,,"USA","","","","","","","NA_Mutual_Aid_Networks.csv",,"2020-04-01"
"Buddy System MIA","","http://www.buddysystemMIA.com","","Miami, FL",,,,"USA","","","","","","","NA_Mutual_Aid_Networks.csv",,"2020-04-01"
"Tampa Mutual Aid","","https://docs.google.com/forms/d/e/1FAIpQLSfDAa3Q7LK1YiJJDOFenqD46ncgl3XZZPVkOQAPL4KBO2dj6w/viewform","","Tampa, FL",,,,"USA","","","","","","","NA_Mutual_Aid_Networks.csv",,"2020-04-01"
"Southshore FL Mutual Aid Network","FacebookMutualAid","https://www.facebook.com/groups/223436298800907/","https://www.facebook.com/groups/223436298800907/","Southshore, Tampa, FL",,,,"USA","","","","","","","NA_Mutual_Aid_Networks.csv",,"2020-04-01"
"Mutual Aid Greater Tampa","","https://docs.google.com/document/d/1qSt4xTJpEZ0pa5-ZxbUi5WZX5w6JI4Do8u4zU6nENLg/edit","","Tampa, FL",,,,"USA","","","","","","","NA_Mutual_Aid_Networks.csv",,"2020-04-01"
"CHNA Neighbors Helping Neighbors","","http://www.mychna.org/","","Crescent Heights, St. Petersburg, FL",,,,"USA","","","","","","","NA_Mutual_Aid_Networks.csv",,"2020-04-01"
"West Florida Mutual Aid","FacebookMutualAid","https://www.facebook.com/West-Florida-Mutual-Aid-Committee-105554577751398/","https://www.facebook.com/West-Florida-Mutual-Aid-Committee-105554577751398/","Pensacola, FL",,,,"USA","","","","","","","NA_Mutual_Aid_Networks.csv",,"2020-04-01"
"Tallahassee Community Assistance Service","","https://docs.google.com/document/d/1nxhYhIFt3P5i8reek6yWNHY0hpTIb0JdmrmcvurrDHA/edit","https://www.facebook.com/groups/530850841189648","Tallahassee, FL",,,,"USA","","","","","","","NA_Mutual_Aid_Networks.csv",,"2020-04-01"
"COVID-19 MUTUAL AID WILTON MANORS, FL","FacebookMutualAid","https://www.facebook.com/groups/532962177633823/","https://www.facebook.com/groups/532962177633823/","Wilton Manors, FL",,,,"USA","","","","","","","NA_Mutual_Aid_Networks.csv",,"2020-04-01"
"COVID-19 MUTUAL AID CORAL SPRINGS, FL","FacebookMutualAid","https://www.facebook.com/groups/203365737747894/?ref=bookmarks","https://www.facebook.com/groups/203365737747894/?ref=bookmarks","Coral Springs, FL",,,,"USA","","","","","","","NA_Mutual_Aid_Networks.csv",,"2020-04-01"
"Atlanta Survival Program","","https://atlsurvival.org","","Atlanta, GA",,,,"USA","","","","","","","NA_Mutual_Aid_Networks.csv",,"2020-04-01"
"Georgia Tech Mutual Aid Group","","https://docs.google.com/document/d/1_bJq94j3p2n-lDoETOH7wzhACjjmgw9l23QpbCa0Cag/edit","","Atlanta, GA",,,,"USA","","","","","","","NA_Mutual_Aid_Networks.csv",,"2020-04-01"
"Atlanta COVID-19 Solidarity & Mutual Aid","","https://docs.google.com/document/d/1_bJq94j3p2n-lDoETOH7wzhACjjmgw9l23QpbCa0Cag/mobilebasic","","Atlanta, GA",,,,"USA","","","","","","","NA_Mutual_Aid_Networks.csv",,"2020-04-01"
"Athens Mutual Aid Network","","https://www.skinsandclaystudio.com/contact-us","","Athens, GA",,,,"USA","","","","","","","NA_Mutual_Aid_Networks.csv",,"2020-04-01"
"Neighbors Helping Neighbors Des Moines Mutual Aid","","https://docs.google.com/forms/d/e/1FAIpQLSf9c67i9Hk3tNMtVFfkXAZOM2PAqUIZ9yCpNrT4-F074WWibQ/viewform?fbclid=IwAR2CnL-ilgcHknj96XORuGqVu6dYv3OOiiKXd1dkUsB27OlMDXo9S1nD2pI","","Des Moines, IA",,,,"USA","","https://docs.google.com/forms/d/e/1FAIpQLSf9c67i9Hk3tNMtVFfkXAZOM2PAqUIZ9yCpNrT4-F074WWibQ/viewform?fbclid=IwAR2CnL-ilgcHknj96XORuGqVu6dYv3OOiiKXd1dkUsB27OlMDXo9S1nD2pI","https://docs.google.com/forms/d/e/1FAIpQLSf4Nc5DHWkgewR6RVezyQ6bUw6jPSbdmBxWsKwEn4JzdT1iaw/viewform?fbclid=IwAR1GmvhIUu2rDzY3RQmJcxxhfCL7yKbmpy3s-prmkhWSOB7RLJRxo-u-BG4","","","","NA_Mutual_Aid_Networks.csv",,"2020-04-01"
"Community Support Project DSM","","https://docs.google.com/forms/d/e/1FAIpQLSe0ptHHSGTJxMd8xeRJ3w-6KPAIKdnBvWsazYyHX9Sfx5Ct1A/viewform","","Des Moines, IA",,,,"USA","","https://docs.google.com/forms/d/e/1FAIpQLSe0ptHHSGTJxMd8xeRJ3w-6KPAIKdnBvWsazYyHX9Sfx5Ct1A/viewform","https://forms.gle/7p49q1XkrqdnERuy7","","","","NA_Mutual_Aid_Networks.csv",,"2020-04-01"
"Grinnell, IA Mutual Aid Network","FacebookMutualAid","https://www.facebook.com/groups/200666177697167/?ref=br_rs","https://www.facebook.com/groups/200666177697167/?ref=br_rs","Grinnell, IA",,,,"USA","","","","","","","NA_Mutual_Aid_Networks.csv",,"2020-04-01"
"I Can Help — Decorah & Winneshiek County Mutual Aid Network","","https://docs.google.com/forms/d/e/1FAIpQLSeia06bSZaRTmoRtOisOYArNZViZhxMYyygNykv_tdd4Y2bYA/viewform","","Decorah, IA",,,,"USA","","","https://docs.google.com/forms/d/e/1FAIpQLSeia06bSZaRTmoRtOisOYArNZViZhxMYyygNykv_tdd4Y2bYA/viewform","","","","NA_Mutual_Aid_Networks.csv",,"2020-04-01"
"Linn County, IA Coronavirus support, swap, resources group","FacebookMutualAid","https://www.facebook.com/groups/881359378990113/","https://www.facebook.com/groups/881359378990113/","Cedar Rapids, IA",,,,"USA","","","","","","","NA_Mutual_Aid_Networks.csv",,"2020-04-01"
"Bannock County Corona Mutual Aid Group","FacebookMutualAid","https://www.facebook.com/groups/542908039684932/about/","","Pocatello, ID",,,,"USA","","","","","","","NA_Mutual_Aid_Networks.csv",,"2020-04-01"
"East Idaho Quarantine Mutual Aid","FacebookMutualAid","https://www.facebook.com/groups/223936838797653","","Idaho Falls, ID",,,,"USA","","","","","","","NA_Mutual_Aid_Networks.csv",,"2020-04-01"
"Idaho Covid 19 Mutual Aid Group","FacebookMutualAid","https://www.facebook.com/groups/599362557311758/","","Boise, ID",,,,"USA","","","","","","","NA_Mutual_Aid_Networks.csv",,"2020-04-01"
"Ada County COVID-19 M.A.G. (Mutual Aid Group)","FacebookMutualAid","https://www.facebook.com/groups/561233134486634/about/","","Boise, ID",,,,"USA","","","","","","","NA_Mutual_Aid_Networks.csv",,"2020-04-01"
"Southeast Boise COVID-19 M.A.G. (Mutual Aid Group)","FacebookMutualAid","https://www.facebook.com/groups/228421531843249/?hc_location=group","","Boise, ID",,,,"USA","","","","","","","NA_Mutual_Aid_Networks.csv",,"2020-04-01"
"Boise Bench COVID-19 M.A.G. (Mutual Aid Group)","FacebookMutualAid","https://www.facebook.com/groups/504207773573756/about/","","Boise, ID",,,,"USA","","","","","","","NA_Mutual_Aid_Networks.csv",,"2020-04-01"
"Northend/Downtown/NW Boise/Garden City COVID-19 M.A.G. (Mutual Aid Group)","FacebookMutualAid","https://www.facebook.com/groups/884203602015234/?ref=br_rs","","Northend, ID",,,,"USA","","","","","","","NA_Mutual_Aid_Networks.csv",,"2020-04-01"
"Meridian, ID COVID-19 M.A.G. (Mutual Aid Group)","FacebookMutualAid","https://www.facebook.com/groups/634092660497074/about/","","Meridian, ID",,,,"USA","","","","","","","NA_Mutual_Aid_Networks.csv",,"2020-04-01"
"Eagle, ID COVID-19 M.A.G. (Mutual Aid Group)","FacebookMutualAid","https://www.facebook.com/groups/260166328311384/?ref=br_rs","","Eagle, ID",,,,"USA","","","","","","","NA_Mutual_Aid_Networks.csv",,"2020-04-01"
"Kuna ID COVID-19 M.A.G. (Mutual Aid Group)","FacebookMutualAid","https://www.facebook.com/groups/620194181867801/?ref=br_rs","","Kuna, ID",,,,"USA","","","","","","","NA_Mutual_Aid_Networks.csv",,"2020-04-01"
"Star, ID COVID-19 M.A.G. (Mutual Aid Group)","FacebookMutualAid","https://www.facebook.com/groups/644986436334424/?ref=br_rs","","Star, ID",,,,"USA","","","","","","","NA_Mutual_Aid_Networks.csv",,"2020-04-01"
"Canyon County - COVID 19 MAG (Mutual Aid Group)","FacebookMutualAid","https://www.facebook.com/groups/141263063913527/about/","","Canyon County, ID",,,,"USA","","","","","","","NA_Mutual_Aid_Networks.csv",,"2020-04-01"
"Champaign County COVID-19 Food Distribution Volunteer Sign-up","","https://docs.google.com/forms/d/e/1FAIpQLScMZ3xVsTHWLEqoQc7bssA3wk7p5SffUpohZk8-nEA26k2vwg/viewform?fbclid=IwAR0GNn_Bg3i-a_7vZZaqgqbxAvFeF8OIhPnICxVjfDvON7rgIiUehEIj0-k","","Champaign, IL",,,,"USA","","","https://docs.google.com/forms/d/e/1FAIpQLScMZ3xVsTHWLEqoQc7bssA3wk7p5SffUpohZk8-nEA26k2vwg/viewform?fbclid=IwAR0GNn_Bg3i-a_7vZZaqgqbxAvFeF8OIhPnICxVjfDvON7rgIiUehEIj0-k","","","","NA_Mutual_Aid_Networks.csv",,"2020-04-01"
"Central IL Mutual Aid MetaGuide","","https://docs.google.com/document/d/1WdGcHpIJLrdnMqlvO2CNGegV8k1apmKS2iqP9jIUMaU/edit","","Champaign-Urbana, IL",,,,"USA","","","","","","","NA_Mutual_Aid_Networks.csv",,"2020-04-01"
"Illinois / Chicago: COVID-19 Mutual Aid Volunteer Sign-up","","https://docs.google.com/forms/d/e/1FAIpQLSd0MK1dnny1BTlzvohuRlnlC6fHqXKqez0hrZJLuZ6F4-qu9w/viewform?fbclid=IwAR2Hv2nPiztvHDf3Np_ncwJh3os4V0-k0xmS6cSLk5uR7w3pysPDar_5OfE","","Chicago, IL",,,,"USA","","","https://docs.google.com/forms/d/e/1FAIpQLSd0MK1dnny1BTlzvohuRlnlC6fHqXKqez0hrZJLuZ6F4-qu9w/viewform?fbclid=IwAR2Hv2nPiztvHDf3Np_ncwJh3os4V0-k0xmS6cSLk5uR7w3pysPDar_5OfE","","","","NA_Mutual_Aid_Networks.csv",,"2020-04-01"
"Illinois / Chicago: 73.5 Neighborhood Resource Pool","","https://docs.google.com/forms/d/e/1FAIpQLSfF1NPewbkuQSQynD1cFad0zgTPhhervhMH-VBRNRqhW-T33w/viewform","","Chicago, IL",,,,"USA","","","","","","","NA_Mutual_Aid_Networks.csv",,"2020-04-01"
"UChicago Mutual Aid","FacebookMutualAid","https://www.facebook.com/groups/1290114234516495/","https://www.facebook.com/groups/1290114234516495/","Chicago, IL",,,,"USA","","","https://docs.google.com/forms/d/e/1FAIpQLSf-uEFHV3NjqGIRFGH2_F7vVbTtg6RdaEajz8wEzisfqEa9Yg/viewform?fbclid=IwAR0dlisotyWZuU0If50_rEzJVk_R2es0ydoQUCQtWT-pr_Lvyl6sDwKdgCQ","","","","NA_Mutual_Aid_Networks.csv",,"2020-04-01"
"Chicago Caremongering - Community Response to COVID-19","FacebookMutualAid","https://www.facebook.com/groups/579978419269789/","https://www.facebook.com/groups/579978419269789/","Chicago, IL",,,,"USA","","","","","","","NA_Mutual_Aid_Networks.csv",,"2020-04-01"
"Chicago COVID-19 Hardship and Help Page","","https://transformativespaces.org/2020/03/15/chicago-covid-19-hardship-and-help-page/amp/?__twitter_impression=true","","Chicago, IL",,,,"USA","","https://docs.google.com/forms/d/e/1FAIpQLSeJoBykIAsjxiIwoUgYPwo2rVM59tMH_PvMryxTtfPcJ1K2Zw/viewform","https://docs.google.com/spreadsheets/d/1RY5B47m4qo6lr4NNehC4Z4mXIrAogKpC7F5LjG4LubY/edit#gid=1378790480","","","","NA_Mutual_Aid_Networks.csv",,"2020-04-01"
"Rogers Park Community Response Team","","https://rpcrt.org/","","Chicago, IL",,,,"USA","","","","773-831-7668.","","","NA_Mutual_Aid_Networks.csv",,"2020-04-01"
"Pilsen Vecinos Unidos: COVID-19 Neighborhood Volunteers","","https://docs.google.com/spreadsheets/d/1946zPaYuCT23eaCfs6GSm8_5rhFbWPtvMgAA4hhomLA/edit?fbclid=IwAR1B0a5djW9Y4sriXUSCmrUhvzcMu-0FlktgbZL0DVnmnU6YTW9UpSFcSrU#gid=0","","Chicago, IL",,,,"USA","","","","","","","NA_Mutual_Aid_Networks.csv",,"2020-04-01"
"COVID19 Language Interpretation & Translation Volunteer Sign Up","","https://docs.google.com/forms/d/e/1FAIpQLSd3CgfnBa0R-9ZPqJEOewkQBAV_DBCyq9UFYnjdEXhYEGItYQ/viewform","","Chicago, IL",,,,"USA","","","","","","","NA_Mutual_Aid_Networks.csv",,"2020-04-01"
"Northwestern Health Professions Graduate Students - Chicago COVID-19 Assistance Request Form","","https://docs.google.com/forms/d/e/1FAIpQLSewtTYn9cicsJ-UmZVi7mOPlXwb5XaKpq5qCqzUUnWOw_mgtQ/viewform","","Chicago, IL",,,,"USA","","","","","","","NA_Mutual_Aid_Networks.csv",,"2020-04-01"
"Brave Space Alliance COVID-19 Mutual Aid Volunteer Sign-up","","https://www.bravespacealliance.org/covid-19","","Chicago, IL",,,,"USA","","https://docs.google.com/forms/d/e/1FAIpQLSelaHe7IlGXJcn7IcrBKn9pTYx_lW4kPktkR9MCLzjOijBrUQ/viewform","https://docs.google.com/forms/d/e/1FAIpQLSeFuaFQMR4SE3M7wbiB8FR0JOxOMzYXcBxhF6Yi_7MEcMMsFQ/viewform?fbclid=IwAR3b7YlOiWkhkmbDrDceIGfC14kNwhJSF0UQV1k3QvcNe95eQfWWb1k-oBQ","","","","NA_Mutual_Aid_Networks.csv",,"2020-04-01"
"Sittercity First Responder- Chicago Responds","","https://family.sittercity.com/chicagoresponds/","","Chicago, IL",,,,"USA","","","","","","","NA_Mutual_Aid_Networks.csv",,"2020-04-01"
"Morton College COVID-19 Mutual Aid","","https://docs.google.com/forms/d/e/1FAIpQLSdpZC0Upru_KPtVtKTK1ff10MBQsFHdnoGhejcW6ixrKW0LPA/viewform","","Lyons, IL",,,,"USA","","","https://docs.google.com/forms/d/e/1FAIpQLSdpZC0Upru_KPtVtKTK1ff10MBQsFHdnoGhejcW6ixrKW0LPA/viewform","","","","NA_Mutual_Aid_Networks.csv",,"2020-04-01"
"COVID-19 Mutual Aid Volunteers Rockford","","https://docs.google.com/forms/d/e/1FAIpQLSftFSaJCKiGiF8rjuZg3eXa4KMW_Uo-pVZP21GPnz-DiNk_1Q/viewform?fbclid=IwAR1hej0Nb8Cg5h6s3IejTJytucjOZiFajoN6ptVVgYl4G6qHwchKgETMbXY","","Rockford, IL",,,,"USA","","","","","","","NA_Mutual_Aid_Networks.csv",,"2020-04-01"
"Mutual Aid Chicago NW Suburbs","","https://tinyurl.com/mutualaidcnws","","Schaumburg, IL",,,,"USA","","","","","","","NA_Mutual_Aid_Networks.csv",,"2020-04-01"
"Springfield Families Helping Families","FacebookMutualAid","https://www.facebook.com/groups/SpringfieldHelp/","https://www.facebook.com/groups/SpringfieldHelp/","Springfield, IL",,,,"USA","","","","","","","NA_Mutual_Aid_Networks.csv",,"2020-04-01"
"CU COVID","","https://cucovid.org/","","Urbana, IL",,,,"USA","","https://cucovid.org/index.php?title=Getting_Help","https://cucovid.org/index.php?title=Helping","","","","NA_Mutual_Aid_Networks.csv",,"2020-04-01"
"Raising Kane County","","https://www.raisingkane.io/","","St. Charles, IL",,,,"USA","","","","","","","NA_Mutual_Aid_Networks.csv",,"2020-04-01"
"COVID-19 Lockport Area Mutual Aid","FacebookMutualAid","https://www.facebook.com/Covid-19-Lockport-Area-Mutual-Aid-100285148300404/","https://www.facebook.com/Covid-19-Lockport-Area-Mutual-Aid-100285148300404/","Lockport, IL",,,,"USA","","","","","","","NA_Mutual_Aid_Networks.csv",,"2020-04-01"
"Roscoe/Rockton Neighbors Helping Neighbors","","https://www.roroneighbors.org/","","Roscoe, IL",,,,"USA","","","","","","","NA_Mutual_Aid_Networks.csv",,"2020-04-01"
"Indiana / Bloomington: No Space for Hate COVID 19 Mutual Aid","","https://docs.google.com/forms/d/e/1FAIpQLSd-No5BLo6y-9ubpTnQAzFyOk7Q7gwel7iLpD-7Q9gpPF36sg/viewform","","Bloomington, IN",,,,"USA","","","","","","","NA_Mutual_Aid_Networks.csv",,"2020-04-01"
"Bloomington Mutual Aid for Covid-19","","https://nospace4hate.btown-in.org/nsfh-mutual-aid/","","Bloomington, IN",,,,"USA","","","","","","","NA_Mutual_Aid_Networks.csv",,"2020-04-01"
"Mutual Aid Brown County (IN) COVID-19","FacebookMutualAid","https://www.facebook.com/groups/BroCoMutualAid","https://www.facebook.com/groups/BroCoMutualAid","Brown County, IN",,,,"USA","","","","","","","NA_Mutual_Aid_Networks.csv",,"2020-04-01"
"COVID19 Mutual Aid — Indianapolis","","https://docs.google.com/forms/d/e/1FAIpQLScLCB8IJaNEaxsfbeJci5De9HjzEuNElTbl3nfW1iwUc5b5uw/viewform?fbclid=IwAR34Pwp8nsg4aAupayXgzbdcR8lBdPO4T040dbD572mqy7ZA73cMghVIpAc","https://www.facebook.com/groups/indymutualaid/?ref=br_rs","Indianapolis, IN",,,,"USA","","","","","","","NA_Mutual_Aid_Networks.csv",,"2020-04-01"
"Greater Lafayette COVID-19 Mutual Aid Response","FacebookMutualAid","https://www.facebook.com/groups/187656082663278/","https://www.facebook.com/groups/187656082663278/","Lafayette, IN",,,,"USA","","https://docs.google.com/forms/d/1ejyRlCt_vQO00wtiaZQMzssHE6hkLwWFuaZjqzfTs_g/edit","https://docs.google.com/forms/d/1ykt-UibvesWK9yu91vOXxMfXlkzmlWXNGQ0OwSV7IC8/edit","","","","NA_Mutual_Aid_Networks.csv",,"2020-04-01"
"South Bend Mutual Aid","","https://linktr.ee/southbend_mutualaid","","South Bend, IN",,,,"USA","","","","","","","NA_Mutual_Aid_Networks.csv",,"2020-04-01"
"Helping Network of Elkhart County","","http://helpingnetwork.org","https://facebook.com/helpingnetwork.org","Goshen, IN",,,,"USA","","https://helpingnetwork.churchcenter.com/people/forms/116371","https://helpingnetwork.churchcenter.com/people/forms/116371","","","","NA_Mutual_Aid_Networks.csv",,"2020-04-01"
"South Central Indiana Coronavirus Help","FacebookMutualAid","https://www.facebook.com/groups/SouthCentralIndianaCoronavirusHelp/","https://www.facebook.com/groups/SouthCentralIndianaCoronavirusHelp/","Columbus, IN",,,,"USA","","","","","","","NA_Mutual_Aid_Networks.csv",,"2020-04-01"
"Richmond Response and Resource for Covid-19","","https://docs.google.com/spreadsheets/d/1Mj1aVxCW8c3WQTSwA8wlmi_npscjLHZ2SjZy6m7irsk/edit#gid=1020167366","https://www.facebook.com/groups/523050625297169/?ref=bookmarks","Richmond, IN",,,,"USA","","","","","","","NA_Mutual_Aid_Networks.csv",,"2020-04-01"
"Kansas City Mutual Aid","FacebookMutualAid","https://www.facebook.com/groups/1596299170524391/?ref=br_rs","https://www.facebook.com/groups/1596299170524391/?ref=br_rs","Kansas City, KS",,,,"USA","","","https://docs.google.com/forms/d/1dAR0eboOb9_tIwZi8IuvIDhaO2DGapeQ4hFdYsnPosE/viewform?edit_requested=true&fbclid=IwAR1heTlkSy6iZ6zEa0OraWa_Evh2MqzFMdqV6ei-lveseNz6-90tb55fo5Q","","","","NA_Mutual_Aid_Networks.csv",,"2020-04-01"
"Strawberry Hill Coronavirus Mutual Aid","FacebookMutualAid","https://www.facebook.com/groups/136824581089511/?ref=share","https://www.facebook.com/groups/136824581089511/?ref=share","Kansas City, KS",,,,"USA","","","","","","","NA_Mutual_Aid_Networks.csv",,"2020-04-01"
"Lawrence Mutual Aid Network","FacebookMutualAid","https://www.facebook.com/lfkmutual/","https://www.facebook.com/lfkmutual/","Lawrence, KS",,,,"USA","","","","","","","NA_Mutual_Aid_Networks.csv",,"2020-04-01"
"Lawrence Mutual Aid Network","FacebookMutualAid","https://www.facebook.com/lfkmutual/","https://www.facebook.com/lfkmutual/","Lawrence, KS",,,,"USA","","bit.ly/LFKMutualAidRequest","bit.ly/LFKMutualAidVolunteer","","","","NA_Mutual_Aid_Networks.csv",,"2020-04-01"
"Madison Kansas Mutual Aid","FacebookMutualAid","https://www.facebook.com/groups/603411050515548/","https://www.facebook.com/groups/603411050515548/","Madison, KS",,,,"USA","","","","","","","NA_Mutual_Aid_Networks.csv",,"2020-04-01"
"Topeka Corona Care","FacebookMutualAid","https://www.facebook.com/groups/topekacoronacare/?ref=search","https://www.facebook.com/groups/topekacoronacare/?ref=search","Topeka, KS",,,,"USA","","","","","","","NA_Mutual_Aid_Networks.csv",,"2020-04-01"
"Grocery Getters Wichita","FacebookMutualAid","https://www.facebook.com/groups/199370288005766/","","Wichita, KS",,,,"USA","","","","","","","NA_Mutual_Aid_Networks.csv",,"2020-04-01"
"Wichita Metro Area Collaboration for COVID 19 Crisis","FacebookMutualAid","https://www.facebook.com/groups/645030479396753/","","Wichita, KS",,,,"USA","","","","","","","NA_Mutual_Aid_Networks.csv",,"2020-04-01"
"WMLA Mutual Aid Initiative","","https://docs.google.com/forms/d/1tK8Bl5zLnKIMlYdZSyv5840Y--IaQf7udOVtGS0E73Y/viewform?","","Wichita, KS",,,,"USA","","https://docs.google.com/forms/d/1tK8Bl5zLnKIMlYdZSyv5840Y--IaQf7udOVtGS0E73Y/viewform?","https://docs.google.com/forms/d/1d_CX3jwlA_zijE4MFM1BCO1ylwmB7m4A1nFwoEjBdE0/viewform?","","","","NA_Mutual_Aid_Networks.csv",,"2020-04-01"
"Kentucky / Lexington: Mutual Aid Lexington Kentucky","","https://docs.google.com/forms/d/e/1FAIpQLSeP4koOM1yO-tb6VicTWjZhCHTSrarceghikJROf6QL2Nc8eQ/viewform?fbclid=IwAR36e-f2AdpyseehKsQ-0NqfPLyOV-2PP0d6d3rEDgZO2O_u1ykne77n2po","https://www.facebook.com/groups/199450304659978/","Lexington, KY",,,,"USA","","","","","","","NA_Mutual_Aid_Networks.csv",,"2020-04-01"
"Kentucky / Louisville: Mutual Aid Louisville","","https://docs.google.com/forms/d/e/1FAIpQLSdoUHjttKCV5tiTNbBh5Ym5C9MwFWt9S5wFeo_Yz42jKwWALw/viewform","","Louisville, KY",,,,"USA","","","","","","","NA_Mutual_Aid_Networks.csv",,"2020-04-01"
"Youth Mutual aid fund","","https://www.kystudentenvironmentalcoalition.org/covid-19-mutual-aid.html","","all of Kentucky, London, KY",,,,"USA","","","","","","","NA_Mutual_Aid_Networks.csv",,"2020-04-01"
"AS:UU/CCC COVID-19 Kentucky Mutual Aid","","https://linktr.ee/Tettra?fbclid=IwAR1-kJGosgsxZy4pj8KeDytN7lBXwIqxpCH2ZHav_rt4CdcLgoTgRmMFGvI","https://www.facebook.com/ASUUKY/","all of Kentucky, Louisville, KY",,,,"USA","","https://docs.google.com/forms/d/e/1FAIpQLSfpOVcRWyf872R8sHfLif01vV5doAG_2SGADsEgMZp6xVZJEw/viewform","https://docs.google.com/forms/d/e/1FAIpQLSfpOVcRWyf872R8sHfLif01vV5doAG_2SGADsEgMZp6xVZJEw/viewform","","","","NA_Mutual_Aid_Networks.csv",,"2020-04-01"
"Bowling Green Mutual Aid Society","FacebookMutualAid","https://www.facebook.com/pages/category/Charity-Organization/Bowling-Green-Mutual-Aid-Society-100570608177733/","","Bowlinrg Green, KY",,,,"USA","","","","","","","NA_Mutual_Aid_Networks.csv",,"2020-04-01"
"EKY Mutual Aid Volunteer Form","","https://docs.google.com/forms/d/e/1FAIpQLSf5rAKlAnrj23pyjvHQrEezAen9wRRscZ9ImGNFT7JS9xS97Q/viewform?fbclid=IwAR021eCPntap2nhFDUVdYDkzrl7DAIJ16yCR4F7SIRazbCdhbuWfBEtnykE","","Prestonsburg, KY",,,,"USA","","","","","","","NA_Mutual_Aid_Networks.csv",,"2020-04-01"
"COVID-19 Mutual Aid (New Orleans)","FacebookMutualAid","https://www.facebook.com/groups/MutualAidNewOrleans/?ref=br_rs","https://www.facebook.com/groups/MutualAidNewOrleans/?ref=br_rs","New Orleans, LA",,,,"USA","","","","","","","NA_Mutual_Aid_Networks.csv",,"2020-04-01"
"Mutual Aid - New Orleans","FacebookMutualAid","https://www.facebook.com/groups/MutualAidNOLA/?ref=br_rs","https://www.facebook.com/groups/MutualAidNOLA/?ref=br_rs","New Orleans, LA",,,,"USA","","","","","","","NA_Mutual_Aid_Networks.csv",,"2020-04-01"
"GNO Caring Collective","","http://www.gnocaringcollective.org","https://www.facebook.com/GNOCaringCollective/?__tn__=%2Cd%2CP-R&eid=ARD7sgZvrOACkqK5osaiz5_dEOZdUFqkMTkGHrhiuMH855P_CsvgvUGsD_29jKFkskdH6G58Qb0kabpc","New Orleans, LA",,,,"USA","","","","(504) 233-8707","","","NA_Mutual_Aid_Networks.csv",,"2020-04-01"
"NOLA Community Mutual Aid","","https://docs.google.com/spreadsheets/d/1dC2CZVbEK0qIOEiL4J_PtPUJkDHP2WCm2uLX3gVVYeE/edit?fbclid=IwAR2D-LgqWsRvL7vNxSpEmimg5G60xRM3AhmMsE2SJmdl7Pzl8nw9-JChTdE#gid=1247591924","","New Orleans, LA",,,,"USA","","","","","","","NA_Mutual_Aid_Networks.csv",,"2020-04-01"
"New Orleans Mutual Aid Society","FacebookMutualAid","http://www.facebook.com/neworleansmutualaid","http://www.facebook.com/neworleansmutualaid","New Orleans, LA",,,,"USA","","https://docs.google.com/forms/d/1fI1DYToSoci00EaJ94NyFuRDlcT0dSD4sCFdjWK7rkw/viewform?edit_requested=true","https://docs.google.com/forms/d/1fI1DYToSoci00EaJ94NyFuRDlcT0dSD4sCFdjWK7rkw/viewform?edit_requested=true","","","","NA_Mutual_Aid_Networks.csv",,"2020-04-01"
"Massachusetts / Allston and Brighton: Allston/Brighton Mutual Aid","","https://docs.google.com/document/d/1elvhLVePZdLRpTWgNKNYKYacu9wI__7ILMerXPUZjSg/edit?fbclid=IwAR3-SuJl0vthhJfsHhhwhqwE0GPVYak6gl1o6TwfZuZF6QhfkWk5DhxSAi4","","Allston/Brighton, MA",,,,"USA","","","","","","","NA_Mutual_Aid_Networks.csv",,"2020-04-01"
"Mutual Aid Arlington","","https://mutualaidarlington.org/","","Arlington, MA",,,,"USA","","","","","","","NA_Mutual_Aid_Networks.csv",,"2020-04-01"
"Arlington Helps","","https://docs.google.com/forms/d/e/1FAIpQLSfmpJqTK6_63qXzLjmEdd-5zfD1ebMXUSxt4kWJsCyQPKNriw/viewform","","Arlington, MA",,,,"USA","","","","","","","NA_Mutual_Aid_Networks.csv",,"2020-04-01"
"Arlington, MA COVID-19 Community Support","FacebookMutualAid","https://www.facebook.com/groups/201015774573867/","https://www.facebook.com/groups/201015774573867/","Arlington, MA",,,,"USA","","","","","","","NA_Mutual_Aid_Networks.csv",,"2020-04-01"
"Beverly Neighbors Helping Neighbors","","https://docs.google.com/forms/d/e/1FAIpQLSews1VUUpOzf9s7hTdRL_ieuSgEgPwTfGamo6NfHbpCO9Jp9w/viewform?fbclid=IwAR3rvSH9_voZGiX5aA7WojVd6T-nl8YoOeaG2Ep8EUEDTVdPvWkFfkj-e6c","","Beverly, MA",,,,"USA","","","","","","","NA_Mutual_Aid_Networks.csv",,"2020-04-01"
"COVID-19 Greater Boston (mutual aid and resources)","FacebookMutualAid","https://www.facebook.com/groups/591650621562523/?ref=br_rs","https://www.facebook.com/groups/591650621562523/?ref=br_rs","Boston, MA",,,,"USA","","","","","","","NA_Mutual_Aid_Networks.csv",,"2020-04-01"
"FOOD FOR FREE COVID-19 Volunteer Response","","https://docs.google.com/forms/d/e/1FAIpQLSed0cSIoOc7-Fvoms3VHR1Lc44fjql-vTNknz_a-7T_sKDnrw/viewform","","Boston, MA",,,,"USA","","","https://docs.google.com/forms/d/e/1FAIpQLSed0cSIoOc7-Fvoms3VHR1Lc44fjql-vTNknz_a-7T_sKDnrw/viewform","","","","NA_Mutual_Aid_Networks.csv",,"2020-04-01"
"Boston COVID-19 Community Care","","https://docs.google.com/spreadsheets/d/15GYuPYEzBk9KIyH3C3419aYxIMVAsa7BL7nBl9434Mg/edit#gid=0","","Boston, MA",,,,"USA","","","","","","","NA_Mutual_Aid_Networks.csv",,"2020-04-01"
"Boston Queers for Mutual Aid","FacebookMutualAid","https://www.facebook.com/groups/1910113582610797/?ref=br_rs","https://www.facebook.com/groups/1910113582610797/?ref=br_rs","Boston, MA",,,,"USA","","","","","","","NA_Mutual_Aid_Networks.csv",,"2020-04-01"
"MAS Mutual Aid - Massachusetts","","https://docs.google.com/forms/d/e/1FAIpQLSdGyAy3hDF6m7smRkZdj66nSXJ_GhvWN5oBEvDehsLK7fInQQ/viewform","","Boston, MA",,,,"USA","","","","","","","NA_Mutual_Aid_Networks.csv",,"2020-04-01"
"Solidarity Supply Distro","FacebookMutualAid","https://www.facebook.com/SolidaritySupplyDistro/photos/a.103617487940477/103617374607155/?type=3&theater","https://www.facebook.com/SolidaritySupplyDistro/photos/a.103617487940477/103617374607155/?type=3&theater","Boston, MA",,,,"USA","","","","","","","NA_Mutual_Aid_Networks.csv",,"2020-04-01"
"Mutual Aid Brookline","","https://docs.google.com/document/d/18wyL-f2x2j-tFMCsbaxWW98PjY5bVUKfPluFibmX9u8/preview#heading=h.tcdds17vctfu","https://www.facebook.com/groups/243515463708839/","Brookline, MA",,,,"USA","","","https://docs.google.com/spreadsheets/d/1urR54R_NcuBi-9cBbmhZlThgGSjvF0t9ygHvCg5pFhY/preview","","","","NA_Mutual_Aid_Networks.csv",,"2020-04-01"
"Mutual Aid Cambridge","","https://docs.google.com/spreadsheets/d/1ag6FOz4-hiLrCd-Jc5ezI9AMZRdSgRCRNl0mpOrFc5U/edit#gid=1504463383","","Cambridge, MA",,,,"USA","","https://docs.google.com/spreadsheets/d/1ag6FOz4-hiLrCd-Jc5ezI9AMZRdSgRCRNl0mpOrFc5U/edit#gid=1504463383","https://docs.google.com/forms/d/e/1FAIpQLScescGf_Knel1KGJ8fq0MUMzWa-6-CdKHzr5QT8RId8OMU8HA/viewform?fbclid=IwAR2yNMsS2ovYC1j63COmp8c6CK8NOrdy2PJhFsMSHoBBXqjqknBXFidQsO0","","","","NA_Mutual_Aid_Networks.csv",,"2020-04-01"
"Ability to Host or Store Belongings for Harvard College, Low-Income Students","","https://docs.google.com/forms/d/e/1FAIpQLSeV_k4aCXBb8GsDe9_zfrZhlmY4J2kAbmLcElRTAj6GslgfLQ/viewform","","Cambridge, MA",,,,"USA","","","","","","","NA_Mutual_Aid_Networks.csv",,"2020-04-01"
"Western Massachusetts Community Mutual Aid network","","https://docs.google.com/document/d/1s7nxiKPSrAtfSyHDZwPz2M6O5SdiiF4a3z1k-capCXQ/edit","","Chicopee, MA",,,,"USA","","","","","","","NA_Mutual_Aid_Networks.csv",,"2020-04-01"
"Dorchester Community Care","","https://docs.google.com/document/d/1-16k_AKPNkVQXjMGogl913LSAPL7RBF9WL11-ANkXBU/edit","","Dorchester, MA",,,,"USA","","","","","","","NA_Mutual_Aid_Networks.csv",,"2020-04-01"
"Mutual Aid East Boston / Grupo de Apoyo Mutuo East Boston y Chelsea","","https://whatsupeastie.com/coronavirusresponse/mutualaideastie/","","East Boston, MA",,,,"USA","","","","","","","NA_Mutual_Aid_Networks.csv",,"2020-04-01"
"Mutual Aid - Southcoast","","https://docs.google.com/forms/d/e/1FAIpQLScQ6EiuWw92GC1oKde9IH1n5FWFrNlKMWbewH_ZnbyoWBgt2Q/viewform","","Fall River, MA",,,,"USA","","","","","","","NA_Mutual_Aid_Networks.csv",,"2020-04-01"
"Framingham Coronavirus Community Outreach","","https://framinghamoutreach.org/","","Framingham, MA",,,,"USA","","","","","","","NA_Mutual_Aid_Networks.csv",,"2020-04-01"
"Jamaica Plain & Roxbury, MA Mutual Aid","","https://docs.google.com/document/d/1sprOsMLFieTEU6fakfG5mqirp3AUUGKGz6JnDg29n78/edit?fbclid=IwAR0dRAdoZOx3cHeLtwOiQVDhraCGl3UuRQLL-Ed7HvtgCRjwYm9PdkdyQWA","","Jamaica Plain/Roxbury, MA",,,,"USA","","","","","","","NA_Mutual_Aid_Networks.csv",,"2020-04-01"
"Greater Lawrence Mutual Aid Network","","https://docs.google.com/document/d/16NpmoQjnAjyl_U2WAfVpq1ERkN5aCUVwV3Yx7FPRjCo/edit","","Lawrence, MA",,,,"USA","","","","","","","NA_Mutual_Aid_Networks.csv",,"2020-04-01"
"Mutual Aid Lexington","","https://docs.google.com/document/d/1n7Qre55HQ8fFYC9D3BLQ1x5NWXrilNapylo2FAbaXm4/edit","","Lexington, MA",,,,"USA","","","","","","","NA_Mutual_Aid_Networks.csv",,"2020-04-01"
"Lincoln-Sudbury Mutual Aid Network","","https://docs.google.com/document/d/1cn5btAM7rxJoVR1pu8een13cno45FrFtjZvkIEWIKfQ/edit","https://www.facebook.com/groups/lincolnsudburymutualaid","Lincoln, MA",,,,"USA","","https://docs.google.com/forms/d/1a6M79DvFsV9ZnlsPbkJJo7GBwJX68_bpCxotyRET5V0/viewform?edit_requested=true","https://forms.gle/Q9iqskZTYmeaTr8Z7","","","","NA_Mutual_Aid_Networks.csv",,"2020-04-01"
"Lifting Lowellians: Assistance and Mutual Aid","","https://docs.google.com/forms/d/e/1FAIpQLSePh0qGXR-yj_Cq5ZEPi19y2ibothgr5EsPKMUR0EU9U8ODyQ/viewform","","Lowell, MA",,,,"USA","","","","","","","NA_Mutual_Aid_Networks.csv",,"2020-04-01"
"Lynn MA Mutual Aid Disaster Relief","FacebookMutualAid","https://www.facebook.com/groups/242220393479479/","https://www.facebook.com/groups/242220393479479/","Lynn, MA",,,,"USA","","","","","","","NA_Mutual_Aid_Networks.csv",,"2020-04-01"
"Tufts Mutual Aid for Students Affected by COVID-19","FacebookMutualAid","facebook.com/tuftsmutualaid","facebook.com/tuftsmutualaid","Medford, MA",,,,"USA","","","https://docs.google.com/forms/d/e/1FAIpQLSfZnww2E9qB8LfAr6SX__i1qUICM153H2rTxy2QpqS-k6LolQ/viewform?fbclid=IwAR3hUeXk0LMk6gKirc8dghC4tAf5ZrMEfXh3rtMPrEkc-1gn1rYA-mwvlDY","","","","NA_Mutual_Aid_Networks.csv",,"2020-04-01"
"Massachusetts / Medford, Somerville: Mutual Aid Medford and Somerville (MAMAS)","","https://docs.google.com/document/d/1RtYZ1wc8jxcSKDl555WszWhQWlOlSkNnfjIOYV0wXRA/mobilebasic?urp=gmail_link","","Medford/Somerville, MA",,,,"USA","","","https://docs.google.com/forms/d/e/1FAIpQLSdsdGeYXv0cH3TxrMQSBp9A0h9dghnVzl_FajnZdVVAUF2WVg/viewform","339-545-1315","","","NA_Mutual_Aid_Networks.csv",,"2020-04-01"
"Berkshires Volunteer Network","","https://docs.google.com/forms/d/e/1FAIpQLScGcjpSJ99GmDLpbPfU4GGnbhrP7aMNchf519qsciP2KK_YOg/viewform","","Otis, MA",,,,"USA","","","","","","","NA_Mutual_Aid_Networks.csv",,"2020-04-01"
"Revere Mutual Aid","","https://docs.google.com/document/d/1SkHedKaWDfjbNRjKViCuOBzUXLPTbiGFsKqNck-hDG4/edit","","Revere, MA",,,,"USA","","","","","","","NA_Mutual_Aid_Networks.csv",,"2020-04-01"
"South Shore Mutual Aid","","www.southshoremutualaid.com","https://www.facebook.com/southshoremutualaid","Rockland, MA",,,,"USA","","https://docs.google.com/spreadsheets/d/1ZAoM5mCx2gq87gqSQ45kAJWH6cYgXOl19-Y10iTyP1Y/edit?usp=sharing","https://docs.google.com/forms/d/e/1FAIpQLSe7My4I2fvKg95LXURp3i_XwS3PluoS4pi3sKfX021_mLtKEQ/viewform","","","","NA_Mutual_Aid_Networks.csv",,"2020-04-01"
"Salem Together","","https://www.salem.com/home/pages/salem-together","","Salem, MA",,,,"USA","","https://docs.google.com/forms/d/e/1FAIpQLScX-VuYGomAH8cGpHVG9GTrfxnw6MRzY9jP0eWMCizV_TQBdg/viewform","https://docs.google.com/forms/d/e/1FAIpQLSfiCP5d8G64JB1mHY3i5-WoELlH2i_wCWBF1eQH1-M515L8qA/viewform","","","","NA_Mutual_Aid_Networks.csv",,"2020-04-01"
"South End Coronavirus Support (Need help) // Ayuda para Coronavirus en el South End (Necesita ayuda/Quiere ayudar)","","https://docs.google.com/forms/d/e/1FAIpQLScPcSJVwtvjT_rHVC0h-_0scMC1DOuolWUX1LmnPiksAz3UEw/viewform","","South Boston, MA",,,,"USA","","","","","","","NA_Mutual_Aid_Networks.csv",,"2020-04-01"
"Mutual Aid Waltham","","https://docs.google.com/document/d/1JO5HsAb2GYWxEJKkF9yj4aMTmosfBghPEMi_fgdnAUI/edit","","Waltham, MA",,,,"USA","","https://docs.google.com/spreadsheets/d/1MecqUPas8qdDj36X0Ko1GqkNw_JMBSEzYM0JFqR_Fhw/edit?usp=drivesdk","https://docs.google.com/forms/d/e/1FAIpQLSeEJyc26_tVVzVSZzER6TXd8jNrQvclVlcxNSYWIf12Y7Z6qg/viewform","","","","NA_Mutual_Aid_Networks.csv",,"2020-04-01"
"Massachusetts / Worcester: Mutual Aid Worcester","FacebookMutualAid","https://www.facebook.com/groups/2845124148890444/?ref=share","https://www.facebook.com/groups/2845124148890444/?ref=share","Worcester, MA",,,,"USA","","","","","","","NA_Mutual_Aid_Networks.csv",,"2020-04-01"
"Tenants and Housing Association of Worcester","","https://twitter.com/worcesterthaw","https://twitter.com/worcesterthaw","Worcester, MA",,,,"USA","","","","","","","NA_Mutual_Aid_Networks.csv",,"2020-04-01"
"Mutual Aid Worcester","","https://mutualaidworcester.org/","https://www.facebook.com/groups/MutualAidWorcester/","Worchester, MA",,,,"USA","","https://docs.google.com/forms/d/e/1FAIpQLScJgB-SX-mgj2mC8d1Gl0VkPBLeDp0Y6VBpLY5EqZRHsjP5pA/viewform?fbclid=IwAR0Gc2QkwajTPZ8pcFqoKvMuHRLeZL3LxfY47q3IfAgfP4lHK57U9nYMP44","https://docs.google.com/forms/d/e/1FAIpQLScNHqSGJP_JINPubCMwzp_DTDCHlMYusYJ0GZpJCPc8vU8wgg/viewform?fbclid=IwAR0HYxLu0_t3Th0Jpe9L-aDLG_ILr_mbu-X9wIIS6TQOXYw7p36_t145k4c","","","","NA_Mutual_Aid_Networks.csv",,"2020-04-01"
"350 MA & Friends COVID-19 Mutual Aid Needs/Offerings Form","","https://docs.google.com/forms/d/e/1FAIpQLSch5YoXLpT-mfRmYyocdCYJ98flZOK2WFOhhe_khamR-Uv-Eg/viewform","","MA",,,,"USA","","","","","","","NA_Mutual_Aid_Networks.csv",,"2020-04-01"
"Cambridge Mutual Aid Network","","http://www.cambridgemutualaid.info","https://www.facebook.com/groups/CambridgeMutualAid/","Cambridge, MA",,,,"USA","","https://www.cambridgemutualaid.info/need-support","https://www.cambridgemutualaid.info/volunteer","","","","NA_Mutual_Aid_Networks.csv",,"2020-04-01"
"Central Massachusetts Volunteer Aid","","https://docs.google.com/spreadsheets/d/1zxROWAwwaT3LzHqXbhVjMdya_vZq78T9MdCvn1sySr4/edit?fbclid=IwAR3g_ei3dHe-HXLFNMTj-iNGgiWsEI8RXJMIgJYylHKZ0t24tsZondUUFfY#gid=0","https://www.facebook.com/Samuel-Biagetti-for-State-Rep-106054911034700","North Brookfield, MA",,,,"USA","","","https://docs.google.com/spreadsheets/d/1zxROWAwwaT3LzHqXbhVjMdya_vZq78T9MdCvn1sySr4/edit?fbclid=IwAR3g_ei3dHe-HXLFNMTj-iNGgiWsEI8RXJMIgJYylHKZ0t24tsZondUUFfY#gid=0","","","","NA_Mutual_Aid_Networks.csv",,"2020-04-01"
"Concord-Carlisle Mutual Aid","","https://docs.google.com/document/d/1sSUbzdDiSF5_SErmdAQ56S2HoTXlD4WH179lWDm6hXw/edit?usp=sharing","","Carlisle, MA",,,,"USA","","","","","","","NA_Mutual_Aid_Networks.csv",,"2020-04-01"
"Mutual Aid Natick","","https://docs.google.com/spreadsheets/d/16OTVLbBRoE25uemoJuSAa8HvHtQjGkDs8mYBqKYHqLo/edit#gid=1727309836","https://nextdoor.com/g/up7wzouys/","Natick, MA",,,,"USA","","","","","","","NA_Mutual_Aid_Networks.csv",,"2020-04-01"
"Headwaters Neighborhood Mutual Aid","","https://bit.ly/headwatersma","https://bit.ly/headwatersma","Harwich, MA",,,,"USA","","","","","","","NA_Mutual_Aid_Networks.csv",,"2020-04-01"
"Charles River Mutual Aid Program","","https://crmutualaid.com/","","Boston, MA",,,,"USA","","https://forms.gle/BsuShvyQSX24ksDdA","https://forms.gle/ZD93XMMiNZmo6Rg17","","","","NA_Mutual_Aid_Networks.csv",,"2020-04-01"
"Mutual Aid Natick","","https://mutualaidnatick.org/","https://www.facebook.com/mutualaidnatick/?eid=ARD3GHyXHeOZa7P8Z7a_-CmV8zeWI5DHhhnnUgpw2FYYgfo2snrpps3CIfKFVHaPqcgi27rjuWfecXS0","Natick, MA",,,,"USA","","","","","","","NA_Mutual_Aid_Networks.csv",,"2020-04-01"
"Maryland / Baltimore: Mutual Aid and Emergency Relief Fund","FacebookMutualAid","https://www.facebook.com/donate/201582851152373/?fundraiser_source=external_url","https://www.facebook.com/donate/201582851152373/?fundraiser_source=external_url","Baltimore, MD",,,,"USA","","","","","","","NA_Mutual_Aid_Networks.csv",,"2020-04-01"
"Maryland / Baltimore: Neighbors Helping Neighbors (Southeast Baltimore) / Vecinos Ayudando a Vecinos (Sureste de Baltimore)","","https://docs.google.com/forms/d/e/1FAIpQLSfilQYzpjxkZNBvWbEicDhFjLzt-YuXxWhSTy3KVDL5TQe7Dg/viewform","","Southeast Baltimore, Baltimore, MD",,,,"USA","","","","","","","NA_Mutual_Aid_Networks.csv",,"2020-04-01"
"Baltimore Neighborhood Quarantine Response Teams","InformationSite","https://docs.google.com/document/d/1G5JcyxmywcTdNeaSGxUNycl9mtCdGkF4MYPVxEBH4SY/edit","","Baltimore, MD",,,,"USA","","","","","","","NA_Mutual_Aid_Networks.csv",,"2020-04-01"
"Maryland / Baltimore: Alanah’s COVID-19 Emergency Fund for Artists and Freelancers","","https://docs.google.com/forms/d/e/1FAIpQLSfXQfPti1mE5TT8qDjd_DzxkIiG1jPT5BhYcgdFehVTvibZCQ/viewform","","Baltimore, MD",,,,"USA","","","","","","","NA_Mutual_Aid_Networks.csv",,"2020-04-01"
"Maryland / Baltimore: COVID-19 Community Resources","","https://docs.google.com/document/d/1nNPyX4fKk6S6vEU2-VdFrZQvtoqr8ZVUD7eyTT1cetU/edit","","Baltimore, MD",,,,"USA","","","","","","","NA_Mutual_Aid_Networks.csv",,"2020-04-01"
"Baltimore Mutual Aid Network","FacebookMutualAid","https://www.facebook.com/bmoremutualaid/","https://www.facebook.com/bmoremutualaid/","Baltimore, MD",,,,"USA","","https://docs.google.com/forms/d/e/1FAIpQLSc1BiJPX7b_KamyFgqIhpT5I2SUqWi2sGwK0NJaLhxs-JHWIw/viewform","https://docs.google.com/forms/d/e/1FAIpQLSc1BiJPX7b_KamyFgqIhpT5I2SUqWi2sGwK0NJaLhxs-JHWIw/viewform","","","","NA_Mutual_Aid_Networks.csv",,"2020-04-01"
"Food Rescue Baltimore","FacebookMutualAid","https://www.facebook.com/foodrescueday/","https://www.facebook.com/foodrescueday/","Baltimore, MD",,,,"USA","","","","","","","NA_Mutual_Aid_Networks.csv",,"2020-04-01"
"Baltimore Health Professionals Mutual Aid Cooperative","","https://docs.google.com/forms/d/e/1FAIpQLScSleD7Cvv04tJ2GWGfmQue_3WO4ncHHiEuuhgB7fSaKDSqpg/viewform","","Baltimore, MD",,,,"USA","","","","","","","NA_Mutual_Aid_Networks.csv",,"2020-04-01"
"Knollwood Neighborhood Covid-19 Response","","https://docs.google.com/forms/d/e/1FAIpQLSeKfWok4FoQHJRXlmUEiaqtne7eOfuYWnrv69O4WX5e39jzYw/viewform?fbclid=IwAR33STBwrAQMZeHHT_5Obmy7HUVkTBHmg1G45bmgeTHZaR3hkNpRJlzTX2I","","Knollwood, Baltimore, MD",,,,"USA","","","","","","","NA_Mutual_Aid_Networks.csv",,"2020-04-01"
"Community Resources N. Calvert Southern Anne Arundel County","FacebookMutualAid","https://www.facebook.com/groups/1364487107085861","https://www.facebook.com/groups/1364487107085861","Dunkirk, MD",,,,"USA","","","","","","","NA_Mutual_Aid_Networks.csv",,"2020-04-01"
"United Way of Central Maryland Covid 19 Support","","https://www.uwcm.org/main/","https://www.facebook.com/unitedwayofcentralMD","Central Maryland, Frederick, MD",,,,"USA","","","","","","","NA_Mutual_Aid_Networks.csv",,"2020-04-01"
"Fredrick MD-Covid-19 Supply Exchange","FacebookMutualAid","https://www.facebook.com/groups/1083433605349760/about/","https://www.facebook.com/groups/1083433605349760/about/","Fredrick, MD",,,,"USA","","","","","","","NA_Mutual_Aid_Networks.csv",,"2020-04-01"
"Supporting Frederick, Maryland Small Businesses Through Covid-19","FacebookMutualAid","https://www.facebook.com/groups/FrederickCoronaResponse/?ref=br_rs","https://www.facebook.com/groups/FrederickCoronaResponse/?ref=br_rs","Fredrick, MD",,,,"USA","","","","","","","NA_Mutual_Aid_Networks.csv",,"2020-04-01"
"Maryland / Alleghany County: Western MD Meal Response Program","FacebookMutualAid","https://www.facebook.com/groups/2841150659293795/?ref=share","https://www.facebook.com/groups/2841150659293795/?ref=share","Frostburg, MD",,,,"USA","","","","","","","NA_Mutual_Aid_Networks.csv",,"2020-04-01"
"Communities Unbreakable Rockville","","http://unbreakable.community/","","Rockville, MD",,,,"USA","","https://airtable.com/shroTqIywbBQoIbuk","https://airtable.com/shrUnijBFFmXknsbk","","","","NA_Mutual_Aid_Networks.csv",,"2020-04-01"
"Takoma Park Coronavirus Community Service Response","","https://takomaccsr.org","https://www.facebook.com/TakomaCCSR/?modal=admin_todo_tour","Takoma Park, MD",,,,"USA","","","","","","","NA_Mutual_Aid_Networks.csv",,"2020-04-01"
"Covid-19 CommunityConnect Ways to Help","","https://businessvolunteersmd.org/waystohelp/","","MD",,,,"USA","","","","","","","NA_Mutual_Aid_Networks.csv",,"2020-04-01"
"QAC Neighbors Helping Neighbors","FacebookMutualAid","https://www.facebook.com/groups/2988152084539331/","https://www.facebook.com/groups/2988152084539331/","Stevensville, MD",,,,"USA","","","","","","","NA_Mutual_Aid_Networks.csv",,"2020-04-01"
"Good Neighbor Network - Bethesda","","https://www.churchinbethesda.org/gnn","","Bethesda, MD",,,,"USA","","","","","","","NA_Mutual_Aid_Networks.csv",,"2020-04-01"
"COVID-19 Volunteer Network - Paradise","","https://docs.google.com/forms/d/e/1FAIpQLScdWWep2Oo0p1kCX7bNCKuyhNAUTuya2MtECtg3432qvibbBg/viewform","","Paradise, Catonsville, MD",,,,"USA","","","","","","","NA_Mutual_Aid_Networks.csv",,"2020-04-01"
"Capital Area Food Bank COVID-19 Response","","https://www.capitalareafoodbank.org/covid19response/","","MD",,,,"USA","","","","","","","NA_Mutual_Aid_Networks.csv",,"2020-04-01"
"Meal on Wheels of Takoma Park","","https://www.mowtakoma.org/","","Takoma Park, MD",,,,"USA","","","","","","","NA_Mutual_Aid_Networks.csv",,"2020-04-01"
"Manna Covid-19 Response","","https://www.mannafood.org/covidresponse/","","Montgomery County, MD",,,,"USA","","https://docs.google.com/forms/d/e/1FAIpQLSf-mxJKp3iw1-bPUDV1Kx7OaQtndOT7avczbJooDG4qltMpQA/viewform","","","","","NA_Mutual_Aid_Networks.csv",,"2020-04-01"
"Montgomery County Food Bank","","https://mcfoodbank.org/mcfb-response-to-covid-19/","","Montgomery County, MD",,,,"USA","","","","","","","NA_Mutual_Aid_Networks.csv",,"2020-04-01"
"Senior Connection","","https://www.seniorconnectionmc.org/our-programs/pantryfillers/","","Montgomery County, Silver Spring, MD",,,,"USA","","","","","","","NA_Mutual_Aid_Networks.csv",,"2020-04-01"
"Portland Mutual Aid","","https://docs.google.com/spreadsheets/d/1HYF1LMXfAQu6w2P_Zdp0s18EfE87ACPgg3-vuYfpPOA/edit?fbclid=IwAR01LKG9CDFUrsV-2NwghAx9VTD80dx4JKXMoUlGwmB4NExe-IHEhdp2LdQ#gid=296519225","","Portland, ME",,,,"USA","","","","","","","NA_Mutual_Aid_Networks.csv",,"2020-04-01"
"Mainers Together","","https://mainerstogether.com/","","ME",,,,"USA","","","","","","","NA_Mutual_Aid_Networks.csv",,"2020-04-01"
"Midcoast Maine Helpers","FacebookMutualAid","https://www.facebook.com/groups/631981134013798/","https://www.facebook.com/groups/631981134013798/","Newcastle, ME",,,,"USA","","","","","","","NA_Mutual_Aid_Networks.csv",,"2020-04-01"
"Mutual Aid Maine","FacebookMutualAid","https://www.facebook.com/pg/MutualAidMaine/about/?ref=page_internal","https://www.facebook.com/pg/MutualAidMaine/about/?ref=page_internal","Portland, ME",,,,"USA","","","","","","","NA_Mutual_Aid_Networks.csv",,"2020-04-01"
"Midcoast Collective Care","FacebookMutualAid","https://www.facebook.com/groups/517135442496135/","https://www.facebook.com/groups/517135442496135/","Rockland, ME",,,,"USA","","","","","","","NA_Mutual_Aid_Networks.csv",,"2020-04-01"
"Maine / Maine Coronavirus Community Assistance","FacebookMutualAid","https://www.facebook.com/groups/mainecoronaviruscommunityassistance/?ref=share","https://www.facebook.com/groups/mainecoronaviruscommunityassistance/?ref=share","ME",,,,"USA","","","","","","","NA_Mutual_Aid_Networks.csv",,"2020-04-01"
"Maine COVID-19 Resources","","https://docs.google.com/document/d/1adYdqIA_VXgyYW07nfmLZKAN3KZHBGrI-SyFVN8Mecw/mobilebasic","","ME",,,,"USA","","","","","","","NA_Mutual_Aid_Networks.csv",,"2020-04-01"
"Hallowell All Age-Friendly Committee","","http://age-friendly-hallowell.org","","Hallowell, ME",,,,"USA","","","","","","","NA_Mutual_Aid_Networks.csv",,"2020-04-01"
"Huron Valley COVID-19 Mutual Aid Form - Formulario de ayuda mutua","","https://docs.google.com/forms/d/e/1FAIpQLSdhW2voPOll9Jmy_QR0AXk1Pge1JGn3tByJ-SlPfKNsMjcHLg/viewform","https://www.facebook.com/groups/2424471741198383/?ref=share","Ann Arbor, MI",,,,"USA","","","","","","","NA_Mutual_Aid_Networks.csv",,"2020-04-01"
"Metro Detroit COVID-19 Support","FacebookMutualAid","https://www.facebook.com/groups/2554127328195074/","https://www.facebook.com/groups/2554127328195074/","Detroit, MI",,,,"USA","","","","","","","NA_Mutual_Aid_Networks.csv",,"2020-04-01"
"Michigan / Grand Rapids Area: COVID-19 Mutual Aid Form","","https://docs.google.com/forms/d/e/1FAIpQLSfE599iT3ERP64rcKgxRzRRVI_1P8mhyJsIZjWjTwDvTV9_nA/viewform","https://www.facebook.com/GRAMutAid/","Grand Rapids, MI",,,,"USA","","","","","","","NA_Mutual_Aid_Networks.csv",,"2020-04-01"
"Michigan / Kalamazoo: Kzoo Covid-19 Mutual Aid List","","https://docs.google.com/forms/d/e/1FAIpQLSeW-Dmt_Z_QPu81ad0jo5gs4vjx2zREupOmdoLnn2JBntapGg/viewform","https://www.facebook.com/groups/225779971877883/?ref=search","Kalamazoo, MI",,,,"USA","","","","","","","NA_Mutual_Aid_Networks.csv",,"2020-04-01"
"West Michigan Mutual Aid Network","FacebookMutualAid","https://www.facebook.com/groups/1346856708847856/?ref=br_rs","https://www.facebook.com/groups/1346856708847856/?ref=br_rs","Kalamazoo, MI",,,,"USA","","","","","","","NA_Mutual_Aid_Networks.csv",,"2020-04-01"
"Kalamazoo Area Mutual Aid Network","FacebookMutualAid","https://www.facebook.com/groups/226836875170785/?ref=br_rs","https://www.facebook.com/groups/226836875170785/?ref=br_rs","Kalamazoo, MI",,,,"USA","","","","","","","NA_Mutual_Aid_Networks.csv",,"2020-04-01"
"Michigan / Lansing: Lansing MI Mutual Aid Offerings for COVID-19","","https://docs.google.com/forms/d/13GlyPG8gzXnI3Ksm_MpKJ4B2dz44zs2kqgTZlGqEVck/edit","","Lansing, MI",,,,"USA","","https://docs.google.com/forms/d/13GlyPG8gzXnI3Ksm_MpKJ4B2dz44zs2kqgTZlGqEVck/edit","https://docs.google.com/forms/d/e/1FAIpQLSdRUr-kqGbHiiAKpqWXh_urwD0ZOd8bXC22vtLhqUxMdTNjeQ/viewform","","","","NA_Mutual_Aid_Networks.csv",,"2020-04-01"
"Michigan / Detroit: Southwest Detroit COVID-19 Mutual Aid Form / Formulario de Ayuda Mutua","FacebookMutualAid","https://www.facebook.com/groups/2554127328195074/","https://www.facebook.com/groups/2554127328195074/","Southwest Detroit, MI",,,,"USA","","","https://docs.google.com/forms/d/e/1FAIpQLSdrdIvdO3AHzCJBXloy-KExxQabrMUSbr_xgo4Y9NBI-GHnTA/viewform","","","","NA_Mutual_Aid_Networks.csv",,"2020-04-01"
"Northwest Michigan Mutual Aid","FacebookMutualAid","https://www.facebook.com/groups/michiganmutualaid/?ref=br_rs","https://www.facebook.com/groups/michiganmutualaid/?ref=br_rs","Traverse City, MI",,,,"USA","","","","","","","NA_Mutual_Aid_Networks.csv",,"2020-04-01"
"Bay Mills Mutual Aid Sheet","","https://docs.google.com/spreadsheets/u/1/d/1CduPghNgY92MufdZDoYjkcjmbYp-l_43EQPRhxlmVPU/htmlview?fbclid=IwAR0tCQI5Av8UgCe5XVcW_cb9TQarlhFoiJO4LcU90FF39JEnNic7F3FrnMc#","","Bay Mills, MI",,,,"USA","","","","(906) 248-8369","","","NA_Mutual_Aid_Networks.csv",,"2020-04-01"
"Antrim County Mutual Aid","FacebookMutualAid","https://www.facebook.com/groups/2228122717494765","https://www.facebook.com/groups/2228122717494765","Bellaire, MI",,,,"USA","","https://docs.google.com/forms/d/e/1FAIpQLSckdiDnfMenlqmraSxU7PjKi3M1GWK66E5GQsWnBIfd79Zx-A/viewform","https://docs.google.com/forms/d/e/1FAIpQLSckdiDnfMenlqmraSxU7PjKi3M1GWK66E5GQsWnBIfd79Zx-A/viewform","","","","NA_Mutual_Aid_Networks.csv",,"2020-04-01"
"Benzie County - COVID19 Resources & Needs","","https://docs.google.com/document/d/1FYcqcbY2qMuuy75GIIM9UuqvFR_-YlVKfFcrqJOy9mw/edit?fbclid=IwAR1Lfd0mZrm4GgqOwmcXAeJGnTLUEQ0wmooezGvgnVYjXvKEZT8EYPU2tUI","","Beulah, MI",,,,"USA","","","","","","","NA_Mutual_Aid_Networks.csv",,"2020-04-01"
"Charlevoix County Helping Hands","FacebookMutualAid","https://www.facebook.com/groups/696771177745067/about/","https://www.facebook.com/groups/696771177745067/about/","Charlevoix, MI",,,,"USA","","","","","","","NA_Mutual_Aid_Networks.csv",,"2020-04-01"
"Belleville Area Mutual Aid","FacebookMutualAid","https://www.facebook.com/groups/782044495654026/","https://www.facebook.com/groups/782044495654026/","Belleville, Detroit, MI",,,,"USA","","","","","","","NA_Mutual_Aid_Networks.csv",,"2020-04-01"
"Berkley Community Coronavirus Response","","https://docs.google.com/forms/d/e/1FAIpQLSeyTN_io9PSnyQPbt1jemgzI7Dgua4paaSea4EDdIrizg6znw/viewform","","Berkley, Detroit, MI",,,,"USA","","https://docs.google.com/forms/d/e/1FAIpQLSeyTN_io9PSnyQPbt1jemgzI7Dgua4paaSea4EDdIrizg6znw/viewform","https://docs.google.com/forms/d/e/1FAIpQLSeyTN_io9PSnyQPbt1jemgzI7Dgua4paaSea4EDdIrizg6znw/viewform","","","","NA_Mutual_Aid_Networks.csv",,"2020-04-01"
"Combating COVID-19 in Highland Park, MI (& Surrounding Communities)","FacebookMutualAid","https://www.facebook.com/groups/646455195924175/","https://www.facebook.com/groups/646455195924175/","Highland Park, Detroit, MI",,,,"USA","","https://docs.google.com/forms/d/e/1FAIpQLSfc15hrr6Fym_95gXA_drt18qrqZEKANTu0dgHI44BYfHL6tg/viewform","https://docs.google.com/forms/d/e/1FAIpQLSfc15hrr6Fym_95gXA_drt18qrqZEKANTu0dgHI44BYfHL6tg/viewform","","","","NA_Mutual_Aid_Networks.csv",,"2020-04-01"
"Detroit-based COVID-19 Mutual Aid","","https://docs.google.com/spreadsheets/d/1-m6QBgqejlk2h6uJ0WGkphZuZ5MR3-uWCkv2vSZcHY8/edit?fbclid=IwAR2dcKuYe-I787XJLyl2I6DtTrPMrfxTkdPRQT6VE59CdoykxNOBgMvGIHs#gid=1727309836","","Detroit, MI",,,,"USA","","","","","","","NA_Mutual_Aid_Networks.csv",,"2020-04-01"
"Metro Detroit COVID-19 Support","FacebookMutualAid","https://www.facebook.com/groups/2554127328195074/","https://www.facebook.com/groups/2554127328195074/","Detroit, MI",,,,"USA","","","","","","","NA_Mutual_Aid_Networks.csv",,"2020-04-01"
"Washtenaw County Mutual Aid Resources","FacebookMutualAid","https://www.facebook.com/groups/2424471741198383/?ref=share","https://www.facebook.com/groups/2424471741198383/?ref=share","Washtenaw County, MI",,,,"USA","","https://docs.google.com/forms/d/e/1FAIpQLSdhW2voPOll9Jmy_QR0AXk1Pge1JGn3tByJ-SlPfKNsMjcHLg/viewform","https://docs.google.com/forms/d/e/1FAIpQLSdhW2voPOll9Jmy_QR0AXk1Pge1JGn3tByJ-SlPfKNsMjcHLg/viewform","","","","NA_Mutual_Aid_Networks.csv",,"2020-04-01"
"Oakland County COVID Response","","https://www.mycovidresponse.org/","","Detroit, MI",,,,"USA","","https://www.mycovidresponse.org/signup/","https://www.mycovidresponse.org/signup/","","","","NA_Mutual_Aid_Networks.csv",,"2020-04-01"
"Shelby Township Utica Resiliency Network MI","FacebookMutualAid","https://www.facebook.com/groups/1849304025203614/about","https://www.facebook.com/groups/1849304025203614/about","Shelby Township, Detroit, MI",,,,"USA","","","https://docs.google.com/forms/d/e/1FAIpQLSd0Cm7qZgrsijamUOCNAw431lKBEH5TRBfUSzAyM9L9JEPPsA/viewform","586-991-1303","","","NA_Mutual_Aid_Networks.csv",,"2020-04-01"
"SWMI Mutual Aid","FacebookMutualAid","https://www.facebook.com/groups/3137606989603526/","https://www.facebook.com/groups/3137606989603526/","Dowagiac, MI",,,,"USA","","","","","","","NA_Mutual_Aid_Networks.csv",,"2020-04-01"
"Grand Rapids Area Pandemic Resources","FacebookMutualAid","https://www.facebook.com/groups/209101217168617/","https://www.facebook.com/groups/209101217168617/","Grand Rapids, MI",,,,"USA","","https://docs.google.com/forms/d/18YmQ6_kHv_Nw4go9NByNmI8PkmLq7NC7favSK-3PoyM/viewform?fbclid=IwAR2WgtKrfNYTCohrtNRx0V8mnduY7De8AtROvAYZlfGJn4tOkXVOEeRqj1I&edit_requested=true","https://docs.google.com/forms/d/1tVSwz0xYnrDJEjk3MWU32eS6q0eE5TSA0jOUL-frKcA/viewform?ts=5e766a19&fbclid=IwAR0Od69ftV6DJlqNpr_6knR6SQexBbZyodz2Mgi3k_C9HbNU318hTEJZGa4&edit_requested=true#responses","","","","NA_Mutual_Aid_Networks.csv",,"2020-04-01"
"Kalkaska Response Team","","https://elizabethannedunha.wixsite.com/kalkaskaresponseteam?fbclid=IwAR09WdGWtqzgC63_kaaN4ZoZvah4hTM521lOy_HvOnYw_PEfM0eG3BMAWQE","","Kalkaska, MI",,,,"USA","","https://docs.google.com/forms/d/e/1FAIpQLSfvicU65rR5VWQ_OkKGT8tkFEm-z03JxI6G4ux4pv9_rV1Inw/viewform","https://docs.google.com/forms/d/e/1FAIpQLSeEvhATd4ysgCLQjdmFUwT8ObkjcHIoPqoVOOuE08-ardDw0Q/viewform?fbclid=IwAR3g4LMGOjI66sK7Xt1tiMnumIPe3bTszF3cmf5cSyswZr44gTc-SEGCC-w","","","","NA_Mutual_Aid_Networks.csv",,"2020-04-01"
"Leoni Township Mutual Aid Society COVID-19","FacebookMutualAid","https://www.facebook.com/groups/144130126892991/","https://www.facebook.com/groups/144130126892991/","Leoni, MI",,,,"USA","","","","","","","NA_Mutual_Aid_Networks.csv",,"2020-04-01"
"Emmet Couny Helping Hands","FacebookMutualAid","https://www.facebook.com/groups/234362584615594/","https://www.facebook.com/groups/234362584615594/","Petoskey, MI",,,,"USA","","https://docs.google.com/spreadsheets/d/1j3VAbHGdIKKP2-2poHX-hUABdu3NIm7eLjbw-NwjTQs/edit?fbclid=IwAR1iHvpz7tt5_dPvvMGhEMx-RtAby_wLw12oUBVuQm-3rmg2UncgDoxVfXo#gid=0","https://docs.google.com/forms/d/e/1FAIpQLSc1HSE7-la427QVGIDV27an6QaK7rNA-oSwRjv5YWingpbrJA/viewform?fbclid=IwAR3wHmqwTou2MRW1e6kg_y6wcSRr8ncyt245ssz_-gaSvVrtgB-n_eQAiX4","","","","NA_Mutual_Aid_Networks.csv",,"2020-04-01"
"Pontiac Coronavirus Emergency Relief Food/Supplies","","https://www.signupgenius.com/go/30e0b48aaa628a13-drive","","Pontiac, MI",,,,"USA","","","https://www.signupgenius.com/go/30e0b48aaa628a13-drive","","","","NA_Mutual_Aid_Networks.csv",,"2020-04-01"
"Grand Traverse County Mutual Aid","","https://docs.google.com/forms/d/e/1FAIpQLScfSUoYchrIXnzTCdDIwsM-2YGa04XzTLE6xU5SGezE6rI1OA/viewform","","Traverse City, MI",,,,"USA","","https://docs.google.com/forms/d/e/1FAIpQLScfSUoYchrIXnzTCdDIwsM-2YGa04XzTLE6xU5SGezE6rI1OA/viewform","https://docs.google.com/forms/d/e/1FAIpQLScfSUoYchrIXnzTCdDIwsM-2YGa04XzTLE6xU5SGezE6rI1OA/viewform","","","","NA_Mutual_Aid_Networks.csv",,"2020-04-01"
"Mutual Aid of North West Michigan","FacebookMutualAid","https://www.facebook.com/groups/784134155443201/?hc_location=ufi","https://www.facebook.com/groups/784134155443201/?hc_location=ufi","Traverse City, MI",,,,"USA","","","","","","","NA_Mutual_Aid_Networks.csv",,"2020-04-01"
"The Mutual Aid Network of Ypsilanti (MANY)","FacebookMutualAid","https://www.facebook.com/ypsimutualaid/","https://www.facebook.com/ypsimutualaid/","Ypsilanti, MI",,,,"USA","","","","","","","NA_Mutual_Aid_Networks.csv",,"2020-04-01"
"Logan Park/ NE Community Care/ Mutual Aid -- COVID 19","","https://docs.google.com/spreadsheets/u/0/d/1boWmyIgW0UxZtmGF0hLPUq-V4U_aKZS27IJrTwTkAzE/htmlview#gid=0","","Minneanapolis, MN",,,,"USA","","","","","","","NA_Mutual_Aid_Networks.csv",,"2020-04-01"
"South Minneapolis Mutual Aid","","https://docs.google.com/spreadsheets/d/1ZSLDZY4DD85gnGXTAeLtKCxofdOHRcX4zYWAQf7A_GU/htmlview","","Minneapolis, MN",,,,"USA","","https://docs.google.com/spreadsheets/d/1ZSLDZY4DD85gnGXTAeLtKCxofdOHRcX4zYWAQf7A_GU/edit#gid=551919439","https://docs.google.com/spreadsheets/d/1ZSLDZY4DD85gnGXTAeLtKCxofdOHRcX4zYWAQf7A_GU/edit#gid=551919439","","","","NA_Mutual_Aid_Networks.csv",,"2020-04-01"
"Northeast Minneapolis Mutual Aid -- COVID 19","","https://docs.google.com/spreadsheets/d/1vQjapmFHqD7YoopXZhZ9_th36qFMHitWxjoOKe3v4bU/edit#gid=0","","Minneapolis, MN",,,,"USA","","https://docs.google.com/spreadsheets/d/1vQjapmFHqD7YoopXZhZ9_th36qFMHitWxjoOKe3v4bU/edit#gid=729553770","https://docs.google.com/spreadsheets/d/1vQjapmFHqD7YoopXZhZ9_th36qFMHitWxjoOKe3v4bU/edit#gid=551919439","","","","NA_Mutual_Aid_Networks.csv",,"2020-04-01"
"Twin Cities Mutual Aid","","https://docs.google.com/document/d/177tyL6xNVsyQWvttbMWg8QE-Gl4-qfnfsd7s4V8QXAM/edit?usp=sharing","","Minneapolis, MN",,,,"USA","","","","","","","NA_Mutual_Aid_Networks.csv",,"2020-04-01"
"Twin Cities Logistics Collective","","https://www.twincitieslogistics.org/","","Minneapolis, MN",,,,"USA","","","","","","","NA_Mutual_Aid_Networks.csv",,"2020-04-01"
"Minnesota / Minneapolis–Saint Paul: Twin Cities Queer and Trans Mutual Aid","","https://docs.google.com/forms/d/e/1FAIpQLSdAlOLU9hOKMjwX4W2sQKF69FAF3ow_fSPzjKC67_iyYDRLaQ/viewform","","Minneapolis/St. Paul, MN",,,,"USA","","https://docs.google.com/forms/d/e/1FAIpQLSdAlOLU9hOKMjwX4W2sQKF69FAF3ow_fSPzjKC67_iyYDRLaQ/viewform","","","","","NA_Mutual_Aid_Networks.csv",,"2020-04-01"
"Frogtown-Rondo Mutual Aid","","https://docs.google.com/forms/d/e/1FAIpQLSedTz2tat3qEx5YPpPjU4mTGskPkMredQGSuYIFUh5EVLDrMQ/viewform","https://www.facebook.com/groups/252741219087991/?ref=share","Frogtown-Rondo, St Paul, MN",,,,"USA","","","","","","","NA_Mutual_Aid_Networks.csv",,"2020-04-01"
"West St. Paul/West Side Mutual Aid -- COVID 19","","https://docs.google.com/spreadsheets/d/1cgOjeFz1QEBmDaFnbmE0ghL8sJV6-kkNokOReCYgmGs/edit#gid=1056426301","","St. Paul, MN",,,,"USA","","https://docs.google.com/spreadsheets/d/1cgOjeFz1QEBmDaFnbmE0ghL8sJV6-kkNokOReCYgmGs/edit#gid=1056426301","https://docs.google.com/spreadsheets/d/1cgOjeFz1QEBmDaFnbmE0ghL8sJV6-kkNokOReCYgmGs/edit#gid=1056426301","","","","NA_Mutual_Aid_Networks.csv",,"2020-04-01"
"Sheridan Support Network","","https://www.sheridanneighborhood.org/news/sheridan-support-network-for-covid-19","https://www.facebook.com/snompls/","Sheridan Neighborhood (NE Minneapolis), Minneapolis, MN",,,,"USA","","https://forms.gle/bWdZGbzLE2vJE5387","https://forms.gle/bWdZGbzLE2vJE5387","","","","NA_Mutual_Aid_Networks.csv",,"2020-04-01"
"North Minneapolis Mutual Aid","","https://docs.google.com/spreadsheets/d/1564JNEtSnynYC-20-ol-wbKnmW4YVcsUi_BGZb7gSKI/edit#gid=0","","North Minneapolis, Minneapolis, MN",,,,"USA","","","","","","","NA_Mutual_Aid_Networks.csv",,"2020-04-01"
"St. Paul Neighborhoods Mutual Aid -- COVID-19","","https://docs.google.com/spreadsheets/d/1B4AcGV5pDROT2NON5a8PAJMy3V5K5Pbd2pNwdKd66DY","","St. Paul, MN",,,,"USA","","","","","","","NA_Mutual_Aid_Networks.csv",,"2020-04-01"
"West St. Paul/West Side Mutual Aid -- COVID 19","","https://docs.google.com/spreadsheets/d/1cgOjeFz1QEBmDaFnbmE0ghL8sJV6-kkNokOReCYgmGs/edit#gid=1056426301","","West St. Paul, St. Paul, MN",,,,"USA","","","","","","","NA_Mutual_Aid_Networks.csv",,"2020-04-01"
"Lind-Bohanon Mutual Aid Network","","https://docs.google.com/spreadsheets/d/1x9HAwKk_3j_oJ6UIobXnauto39Cqudw-ri2HhGbCCnk/edit#gid=0","","Lind-Bohanon, Minneapolis, MN",,,,"USA","","","","","","","NA_Mutual_Aid_Networks.csv",,"2020-04-01"
"Wedge Neighbors","","https://www.thewedge.org/covid.html","www.facebook.com/groups/wedgecares","Wedge / Lowry Hill East, Minneapolis, MN",,,,"USA","","https://forms.gle/3HdniLMDrh7dPZEL7","https://forms.gle/3HdniLMDrh7dPZEL7","","","","NA_Mutual_Aid_Networks.csv",,"2020-04-01"
"CoMo Mutual Aid COVID-19","FacebookMutualAid","https://www.facebook.com/CoMo-Mutual-Aid-108120220819881/","https://www.facebook.com/CoMo-Mutual-Aid-108120220819881/","Columbia, MO",,,,"USA","","https://docs.google.com/forms/d/e/1FAIpQLSdrccUDSnR_MsOsaqHc0yq4w9MnmJI34-GxQbIlIcbHumXlyA/viewform","https://docs.google.com/forms/d/e/1FAIpQLSei6e4PL2b2IhElw-PmY92wgn0hROhTZajZjRAkJ-cANcrmWQ/viewform","","","","NA_Mutual_Aid_Networks.csv",,"2020-04-01"
"Kansas City Mutual Aid FB Group","FacebookMutualAid","https://www.facebook.com/groups/1596299170524391/?fref=mentions","https://www.facebook.com/groups/1596299170524391/?fref=mentions","Kansas City, MO",,,,"USA","","","","","","","NA_Mutual_Aid_Networks.csv",,"2020-04-01"
"St. Louis Community Mutual Aid Group","","https://docs.google.com/document/u/0/d/1DnLlADsyUiGD2RugvE6k1AsBo-CsAA8MTr0-0VNEh3w/mobilebasic?fbclid=IwAR2DhobYUiThRwa-tDrMSLjs4EG3ZtDTaZVnaORysTXmSJMaZcpysICFq9w","","St. Louis, MO",,,,"USA","","","","","","","NA_Mutual_Aid_Networks.csv",,"2020-04-01"
"Mississippi Gulf Coast Mutual Aid Network","","https://docs.google.com/spreadsheets/d/1JnEIIWFOH9H4yijk3V_NKWlhCJVfB9eYwpmLMpLXdi4","","Biloxi, MS",,,,"USA","","https://docs.google.com/spreadsheets/d/1JnEIIWFOH9H4yijk3V_NKWlhCJVfB9eYwpmLMpLXdi4","https://docs.google.com/spreadsheets/d/1JnEIIWFOH9H4yijk3V_NKWlhCJVfB9eYwpmLMpLXdi4","","","","NA_Mutual_Aid_Networks.csv",,"2020-04-01"
"DeSoto County Mutual Aid","FacebookMutualAid","https://www.facebook.com/groups/3470601999621221/","https://www.facebook.com/groups/3470601999621221/","Hernando, MS",,,,"USA","","https://docs.google.com/forms/d/e/1FAIpQLSdtB2x9GXJJvvZ6_Yd5Xr3L0ZnMKOBOdphaNzfB4qlsRqb1rg/viewform","https://docs.google.com/forms/d/e/1FAIpQLSdtB2x9GXJJvvZ6_Yd5Xr3L0ZnMKOBOdphaNzfB4qlsRqb1rg/viewform","","","","NA_Mutual_Aid_Networks.csv",,"2020-04-01"
"Tupelo Mutual Aid Project","","http://tinyurl.com/TupeloMutualAid","","Tupelo, MS",,,,"USA","","","","","","","NA_Mutual_Aid_Networks.csv",,"2020-04-01"
"UMiss and LOU Community Mutual Aid","","https://docs.google.com/spreadsheets/d/1j6rfTv8nRLhQk0TregwulVwS2Cb2QormbT_qaGcaAYk/edit#gid=0","https://www.facebook.com/groups/240691276965300/?ref=share","Oxford, MS",,,,"USA","","","","","","","NA_Mutual_Aid_Networks.csv",,"2020-04-01"
"Mississippi Mutual Aid","FacebookMutualAid","https://www.facebook.com/groups/1406539106185829/about/","https://www.facebook.com/groups/1406539106185829/about/","Jackson, MS",,,,"USA","","","","","","","NA_Mutual_Aid_Networks.csv",,"2020-04-01"
"Mississippi Covid 19 Mutual Aid Group","FacebookMutualAid","https://www.facebook.com/pg/Mississippi-Covid-19-Mutual-Aid-Group-107422974233359/about/?ref=page_internal","https://www.facebook.com/pg/Mississippi-Covid-19-Mutual-Aid-Group-107422974233359/about/?ref=page_internal","Jackson, MS",,,,"USA","","","","","","","NA_Mutual_Aid_Networks.csv",,"2020-04-01"
"Montana / Bozeman: Bozeman Solidarity and COVID-19","","https://bozemandsa.org/2020/03/14/bozeman-solidarity-and-covid-2019/","","Bozeman, MT",,,,"USA","","","https://form.jotform.com/200796915331053","","","","NA_Mutual_Aid_Networks.csv",,"2020-04-01"
"Montana / Missoula: Missoula COVID-19 Mutual Aid Community","","http://covidmissoula.org/","","Missoula, MT",,,,"USA","","https://docs.google.com/forms/d/e/1FAIpQLSd3eiQXwEVk58_ovtit12dpEUfniKYy_nMeCo6PnmRBxcYBwg/viewform","https://docs.google.com/spreadsheets/d/172AjJSq50dOUzpk9VkocA3I7S-MD5kthdZIjlkXhJUo/edit#gid=411650815","406-258-INFO","","","NA_Mutual_Aid_Networks.csv",,"2020-04-01"
"Missoula COVID-19 Organizing Action","FacebookMutualAid","https://www.facebook.com/groups/covid.missoula/","https://www.facebook.com/groups/covid.missoula/","Missoula, MT",,,,"USA","","","","","","","NA_Mutual_Aid_Networks.csv",,"2020-04-01"
"Flathead Mutual Aid - Coronavirus","FacebookMutualAid","https://www.facebook.com/groups/FlatheadMutualAid/about/","https://www.facebook.com/groups/FlatheadMutualAid/about/","Kalispell, MT",,,,"USA","","","","","","","NA_Mutual_Aid_Networks.csv",,"2020-04-01"
"Co-operate WNC","","https://co-operatewnc.org","https://www.facebook.com/Gadugi13","Asheville, NC",,,,"USA","","","","","","","NA_Mutual_Aid_Networks.csv",,"2020-04-01"
"Ashville Survival Program","FacebookMutualAid","https://www.facebook.com/groups/AshevilleSurvivalProgram","https://www.facebook.com/groups/AshevilleSurvivalProgram","Ashville, NC",,,,"USA","","","","","","","NA_Mutual_Aid_Networks.csv",,"2020-04-01"
"NC COVID-19 Aid Resources","","https://www.Facebook.com/groups/3042375422452781","https://www.Facebook.com/groups/3042375422452781","Cary, NC",,,,"USA","","","","","","","NA_Mutual_Aid_Networks.csv",,"2020-04-01"
"North Carolina / CHP/Carrboro: Covid19 Support","FacebookMutualAid","https://facebook.us19.list-manage.com/subscribe?u=db8c84c4a9e614983643e28fc&id=88cfb469ae","https://facebook.us19.list-manage.com/subscribe?u=db8c84c4a9e614983643e28fc&id=88cfb469ae","Chapel Hill, NC",,,,"USA","","","","","","","NA_Mutual_Aid_Networks.csv",,"2020-04-01"
"Food Not Bombs 919","","https://docs.google.com/forms/d/e/1FAIpQLSfQs5q_oQmr_hC07p37ppZCRxvO4yWjP3SmS_ojnF--0Ge1Kw/viewform","","Chapel Hill, NC",,,,"USA","","","","","","","NA_Mutual_Aid_Networks.csv",,"2020-04-01"
"Covid-19 Greater Charlotte Area Mutual Aid","","http://www.covid-gca.org/?fbclid=IwAR3xzmgSXf8pAq7jVsadcYIcs-Z3K5xlWDiWNXe6CIK9kp2_8YZY9ie3Byc","https://www.facebook.com/groups/GCAMutualAid/","Charlotte, NC",,,,"USA","","","https://docs.google.com/forms/d/e/1FAIpQLSev29D62iEgFYrKwHEZQESbvzWdoH-a1iYk0xGj6-c6bqj1wg/viewform","","","","NA_Mutual_Aid_Networks.csv",,"2020-04-01"
"Charlotte Mutual Aid","FacebookMutualAid","https://www.facebook.com/charlottemutualaid/","https://www.facebook.com/charlottemutualaid/","Charlotte, NC",,,,"USA","","https://docs.google.com/forms/d/e/1FAIpQLSeKAkPrUS-fERDcIHHDZ3hverUzpAKyVuCgY9RLQw4sFgh9Rg/formResponse","https://docs.google.com/forms/d/e/1FAIpQLSeKAkPrUS-fERDcIHHDZ3hverUzpAKyVuCgY9RLQw4sFgh9Rg/formResponse","","","","NA_Mutual_Aid_Networks.csv",,"2020-04-01"
"COVID-19 Resource Spreadsheet - Durham","","https://docs.google.com/spreadsheets/d/1oASQ_jeqC578BvcTtRLv7mj59TVJlR3Mx1LSTXaNpr0/edit?usp=drivesdk","","Durham, NC",,,,"USA","","","","","","","NA_Mutual_Aid_Networks.csv",,"2020-04-01"
"Boone Community Relief","FacebookMutualAid","https://www.facebook.com/groups/567264050663936/?ref=share","https://www.facebook.com/groups/567264050663936/?ref=share","Boone, NC",,,,"USA","","","","","","","NA_Mutual_Aid_Networks.csv",,"2020-04-01"
"Durham Help","","https://docs.google.com/document/d/1q6sSt35JPjMsUJ02eeE9OTVXs1lxrj81pTDZdObgHpc/edit","","Durham, NC",,,,"USA","","","","","","","NA_Mutual_Aid_Networks.csv",,"2020-04-01"
"Durham Mutual Aid","FacebookMutualAid","https://www.facebook.com/groups/durhammutualaid/","https://www.facebook.com/groups/durhammutualaid/","Durham, NC",,,,"USA","","","","","","","NA_Mutual_Aid_Networks.csv",,"2020-04-01"
"Duke Mutual Aid","FacebookMutualAid","https://www.facebook.com/groups/220471129333286/","https://www.facebook.com/groups/220471129333286/","Durham, NC",,,,"USA","","https://docs.google.com/forms/d/1XbbkH6BPzV6ANtZZqqyGQZeaVtAlFcZVO0i7cnKRb9c/viewform?","","","","","NA_Mutual_Aid_Networks.csv",,"2020-04-01"
"COVID-19 Resource Spreadsheet","","https://docs.google.com/spreadsheets/d/19ulf0RqGhtTijdL3urOq5DLSlXQ7YbuXWTTuGuK3MUo/edit?fbclid=IwAR1HvKMli_9j5XjkBjguiPgPeaRbsDfaGaBe_Wsx65-SHybWDzj-TEuRmOU#gid=0","","Greensboro, NC",,,,"USA","","","","","","","NA_Mutual_Aid_Networks.csv",,"2020-04-01"
"Surry County Mutual Aid","FacebookMutualAid","https://www.facebook.com/SurryCountyMutualAid/","https://www.facebook.com/SurryCountyMutualAid/","Mount Airy, NC",,,,"USA","","","","","","","NA_Mutual_Aid_Networks.csv",,"2020-04-01"
"Winston-Salem Mutual Aid","","https://mailchi.mp/a5c83f43929c/winstonaid","","Winston-Salem, NC",,,,"USA","","https://forms.gle/DY7X3mAmugC4kQya9","https://forms.gle/aywLSarY77vRAoyw8","","","","NA_Mutual_Aid_Networks.csv",,"2020-04-01"
"Caremongering Pittsboro","FacebookMutualAid","https://www.facebook.com/groups/501891593829090/?ref=share","https://www.facebook.com/groups/501891593829090/?ref=share","Pittsboro, NC",,,,"USA","","","","","","","NA_Mutual_Aid_Networks.csv",,"2020-04-01"
"Davidson Mutual Aid","","https://docs.google.com/document/d/16T3I8-NpBM7A4FEvP-W6tw9PDdD31ON6hu0IAu0mUK0/edit","","Davidson, NC",,,,"USA","","","","","","","NA_Mutual_Aid_Networks.csv",,"2020-04-01"
"Hendersonville Mutual Aid","","https://docs.google.com/forms/d/e/1FAIpQLSfIezktdFHeKId2noDYJGnpIzh280F1P2c0lymYw1NXBlcCTQ/viewform?vc=0&c=0&w=1","","Hendersonville, NC",,,,"USA","","","","","","","NA_Mutual_Aid_Networks.csv",,"2020-04-01"
"Co-operate WNC","","https://www.co-operatewnc.org","https://www.facebook.com/Gadugi13/?__tn__=%2Cd%2CP-R&eid=ARDi2zJiw4TA8YKYR6cVe-ZlwEA2XL-grSAb0XIY6urt9Dg7Ma4NHpIS3B2Xam1scX-3KZ5Ik1Q8YaMQ","Asheville, NC",,,,"USA","","","","","","","NA_Mutual_Aid_Networks.csv",,"2020-04-01"
"The Dandelion Network","","https://thedandelionnetwork.org/","https://www.facebook.com/thedandelionnetwork/","Lincoln, NE",,,,"USA","","","","","","","NA_Mutual_Aid_Networks.csv",,"2020-04-01"
"Omaha/Lincoln Mutual Aid","FacebookMutualAid","https://www.facebook.com/groups/668793277205015/","https://www.facebook.com/groups/668793277205015/","Omaha, NE",,,,"USA","","","","","","","NA_Mutual_Aid_Networks.csv",,"2020-04-01"
"Midtown Mutual Aid Network","FacebookMutualAid","https://www.facebook.com/GiffordPark/posts/10157701179346418","https://www.facebook.com/GiffordPark/posts/10157701179346418","Omaha, NE",,,,"USA","","https://docs.google.com/forms/d/1LOyWcx-uq3y3G9B97Z3rWwpBsvyihRG-ELu1oMR9Pw4/viewform?edit_requested=true&fbclid=IwAR1VKztqNFZcL9vuA5NiMKXZ6mY0A6r7zj2Qptu_Vwxy6os3ecwAvZc8x_c","https://docs.google.com/forms/d/1yNTv6Cu1JOS57z8HxIPx5jKzf7mw6G5Ddd8aQHHydqs/viewform?edit_requested=true&fbclid=IwAR0OE1fLcEtd6aHqva2h_I2WNgdn6SML8JrKfCbxp1u6W4iffC5hiOdG78g","","","","NA_Mutual_Aid_Networks.csv",,"2020-04-01"
"Upper Morningside Mutual Aid Network","","https://docs.google.com/document/d/1NFyI6WDaVLi-FVBrJ-XHNhJllfM66QnSIDUsg5BKlTM/edit","","Morningside Heights, New York, New York",,,,"USA","","","https://docs.google.com/forms/d/e/1FAIpQLScARzOBnJFBXlPb0raURQslKKOJo9wldvFNecLNoH8ZMSAwCQ/viewform","","","","NA_Mutual_Aid_Networks.csv",,"2020-04-01"
"Capital City Mutual Aid Network","","https://docs.google.com/spreadsheets/d/18GciUxFymwlQYvhdUHQIAX-wbaKe2WrYFZTW8ka0svg/edit#gid=1637151619","","Concord, NH",,,,"USA","","","","","","","NA_Mutual_Aid_Networks.csv",,"2020-04-01"
"Manchester NH Mutual Aid Network","","https://docs.google.com/spreadsheets/d/1nsTIfaqbvnq_7d1mUei_8JJNULiWpmmcfk9kTa-gGGI/htmlview?fbclid=IwAR3eJDFJ9g52ODmKLZrf-4uekQTbdkMc5dklpqjPPiKAVUPg2aukPLHqd-Q#","","Manchester, NH",,,,"USA","","","","","","","NA_Mutual_Aid_Networks.csv",,"2020-04-01"
"Seacoast Mutual Aid","","https://docs.google.com/spreadsheets/d/11k8bJ3ipHBWEJFHTlLeHsUAAqVXkjJ0AQeOTfa9zkNQ/edit?fbclid=IwAR0t0zCU1gm5h-0k4u8Ev4PyvMC4UjNPVkNhtf13Qeu9qT__9K6t8Fkm9lQ#gid=1430464348","","Rockingham County, NH",,,,"USA","","","","","","","NA_Mutual_Aid_Networks.csv",,"2020-04-01"
"COVID-19 Mutual Aid Chain (Morris County, NJ)","","https://docs.google.com/forms/d/e/1FAIpQLSesZKyRbQPcSYoAMOYSVRWd_gw0q_FVyuq1vpmvJr09QeEpmA/viewform","","Morristown, NJ",,,,"USA","","","","","","","NA_Mutual_Aid_Networks.csv",,"2020-04-01"
"North Jersey Mutual Aid Resources","","https://docs.google.com/forms/d/e/1FAIpQLSf0cqFpnzSuvbDxpgdG4Cs7l96xuOTqI8ydtFl_t-iO6A08NQ/viewform","https://www.facebook.com/groups/349149839305990/","Paterson, NJ",,,,"USA","","","","","","","NA_Mutual_Aid_Networks.csv",,"2020-04-01"
"Emergency Food Delivery Volunteers (Southern NJ)","","https://docs.google.com/forms/d/e/1FAIpQLSdUTAWBd4f6XvZBgiS427DtGs7_vOuXWbBFVHtYSqMGa-yAYw/viewform?fbclid=IwAR32ZodUPu5yHUOjQoIHL5FxsB9_nR3FrUafbjQjHCWc4DhmCcUWB2jyO-Q&fbzx=-5100045008882770406","","Vineland, NJ",,,,"USA","","https://docs.google.com/forms/d/e/1FAIpQLSdUTAWBd4f6XvZBgiS427DtGs7_vOuXWbBFVHtYSqMGa-yAYw/viewform?fbclid=IwAR32ZodUPu5yHUOjQoIHL5FxsB9_nR3FrUafbjQjHCWc4DhmCcUWB2jyO-Q&fbzx=-5100045008882770406","","","","","NA_Mutual_Aid_Networks.csv",,"2020-04-01"
"Mutual Morris","FacebookMutualAid","https://www.facebook.com/MutualMorris/","https://www.facebook.com/MutualMorris/","Morristown, NJ",,,,"USA","","","","","","","NA_Mutual_Aid_Networks.csv",,"2020-04-01"
"Garfield Neighbor Network","FacebookMutualAid","https://facebook.com/groups/536934810298819?ref=m_notif&notif_t=feedback_reaction_generic","https://facebook.com/groups/536934810298819?ref=m_notif&notif_t=feedback_reaction_generic","Garfield, NJ",,,,"USA","","","","","","","NA_Mutual_Aid_Networks.csv",,"2020-04-01"
"Albuquerque, What do you need?","","https://docs.google.com/forms/d/e/1FAIpQLSeGo_Doo8bczJ1L0F7RKU76eTTUaqqbdljGtVMM1H08_JKqCQ/viewform?fbclid=IwAR3F9-CJ9hkLCbFxZinlGkLkMQoJ61NaWWg_Q36FIBPbyDsSxdesDoxCeWA","","Albuquerque, NM",,,,"USA","","","","","","","NA_Mutual_Aid_Networks.csv",,"2020-04-01"
"CentralNMCovid19CommunityKrewe","","https://docs.google.com/document/d/1F-RV8HBIdI0miD7y4nFhUmpzLJyTmytJTi92xrUrUAk/mobilebasic?fbclid=IwAR1oWyk7GLMLQjD2gnOIOq0QR7Xfz5pQ92pWZpqiWae6pNJxw-nEUKovTMw","","Albuquerque, NM",,,,"USA","","","","","","","NA_Mutual_Aid_Networks.csv",,"2020-04-01"
"Albuquerque Mutual Aid","","https://docs.google.com/forms/d/e/1FAIpQLSdyWujg0aif-NtV-KdngGCR9-QBIzl59OvBzX74Lczdoo-1OQ/viewform","","Albuquerque, NM",,,,"USA","","","","","","","NA_Mutual_Aid_Networks.csv",,"2020-04-01"
"Fight For Our Lives Albuquerque Mutual Aid","","http://www.ffol.org/mutualaid.html","","Albuquerque, NM",,,,"USA","","","","","","","NA_Mutual_Aid_Networks.csv",,"2020-04-01"
"New Mexico / Albuquerque: Help Needed in Albuquerque COVID-19","FacebookMutualAid","https://www.facebook.com/groups/247465889623611/?ref=share","https://www.facebook.com/groups/247465889623611/?ref=share","Albuquerque, NM",,,,"USA","","","","","","","NA_Mutual_Aid_Networks.csv",,"2020-04-01"
"Santa Fe COVID-19 Mutual Aid Form","","https://docs.google.com/forms/d/e/1FAIpQLSc2k_Dci4goeRAG13VyXCOI4xgS-43IzEXsAFHvlcX-P3A58w/viewform","","Santa Fe, NM",,,,"USA","","","","","","","NA_Mutual_Aid_Networks.csv",,"2020-04-01"
"New Mexico / Santa Fe: Community Resources during Covid-19","","https://docs.google.com/document/d/1Wtf64PfU2geObOMyO3EvTl4suGm-Ldgy/edit#","","Santa Fe, NM",,,,"USA","","","","","","","NA_Mutual_Aid_Networks.csv",,"2020-04-01"
"COVID-19 Community Resources & Links - New Mexico","","https://docs.google.com/document/d/1Wtf64PfU2geObOMyO3EvTl4suGm-Ldgy/edit#","","NM",,,,"USA","","","","","","","NA_Mutual_Aid_Networks.csv",,"2020-04-01"
"COVID 19 RESOURCES_Southwest Focus","","https://docs.google.com/document/d/1bmcT0lgsLsG-qC4ZRx_Hmh7X4YUzv8V37J1s93V3vIo/edit","","NM",,,,"USA","","","","","","","NA_Mutual_Aid_Networks.csv",,"2020-04-01"
"Help Needed in Albuquerque COVID-19","FacebookMutualAid","https://www.facebook.com/groups/247465889623611/?multi_permalinks=247582216278645&notif_id=1584646671177003&notif_t=feedback_reaction_generic","https://www.facebook.com/groups/247465889623611/?multi_permalinks=247582216278645&notif_id=1584646671177003&notif_t=feedback_reaction_generic","Albuquerque, NM",,,,"USA","","","","","","","NA_Mutual_Aid_Networks.csv",,"2020-04-01"
"Tewa Women United COVID-19 Community Resources","","http://tewawomenunited.org/covid19-community-resources/","","NM",,,,"USA","","","","","","","NA_Mutual_Aid_Networks.csv",,"2020-04-01"
"COVID-19 Trans/Queer Relief Form","","https://docs.google.com/forms/d/e/1FAIpQLSfO1Ws5YgKFMXKu9CSh_WUVCznssExW6bnJpom5JsP24XwCLQ/viewform","","NM",,,,"USA","","","","","","","NA_Mutual_Aid_Networks.csv",,"2020-04-01"
"DPBC COVID-19 Ways to Help, Ways to Get Help","","https://docs.google.com/document/d/1tsoapH-oS5wqYXBFj-SyMh1ZvOOKeSol4993HboYrFo/edit","","NM",,,,"USA","","","","","","","NA_Mutual_Aid_Networks.csv",,"2020-04-01"
"Santa Fe Mutual Aid Network","","https://docs.google.com/forms/d/e/1FAIpQLSc2k_Dci4goeRAG13VyXCOI4xgS-43IzEXsAFHvlcX-P3A58w/viewform","","Santa Fe, NM",,,,"USA","","","","","","","NA_Mutual_Aid_Networks.csv",,"2020-04-01"
"Nevada / Las Vegas: Las Vegas DSA COVID-19 Mutual Aid Form","","https://docs.google.com/forms/d/e/1FAIpQLSeTcriSCf7XcSEC21ayAZmoytmrOkD7zB92z_d5UuTAynWo0g/viewform","","Las Vegas, NV",,,,"USA","","","https://docs.google.com/forms/d/e/1FAIpQLSeTcriSCf7XcSEC21ayAZmoytmrOkD7zB92z_d5UuTAynWo0g/viewform","","","","NA_Mutual_Aid_Networks.csv",,"2020-04-01"
"Nevada / Las Vegas: Las Vegas DSA COVID-19 Mutual Aid Form (Español)","","https://docs.google.com/forms/d/e/1FAIpQLSeTcriSCf7XcSEC21ayAZmoytmrOkD7zB92z_d5UuTAynWo0g/viewform","","Las Vegas, NV",,,,"USA","","","https://docs.google.com/forms/d/e/1FAIpQLSeTcriSCf7XcSEC21ayAZmoytmrOkD7zB92z_d5UuTAynWo0g/viewform","","","","NA_Mutual_Aid_Networks.csv",,"2020-04-01"
"LVDSA Covid-19 Mutual Aid","","https://docs.google.com/forms/d/e/1FAIpQLSeTcriSCf7XcSEC21ayAZmoytmrOkD7zB92z_d5UuTAynWo0g/viewform","","Las Vegas, NV",,,,"USA","","","https://docs.google.com/forms/d/e/1FAIpQLSeTcriSCf7XcSEC21ayAZmoytmrOkD7zB92z_d5UuTAynWo0g/viewform","","","","NA_Mutual_Aid_Networks.csv",,"2020-04-01"
"Washoe County Mutual Aid Solidarity Network","","https://twitter.com/WashoeCoMASN","https://twitter.com/WashoeCoMASN","Reno, NV",,,,"USA","","","","","","","NA_Mutual_Aid_Networks.csv",,"2020-04-01"
"Reno/Sparks Mutual Aid","FacebookMutualAid","https://www.facebook.com/groups/186246196158115/","https://www.facebook.com/groups/186246196158115/","Reno, NV",,,,"USA","","","","","","","NA_Mutual_Aid_Networks.csv",,"2020-04-01"
"New York / Albany: Mutual Aid South End Albany--Social Distance in Solidarity","","https://docs.google.com/spreadsheets/d/1fLIO2jT-tlZU5C9X1FNl9LGXW9tj1w00frWTtOK-dL4/edit#gid=0","","Albany, NY",,,,"USA","","","","","","","NA_Mutual_Aid_Networks.csv",,"2020-04-01"
"Capital Region Corona Support","","https://docs.google.com/spreadsheets/d/13UBm4YpvppqWqxrYHIn51dH8DtwCL3tIcaPgMv7GBts/edit#gid=613350993","","Albany, NY",,,,"USA","","","","","","","NA_Mutual_Aid_Networks.csv",,"2020-04-01"
"Astoria Mutual Aid Network","","https://www.astoriamutualaid.com/","","Astoria, NY",,,,"USA","","","","","","","NA_Mutual_Aid_Networks.csv",,"2020-04-01"
"Auburn support local businesses and Community positivity group","FacebookMutualAid","https://www.facebook.com/groups/1052881391751558/","","Auburn, NY",,,,"USA","","","","","","","NA_Mutual_Aid_Networks.csv",,"2020-04-01"
"Mutual Aid Beacon","","http://www.beaconmutualaid.com/","https://facebook.com/groups/200367384605789","Beacon, NY",,,,"USA","","https://docs.google.com/forms/d/e/1FAIpQLSfG9js7cpzZ7rOIeANJVs94M9K5GsnPzs-xECUHW_LqszscTw/viewform","https://docs.google.com/forms/d/e/1FAIpQLScFO6dzjRb_5dc72tTMET__hAFLCGefUhKGY38joruKhED50g/viewform","","","","NA_Mutual_Aid_Networks.csv",,"2020-04-01"
"Bronx Mutual Aid Network","","https://docs.google.com/spreadsheets/d/1EXAgeHCNMahBiqrO-cbpjP_CzeE0wyouzZbz1nCXMQk/edit#gid=1975280849","","Bronx, NY",,,,"USA","","","","","","","NA_Mutual_Aid_Networks.csv",,"2020-04-01"
"Mutual Aid Crown Heights","FacebookMutualAid","https://www.facebook.com/groups/496603171016990/","https://www.facebook.com/groups/496603171016990/","Crown Heights, Brooklyn, NY",,,,"USA","","","","","","","NA_Mutual_Aid_Networks.csv",,"2020-04-01"
"Bedstuy Strong","","https://bedstuystrong.com/","","Brooklyn, NY",,,,"USA","","https://airtable.com/shrMH3m4eq8RDPhxf","https://www.notion.so/Bed-Stuy-Strong-0023fbdcae3c4beab4ef5fccd11d8902","","","","NA_Mutual_Aid_Networks.csv",,"2020-04-01"
"Buffalo Mutual Aid Network","","https://docs.google.com/document/d/1VpoJr-0FA2Ud7WMalcEDqoKGKaYlAxhVdamUJddj7Bg/edit?","https://www.facebook.com/groups/740052889874229/?ref=br_rs","Buffalo, NY",,,,"USA","","https://docs.google.com/forms/d/e/1FAIpQLSesNcKjEXtf-TInq2oQzh4JpGfk6dbkdwrVjkHnbCm0_tM_XA/viewform","https://docs.google.com/forms/d/e/1FAIpQLSc0Ytm83OuVLzi6oOa4o6dEvjhitk4rqfB9bb1YEBLLwYesng/viewform","","","","NA_Mutual_Aid_Networks.csv",,"2020-04-01"
"PUSH Buffalo","","https://www.pushbuffalo.org/coronavirus/covid-19-mutual-aid/","","Buffalo, NY",,,,"USA","","","","","","","NA_Mutual_Aid_Networks.csv",,"2020-04-01"
"Community Care Planning: Main Hub","FacebookMutualAid","https://www.facebook.com/groups/217429229632468/217783732930351/","","Chatham, NY",,,,"USA","","","","","","","NA_Mutual_Aid_Networks.csv",,"2020-04-01"
"Welcome to Mutual Aid Geneseo / Groveland (MAGG)","","https://docs.google.com/document/d/1JE2LA-SHAz1w4SVQVMNuftMM5p3UhK3HvaR38WX-RnE/","","Geneseo, NY",,,,"USA","","","https://docs.google.com/forms/d/e/1FAIpQLSfTppqmGw63_V_doqLM0sReE6xm0CxAgHMl6HcRZRwvQNJ5SQ/viewform","","","","NA_Mutual_Aid_Networks.csv",,"2020-04-01"
"Nassau DSA Covid-19 Mutual Aid","","https://docs.google.com/forms/d/15GHo2QWdoAd9RMqGChTpOIJbisLw0eNsXWJQ--_80gk/viewform?","","Hempstead, NY",,,,"USA","","","","","","","NA_Mutual_Aid_Networks.csv",,"2020-04-01"
"New York / Ithaca: Cornell University COVID Shutdown Housing Resources","","https://docs.google.com/spreadsheets/d/1jWoDRMvJI_HxjO_iEUffwTUlR3z3uhvzpgQbK24Il1U/htmlview#gid=0","","Ithaca, NY",,,,"USA","","","","","","","NA_Mutual_Aid_Networks.csv",,"2020-04-01"
"Tompkins COVID-19 Mutual Aid Response","FacebookMutualAid","https://www.facebook.com/groups/209042093515340/?ref=share","https://www.facebook.com/groups/209042093515340/?ref=share","Ithaca, NY",,,,"USA","","","","","","","NA_Mutual_Aid_Networks.csv",,"2020-04-01"
"Kingston NY Mutual Aid","FacebookMutualAid","https://www.facebook.com/groups/195204068593679/","","Kingston, NY",,,,"USA","","","","","","","NA_Mutual_Aid_Networks.csv",,"2020-04-01"
"Kingston COVID-19 Volunteer Response Team","","https://docs.google.com/forms/d/e/1FAIpQLSfe2DFUBwtNF3kmTb52_dWjhhEOlqFIpp8kkA4VQpqRFlhjoA/viewform","","Kingston, NY",,,,"USA","","","https://docs.google.com/forms/d/e/1FAIpQLSfe2DFUBwtNF3kmTb52_dWjhhEOlqFIpp8kkA4VQpqRFlhjoA/viewform","","","","NA_Mutual_Aid_Networks.csv",,"2020-04-01"
"Long Island Coronavirus Action Network","FacebookMutualAid","https://www.facebook.com/groups/lican516631/","https://www.facebook.com/groups/lican516631/","Long Island, NY",,,,"USA","","","","","","","NA_Mutual_Aid_Networks.csv",,"2020-04-01"
"Community Solidarity","","https://communitysolidarity.org/","","Long Island, NY",,,,"USA","","","","","","","NA_Mutual_Aid_Networks.csv",,"2020-04-01"
"New Rochelle Community Support","FacebookMutualAid","https://www.facebook.com/groups/3024165470968117/?hc_location=group","","New Rochelle, NY",,,,"USA","","","","","","","NA_Mutual_Aid_Networks.csv",,"2020-04-01"
"CUNY Mutual Aid","","https://bit.ly/cunyaid","","New York, NY",,,,"USA","","https://forms.gle/TMCDhn3pjjwintQHA","https://bit.ly/cunyaid","","","","NA_Mutual_Aid_Networks.csv",,"2020-04-01"
"NYC United Against Coronavirus - Resources and Information","","https://docs.google.com/document/d/18WYGoVlJuXYc3QFN1RABnARZlwDG3aLQsnNokl1KhZQ/preview","","NYC, NY",,,,"USA","","","","","","","NA_Mutual_Aid_Networks.csv",,"2020-04-01"
"Invisible Hands Deliver","","https://www.invisiblehandsdeliver.com/","","Brooklyn/Manhattan/Jersey City/Astoria, NYC, NY",,,,"USA","","","","","","","NA_Mutual_Aid_Networks.csv",,"2020-04-01"
"Bushwick Mutual Aid - Coronavirus","FacebookMutualAid","https://www.facebook.com/groups/691761548028851/","https://www.facebook.com/groups/691761548028851/","Bushwick, NYC, NY",,,,"USA","","","","","","","NA_Mutual_Aid_Networks.csv",,"2020-04-01"
"Carroll Gardens Mutual Aid - Coronavirus","FacebookMutualAid","https://www.facebook.com/groups/208815540435346/","https://www.facebook.com/groups/208815540435346/","Carroll Gardens, NYC, NY",,,,"USA","","","","","","","NA_Mutual_Aid_Networks.csv",,"2020-04-01"
"Ditmas Park/Flatbush/Prospect Park South Coronavirus Neighborhood Hel","","https://docs.google.com/document/d/1lQLOgWQXkno9ATaTMj1vJ0OKM9nAKa9ToUI6HHM3rAo/edit","https://www.facebook.com/groups/2775890899146167/","Ditmas Park/Flatbush/Prospect Park, NYC, NY",,,,"USA","","","https://bit.ly/2U3Spna","","","","NA_Mutual_Aid_Networks.csv",,"2020-04-01"
"Kensington, Brooklyn, Group for Mutual Aid (Coronavirus)","FacebookMutualAid","https://www.facebook.com/groups/884513918671186/","https://www.facebook.com/groups/884513918671186/","Kensington, NYC, NY",,,,"USA","","","","","","","NA_Mutual_Aid_Networks.csv",,"2020-04-01"
"North Brooklyn Mutual Aid","","https://docs.google.com/spreadsheets/d/1knA71oKmslwEMjTfF7xIz6ewfIfuuQYB3t6FUh1W8gg/edit#gid=0","","North Brooklyn, NYC, NY",,,,"USA","","","","","","","NA_Mutual_Aid_Networks.csv",,"2020-04-01"
"Mutual Aid NYC","","https://docs.google.com/document/d/1aevxXYQgeP-uJa0eSI0YYIJKZBNkn-6Rjy_fY7zpRLo/edit","","NYC, NY",,,,"USA","","","","","","","NA_Mutual_Aid_Networks.csv",,"2020-04-01"
"Red Hook Coronavirus Community Cooperative Committee","","https://docs.google.com/forms/d/e/1FAIpQLSfn5N5N6Wzu-zVG5nyPNs5wOgGjHj-y_EA4VoT4J74yQ2p6ag/viewform?fbclid=IwAR0OZJK8jmNSOF8tJf2HHkq22geATl2icixr0G6EvVexchgpWmMM3x7JQ74","","Red Hook, NYC, NY",,,,"USA","","","","","","","NA_Mutual_Aid_Networks.csv",,"2020-04-01"
"South Brooklyn Community - COVID-19 Neighborhood Volunteers","","https://docs.google.com/spreadsheets/d/1RduJEBqZFa9jXgDZskga06cH52mDR87yoNdXIajLOsU/edit?ts=5e6bbc0a#gid=1419997113","","South Brooklyn, NYC, NY",,,,"USA","","","","","","","NA_Mutual_Aid_Networks.csv",,"2020-04-01"
"All Brooklyn - Coronavirus Neighborhood Help","","https://docs.google.com/forms/d/e/1FAIpQLSfRs_9b5T3jM7jU-OlAoU1VVg1M5SxSIAIG87E7sLAwUbuCfg/viewform","","NYC, NY",,,,"USA","","","","","","","NA_Mutual_Aid_Networks.csv",,"2020-04-01"
"Capital District of NY COVID-19 Mutual Aid","","https://docs.google.com/forms/d/e/1FAIpQLSeT19CQCnINTwWj4_cZRKMFi4gW5NdDZYOx3I2OsuhYMcPPmw/viewform#518MutualAid","https://www.facebook.com/groups/209973416755110/?","NYC, NY",,,,"USA","","","","","","","NA_Mutual_Aid_Networks.csv",,"2020-04-01"
"LIC COVID-19 Support","","https://drive.google.com/file/d/1FYQ4r_moSkZ8w0wQi0uDTGDboX30MW-f/view","","Long Island City, NYC, NY",,,,"USA","","","","","","","NA_Mutual_Aid_Networks.csv",,"2020-04-01"
"Red Hook Mutual Aid","","https://docs.google.com/forms/d/e/1FAIpQLSdg6xAdsLeK3oDq2ATxy9wWLXB_BXDKdW1YFA6xuMVqlce20Q/viewform","https://www.facebook.com/RedHookMA/?","Red Hook, NYC, NY",,,,"USA","","","","","","","NA_Mutual_Aid_Networks.csv",,"2020-04-01"
"COVID 19 North Country Neighbors Helping Neighbors","FacebookMutualAid","https://www.facebook.com/groups/539812396667366/","","Plattsburgh, NY",,,,"USA","","https://docs.google.com/forms/d/e/1FAIpQLSfnqN_S0R75zyJSMZ9F-2yLw4r_qF2OcY8pd2TfUmv6ETsSIA/viewform","","","","","NA_Mutual_Aid_Networks.csv",,"2020-04-01"
"Hudson Valley Mutual Aid Network","","https://docs.google.com/document/d/104kvih5tO84zfnqMtwrmFgkOcE_0MBe5mwrElY19T-8/edit","https://www.facebook.com/groups/hvmutualaidnetwork/","Poughkeepsie, NY",,,,"USA","","https://docs.google.com/forms/d/e/1FAIpQLSdaT8zQioNQyiFHliY2qR8mnDxZ5zcLBou3NN__-wm1wLA7fA/viewform","","","","","NA_Mutual_Aid_Networks.csv",,"2020-04-01"
"Dutchess Orange Community Strong","","https://www.uwdor.org/covid19-communityresources","https://www.facebook.com/groups/docommunitystrongresources/","Poughkeepsie, NY",,,,"USA","","","","","","","NA_Mutual_Aid_Networks.csv",,"2020-04-01"
"Queens Mutual Aid Network","","https://docs.google.com/spreadsheets/d/1wNNGfygBEQL3GiuNoonFk-jznd0VIrmXVBloytaK1gc/edit#gid=1975280849","","Queens, NY",,,,"USA","","","","","","","NA_Mutual_Aid_Networks.csv",,"2020-04-01"
"Ridgewood Mutual Aid Network","","https://docs.google.com/forms/d/e/1FAIpQLScMvBdL54fMmQF8CL06tDXeNjdLNZuykK72In97L9LbBgsB0A/viewform","","Ridgewood, Queens, NY",,,,"USA","","","https://docs.google.com/forms/d/e/1FAIpQLScMvBdL54fMmQF8CL06tDXeNjdLNZuykK72In97L9LbBgsB0A/viewform","","","","NA_Mutual_Aid_Networks.csv",,"2020-04-01"
"Project Resilience","","https://forms.office.com/Pages/ResponsePage.aspx?id=0WrrnsA12ESOi_DlxEyioxtynIO7HpVFvTmeMHlXhMlUOENDNTlWUzkwQ0dORjM3QUlMSVRBVE41MiQlQCN0PWcu","","Rochester, NY",,,,"USA","","https://forms.office.com/Pages/ResponsePage.aspx?id=0WrrnsA12ESOi_DlxEyioxtynIO7HpVFvTmeMHlXhMlUOENDNTlWUzkwQ0dORjM3QUlMSVRBVE41MiQlQCN0PWcu","","","","","NA_Mutual_Aid_Networks.csv",,"2020-04-01"
"Food Bank of Central New York","","https://foodbankcny.org/","","Syracuse, NY",,,,"USA","","","https://donatenow.networkforgood.org/foodbankcny2020coronavirus","","","","NA_Mutual_Aid_Networks.csv",,"2020-04-01"
"Westcott Mutual Aid","","https://docs.google.com/document/d/1B6uOeOhGlEK_EnSfXTijvFMfnObMWsxSgd6P0U2ycwk/edit","","Syracuse, NY",,,,"USA","","https://docs.google.com/forms/d/e/1FAIpQLScJ97nXqDEIvuNRcO91h06H0tAcNv53NPCEak1OISo_ioVQ1w/viewform","https://docs.google.com/forms/d/e/1FAIpQLSfNeRctBJ33LgcwEuYm0KdCBpOXuWgRJ_scnBRQZ9KleH-NQg/viewform","","","","NA_Mutual_Aid_Networks.csv",,"2020-04-01"
"Troy Mutual Aid Society 2020","FacebookMutualAid","https://www.facebook.com/groups/220879635954876/","","Troy, NY",,,,"USA","","","","","","","NA_Mutual_Aid_Networks.csv",,"2020-04-01"
"Watertown/Ft Drum Area COVID-19 Community Support","FacebookMutualAid","https://www.facebook.com/groups/870250380103693/","","Watertown, NY",,,,"USA","","","","","","","NA_Mutual_Aid_Networks.csv",,"2020-04-01"
"NYC COVID Care Network","","https://www.nyccovidcare.org/","","New York City, NY",,,,"USA","","https://www.nyccovidcare.org/request","https://www.nyccovidcare.org/offer","","","","NA_Mutual_Aid_Networks.csv",,"2020-04-01"
"Manhattan Mutual Aid Network - FAM","","https://docs.google.com/spreadsheets/d/1fdiNMLxiwF2cj3tjjn0iZ_8W7kpiKVL_SX3UjRte1-8/edit#gid=1975280849","","Manhattan, NY",,,,"USA","","","","","","","NA_Mutual_Aid_Networks.csv",,"2020-04-01"
"Staten Island Mutual Aid Network","","https://docs.google.com/spreadsheets/d/1Y1F8DokDKTSyCfZLimAFXeJgq6jLiPtcTp_oMtV1IlY/edit#gid=1975280849","","Staten Island, NY",,,,"USA","","","","","","","NA_Mutual_Aid_Networks.csv",,"2020-04-01"
"Sunnyside/Woodside Mutual Aid - Coronavirus","FacebookMutualAid","https://www.facebook.com/groups/sunnysidemutualaid/","https://www.facebook.com/groups/sunnysidemutualaid/","Sunnyside, NY",,,,"USA","","bit.ly/SunnysideAid","bit.ly/SunnysideVolunteer","","","","NA_Mutual_Aid_Networks.csv",,"2020-04-01"
"Harlem United Against Coronavirus","FacebookMutualAid","https://www.facebook.com/groups/2437603463161630/","https://www.facebook.com/groups/2437603463161630/","Harlem, NYC, NY",,,,"USA","","","","","","","NA_Mutual_Aid_Networks.csv",,"2020-04-01"
"Brooklyn Shows Love","","https://docs.google.com/document/d/1oUnMTV2mq8lg2GimHWc4XWRgI2D-bRvJo_v_0tqW_1Q/edit","","Brooklyn, NY",,,,"USA","","","http://bit.ly/bkshowslovevolunteer","(646) 820-6039","","","NA_Mutual_Aid_Networks.csv",,"2020-04-01"
"Rockaway Mutual Aid & Support Network","FacebookMutualAid","https://www.facebook.com/groups/606774946834371/?ref=share","https://www.facebook.com/groups/606774946834371/?ref=share","Rockaway, Queens, NY",,,,"USA","","","","","","","NA_Mutual_Aid_Networks.csv",,"2020-04-01"
"Canton Covid-19 Mutual Aid Group","FacebookMutualAid","https://www.facebook.com/groups/2532290837040130/?ref=br_rs","https://www.facebook.com/groups/2532290837040130/?ref=br_rs","Canton, OH",,,,"USA","","","","","","","NA_Mutual_Aid_Networks.csv",,"2020-04-01"
"Ohio / Cincinnati/SW: Cincinnati/SW Ohio Mutual Aid","FacebookMutualAid","https://www.facebook.com/groups/145264623412166/?ref=share","https://www.facebook.com/groups/145264623412166/?ref=share","Cincinnati, OH",,,,"USA","","","","","","","NA_Mutual_Aid_Networks.csv",,"2020-04-01"
"Mutual Aid Southeast Ohio","FacebookMutualAid","https://www.facebook.com/groups/202905537473660/?ref=br_rs","https://www.facebook.com/groups/202905537473660/?ref=br_rs","Cincinnati, OH",,,,"USA","","","","","","","NA_Mutual_Aid_Networks.csv",,"2020-04-01"
"Ohio / Cleveland: Provide Aid in Cleveland","FacebookMutualAid","https://www.facebook.com/cprCLE/","https://www.facebook.com/cprCLE/","Cleveland, OH",,,,"USA","","","https://docs.google.com/forms/d/e/1FAIpQLSeta_pGNk6xHldU7yL18jf5C8KHHw-s1ujQdT6Zoj6g3goIMA/viewform","","","","NA_Mutual_Aid_Networks.csv",,"2020-04-01"
"Mutual Aid Northeast Ohio","FacebookMutualAid","https://www.facebook.com/groups/833037507201791/?ref=br_rs","https://www.facebook.com/groups/833037507201791/?ref=br_rs","Cleveland, OH",,,,"USA","","","","","","","NA_Mutual_Aid_Networks.csv",,"2020-04-01"
"CPR-Cleveland Pandemic Response","FacebookMutualAid","https://facebook.com/cprCLE/","https://facebook.com/cprCLE/","Cleveland, OH",,,,"USA","","","","","","","NA_Mutual_Aid_Networks.csv",,"2020-04-01"
"Cleveland Food Share","","https://docs.google.com/forms/d/11qVMlouM_CJIah8HP_lCSrQUq2BIIRtJr7M4jirRQZA/viewform?edit_requested=true","","Cleveland Heights, OH",,,,"USA","","","","","","","NA_Mutual_Aid_Networks.csv",,"2020-04-01"
"Mutual Aid Central Ohio","","https://docs.google.com/forms/d/e/1FAIpQLSeJF-PBvxYP8d4gAEZ3y3dhs3RTqK3U4J9kcMS-1fGh9wEPnQ/viewform","https://www.facebook.com/groups/529751994623659/?ref=br_rs","Columbus, OH",,,,"USA","","","","","","","NA_Mutual_Aid_Networks.csv",,"2020-04-01"
"Mutual Aid Dayton/Miami Valley","","https://docs.google.com/forms/d/e/1FAIpQLScdPCDu3-uo0t-JKNkm-J_yooPrin8nJagexqdt9l23XVgT_g/viewform","","Dayton, OH",,,,"USA","","","","","","","NA_Mutual_Aid_Networks.csv",,"2020-04-01"
"Mutual Aid Toledo","FacebookMutualAid","https://www.facebook.com/groups/226750158510262/?ref=br_rs","https://www.facebook.com/groups/226750158510262/?ref=br_rs","Toledo, OH",,,,"USA","","https://docs.google.com/forms/d/e/1FAIpQLScklOv-I_O8cEc4r2LQN4EcjnitHW3zTUNUy2AXgUIr5HxTvg/viewform","https://docs.google.com/forms/d/e/1FAIpQLScklOv-I_O8cEc4r2LQN4EcjnitHW3zTUNUy2AXgUIr5HxTvg/viewform","","","","NA_Mutual_Aid_Networks.csv",,"2020-04-01"
"Mutual Aid Youngstown","FacebookMutualAid","https://www.facebook.com/groups/220051295714284/?ref=br_rs","https://www.facebook.com/groups/220051295714284/?ref=br_rs","Youngstown, OH",,,,"USA","","","","","","","NA_Mutual_Aid_Networks.csv",,"2020-04-01"
"Delaware OH Panhandle Mutual Aid Group","FacebookMutualAid","https://www.facebook.com/groups/145491623463741/","https://www.facebook.com/groups/145491623463741/","Panhandle Road, Delaware, OH",,,,"USA","","https://forms.gle/hE2KDuP56FH81zTR9","https://forms.gle/6Wmmj4G94toGrw7U9","","","","NA_Mutual_Aid_Networks.csv",,"2020-04-01"
"Norman Community Relief - Volunteer Sign-up Form","","https://docs.google.com/forms/d/e/1FAIpQLSeJzEhGGaXUZC60uiOScPq16JRt345oEvpL6H7evEj-4PVejg/viewform","","Norman, OK",,,,"USA","","","","","","","NA_Mutual_Aid_Networks.csv",,"2020-04-01"
"Oklahoma Mutual Aid","FacebookMutualAid","https://www.facebook.com/groups/525919904995040/","https://www.facebook.com/groups/525919904995040/","Oklahoma City, OK",,,,"USA","","https://docs.google.com/forms/d/e/1FAIpQLSfNiVjInx05emNlVD2mbPFQugOqvxeY63DwVDT75m1I3QCg-w/viewform","https://docs.google.com/forms/d/e/1FAIpQLScqh3ynOU0HyRljqu8zxLDYL3u5C3tpsIK1dNKWobc3_NePEg/viewform","","","","NA_Mutual_Aid_Networks.csv",,"2020-04-01"
"NOISE and Raising Native Hope for unhouse Native folks","FacebookMutualAid","https://www.facebook.com/raisinghope2017/","https://www.facebook.com/raisinghope2017/","Tulsa, OK",,,,"USA","","","","","","","NA_Mutual_Aid_Networks.csv",,"2020-04-01"
"Okemah Helping Hands","FacebookMutualAid","https://www.facebook.com/groups/1095919797417666/","https://www.facebook.com/groups/1095919797417666/","Okemah, OK",,,,"USA","","","","","","","NA_Mutual_Aid_Networks.csv",,"2020-04-01"
"Southern Oregon COVID-19 Mutual Aid","FacebookMutualAid","https://www.facebook.com/socovid19mutualaid/","https://www.facebook.com/socovid19mutualaid/","Ashland, OR",,,,"USA","","https://docs.google.com/spreadsheets/d/1yHveqLT8-hVtLmn4NU2EaA3hx9KgD0QPes6fzx4wOE8/edit","https://docs.google.com/forms/d/e/1FAIpQLSdfWogf-uARZawjT9jWWjXdFC59CERFEKIzbOekSvLegAXtOQ/viewform","","","","NA_Mutual_Aid_Networks.csv",,"2020-04-01"
"Oregon / Bend: Pandemic Partners--Bend","FacebookMutualAid","https://www.facebook.com/groups/PandemicPartnersBend/","https://www.facebook.com/groups/PandemicPartnersBend/","Bend, OR",,,,"USA","","","","","","","NA_Mutual_Aid_Networks.csv",,"2020-04-01"
"Cascade Locks: Coronavirus Resources","","https://docs.google.com/document/d/1aRR5UXXiHMbM94cAjc6p2SJ47_yyzPFnCNUGysYrrCs/edit?usp=drivesdk","","Cascade Locks, OR",,,,"USA","","","","ENGLISH: 541-399-8022 // SPANISH: 541-399-8023","","","NA_Mutual_Aid_Networks.csv",,"2020-04-01"
"Douglas County OR., Mutual Aid Network- COVID-19 Response","FacebookMutualAid","https://www.facebook.com/groups/234199917629859/?ref=br_rs","https://www.facebook.com/groups/234199917629859/?ref=br_rs","Douglas County, Roseburg, OR",,,,"USA","","","","","","","NA_Mutual_Aid_Networks.csv",,"2020-04-01"
"Lane County Mutual Aid Network - COVID19 Response","","https://lanemutualaid.org/","https://www.facebook.com/groups/1354709024737163/?ref=br_rs","Eugene, OR",,,,"USA","","https://docs.google.com/forms/d/e/1FAIpQLSfolHBhTkIvjayTasTf1TtAwpwhiAMPm5zsSwWvci05Bue32A/viewform","https://forms.gle/YiVcFnMBa8YTqyza7","","","","NA_Mutual_Aid_Networks.csv",,"2020-04-01"
"COVID19 Community Resources & Actions - Eugene/Springfield","","https://docs.google.com/spreadsheets/d/1ReOQOWnQ-XRNkXUrrrB_X7eEWei1txeSrtO_Bb7r-fs/edit?fbclid=IwAR1CRFIPRBcu4m0-HtaPIQeMRI1urYM9EGp85IiDUf-9l5W2I6cUScdXlk8#gid=1657523487","","Eugene/Springfield, OR",,,,"USA","","","https://docs.google.com/spreadsheets/d/1ReOQOWnQ-XRNkXUrrrB_X7eEWei1txeSrtO_Bb7r-fs/edit?fbclid=IwAR1CRFIPRBcu4m0-HtaPIQeMRI1urYM9EGp85IiDUf-9l5W2I6cUScdXlk8#gid=1657523487","","","","NA_Mutual_Aid_Networks.csv",,"2020-04-01"
"COVID19 Community Resources & Actions - Lane County","","https://docs.google.com/spreadsheets/d/1ReOQOWnQ-XRNkXUrrrB_X7eEWei1txeSrtO_Bb7r-fs/edit#gid=1657523487","","Eugene, OR",,,,"USA","","","","","","","NA_Mutual_Aid_Networks.csv",,"2020-04-01"
"Oregon / Benton County: Benton County Family Response Team","FacebookMutualAid","https://www.facebook.com/groups/203009070792562/?ref=share","https://www.facebook.com/groups/203009070792562/?ref=share","Philomath, OR",,,,"USA","","","","","","","NA_Mutual_Aid_Networks.csv",,"2020-04-01"
"PDX Mutual Aid","","https://linktr.ee/pdxmutualaid","https://www.facebook.com/pdxcovid19mutualaid","Portland, OR",,,,"USA","","https://docs.google.com/forms/d/e/1FAIpQLSdWmeBGnqdX14Q5ihC66u-bYzJ1oaJcigu_Vx44AJPRSoDMtQ/viewform?usp=send_form","https://docs.google.com/forms/d/e/1FAIpQLSfAMZHbn6md19Tb28SM53ayFAQK02xJv1NXVjL-J26tDZOQ-g/viewform","","","","NA_Mutual_Aid_Networks.csv",,"2020-04-01"
"Oregon / Portland: Covid-19 Portland-Area Community Support","FacebookMutualAid","https://www.facebook.com/groups/250351509316733/?ref=share","https://www.facebook.com/groups/250351509316733/?ref=share","Portland, OR",,,,"USA","","","","","","","NA_Mutual_Aid_Networks.csv",,"2020-04-01"
"Portland Area Covid-19 Mutual Aid (Childcare, Volunteer)","","https://docs.google.com/forms/d/e/1FAIpQLSfAMZHbn6md19Tb28SM53ayFAQK02xJv1NXVjL-J26tDZOQ-g/viewform","","Portland, OR",,,,"USA","","","","","","","NA_Mutual_Aid_Networks.csv",,"2020-04-01"
"PDX Mutual Aid Food Delivery","FacebookMutualAid","https://www.facebook.com/groups/786741751849155/?ref=br_rs","https://www.facebook.com/groups/786741751849155/?ref=br_rs","Portland, OR",,,,"USA","","","","","","","NA_Mutual_Aid_Networks.csv",,"2020-04-01"
"Buckman/Kerns Pandemic Neighborhood Mutual Aid","FacebookMutualAid","https://www.facebook.com/groups/190919709008816/?ref=br_rs","https://www.facebook.com/groups/190919709008816/?ref=br_rs","Buckman/Kerns, Portland, OR",,,,"USA","","","","","","","NA_Mutual_Aid_Networks.csv",,"2020-04-01"
"Pandemic Neighborhood Mutual Aid - Lake Grove/Lake Oswego","FacebookMutualAid","https://www.facebook.com/groups/955963151472594/?ref=br_rs","https://www.facebook.com/groups/955963151472594/?ref=br_rs","Lake Grove/Lake Oswego, Portland, OR",,,,"USA","","","","","","","NA_Mutual_Aid_Networks.csv",,"2020-04-01"
"Alameda/Irvington Pandemic Neighborhood Mutual Aid","FacebookMutualAid","https://www.facebook.com/groups/822605521550300/?ref=br_rs","https://www.facebook.com/groups/822605521550300/?ref=br_rs","Alameda/Irvington, Portland, OR",,,,"USA","","","","","","","NA_Mutual_Aid_Networks.csv",,"2020-04-01"
"Gateway/Hazelwood Pandemic Neighborhood Mutual Aid","FacebookMutualAid","https://www.facebook.com/groups/527043194484155/?ref=br_rs","https://www.facebook.com/groups/527043194484155/?ref=br_rs","Gateway/Hazelwood, Portland, OR",,,,"USA","","","","","","","NA_Mutual_Aid_Networks.csv",,"2020-04-01"
"Team Beaverton","","https://www.teambeaverton.com/","","Beaverton, OR",,,,"USA","","","","","","","NA_Mutual_Aid_Networks.csv",,"2020-04-01"
"Coast Mutual Aid","","https://www.coastmutualaid.org/","","Cannon Beach, OR",,,,"USA","","https://docs.google.com/forms/d/e/1FAIpQLSfVyMTCFyWTtZ5lb-4IOjUsLZgVmT_6OPQeQkBH7cdkgj0JDg/viewform?c=0&vc=0&w=1","https://docs.google.com/forms/d/e/1FAIpQLSdW0C6pa-AD27iBDRHmH1x4Gcgde4JdqhiVtns3DDiO1NCnyg/viewform?c=0&vc=0&w=1","","","","NA_Mutual_Aid_Networks.csv",,"2020-04-01"
"Covid-19 Support Network - Corvallis, Albany, Philomath","","https://www.cge6069.org/caucuses/mutual-aid-caucus/","https://www.facebook.com/cge6069/?eid=ARDzxY9p3gjJCd3D01BUkyRcySQUKce4kLu4UmRpY32A0d83h3JSt0M--kri8R_21yvuQY_j-2AlGXRS","Corvallis, OR",,,,"USA","","https://docs.google.com/forms/d/e/1FAIpQLSd5dD77ldBtXAIYLpYuWAN_Pkh3R40JVgeRW-a57ASm2WSZWA/viewform?usp=sf_link","https://docs.google.com/forms/d/e/1FAIpQLSc--oYvP2bLSWDC1VYjxt0pHXTclk6CeRnoRupsRGwz5eMWSA/viewform?usp=sf_link","","","","NA_Mutual_Aid_Networks.csv",,"2020-04-01"
"Pandemic Neighborhood Mutual Aid - Portland","FacebookMutualAid","https://www.facebook.com/PandemicNeighborhoodMAHub/","https://www.facebook.com/PandemicNeighborhoodMAHub/","Portland, OR",,,,"USA","","","","","","","NA_Mutual_Aid_Networks.csv",,"2020-04-01"
"Burlington Coronavirus Mutual Aid","FacebookMutualAid","https://www.facebook.com/groups/618241819020229/","https://www.facebook.com/groups/618241819020229/","Burlington, Portland, OR",,,,"USA","","","","","","","NA_Mutual_Aid_Networks.csv",,"2020-04-01"
"Pandemic Partners-NE Portland","FacebookMutualAid","https://www.facebook.com/groups/pandemicpartnersnepdx/","https://www.facebook.com/groups/pandemicpartnersnepdx/","NE Portland, Portland, OR",,,,"USA","","","","","","","NA_Mutual_Aid_Networks.csv",,"2020-04-01"
"My NeighbOR","","https://everychildoregon.org/myneighbor/","","OR",,,,"USA","","","","","","","NA_Mutual_Aid_Networks.csv",,"2020-04-01"
"Pennsylvania / Philadelphia: Poor People’s Army Response to CoronaVirus Mutual Aid Page","","https://docs.google.com/forms/d/e/1FAIpQLSetWMAof9YSOrM1agqDDj2vtedeH8zFkWlNu7mu46k5XsdH0w/viewform","https://www.facebook.com/groups/1093846127618163/?ref=share","Philadelphia, PA",,,,"USA","","","","","","","NA_Mutual_Aid_Networks.csv",,"2020-04-01"
"Care Web for Philadelphia's Disability Community During COVID-19","","https://docs.google.com/forms/d/e/1FAIpQLSeZIfm8VC6Jhrviz1t29UF3qRd5TqSWHpRBHHFlH5bLSp26rw/viewform","","Philadelphia, PA",,,,"USA","","","","","","","NA_Mutual_Aid_Networks.csv",,"2020-04-01"
"Neighbors helping Neighbors: Request For Aid - Philly Mutual Aid for Folks affected by COVID-19","","https://docs.google.com/forms/d/e/1FAIpQLSf4tHQTrOG0DDh6hytdw8rdN7sFkm74Q1yMii2YeOLis2qNvA/viewform","","Philadelphia, PA",,,,"USA","","https://docs.google.com/forms/d/e/1FAIpQLSf4tHQTrOG0DDh6hytdw8rdN7sFkm74Q1yMii2YeOLis2qNvA/viewform","","","","","NA_Mutual_Aid_Networks.csv",,"2020-04-01"
"Collective Success Community Help for Displaced College Students","","https://www.collectivesuccess.org/","","Philadelphia, PA",,,,"USA","","https://docs.google.com/forms/d/e/1FAIpQLSe4OmY3RSB3PwQ4ybrhGLZ3liOMVoVuFo2U_FGIob7JcereUA/viewform","https://docs.google.com/forms/d/e/1FAIpQLSdpYGZTsI2tFEfC-eTqJaQP5Bheqp0Lz6s8mOqIVGqVG-xalg/viewform","","","","NA_Mutual_Aid_Networks.csv",,"2020-04-01"
"Kid Care Co-op","","https://www.kidcarecoop.org/philadelphia-healthcare-providers-in-need-of-childcare-during-covid","","Philadelphia, PA",,,,"USA","","https://www.kidcarecoop.org/philadelphia-healthcare-providers-in-need-of-childcare-during-covid","https://www.kidcarecoop.org/childcare-for-medical-families-during-covid19-outbreak","","","","NA_Mutual_Aid_Networks.csv",,"2020-04-01"
"Centre County COVID-19 Community Response","","https://cccovid19response.org/","https://www.facebook.com/CentreCountyCOVID19Response/","State College, PA",,,,"USA","","https://docs.google.com/forms/d/e/1FAIpQLSdPva7YDwdbBZNs0-MefbfpN6XF_Q5alomyGn035ajmy9nb4Q/viewform","https://docs.google.com/forms/d/e/1FAIpQLSd8Dq07fx2Pjda43h0X0RpQUKRj-ftA9bW693dXDWR4lFCiRQ/viewform","","","","NA_Mutual_Aid_Networks.csv",,"2020-04-01"
"COVID Mutual Aid: Friendship/Bloomfield","FacebookMutualAid","https://www.facebook.com/groups/2655530078016420/?ref=share","https://www.facebook.com/groups/2655530078016420/?ref=share","Friendship/Bloomfield, Pittsburgh, PA",,,,"USA","","","","","","","NA_Mutual_Aid_Networks.csv",,"2020-04-01"
"Pittsburgh Mutual Aid","","https://docs.google.com/spreadsheets/d/1FQO1uLpHQgc3VU1GgFq1MnjhiGzQhpSN8GwKgHtbvdM/edit#gid=1942870066","","Pittsburgh, PA",,,,"USA","","https://docs.google.com/forms/d/e/1FAIpQLSdY2f73ZIwYMilNvCePKNk0b-XCCK8TbWpAUZp2JDmZRIU1pg/viewform","https://docs.google.com/forms/d/e/1FAIpQLSdY2f73ZIwYMilNvCePKNk0b-XCCK8TbWpAUZp2JDmZRIU1pg/viewform","","","","NA_Mutual_Aid_Networks.csv",,"2020-04-01"
"Bloomfield/Garfiend Cooperation","","https://bloomfield-garfield.org/uncategorized/covid-19-resources-get-help/","","Bloomfield/Garfield, Pittsburgh, PA",,,,"USA","","","","","","","NA_Mutual_Aid_Networks.csv",,"2020-04-01"
"State College Area Mutual Aid Network","","https://docs.google.com/forms/d/e/1FAIpQLSfkjuXi_C2n7e88d7aBjfYK5wsMPSq_1YraWd0LzAD-MmXkPA/viewform","","State College, PA",,,,"USA","","","","","","","NA_Mutual_Aid_Networks.csv",,"2020-04-01"
"Mobilize Katahdin","","http://mobilizekatahdin.org/","","Katahdin, Philadelphia, PA",,,,"USA","","https://docs.google.com/forms/d/e/1FAIpQLSeFBtUz7_INgg0aTSfbWgd77qjbhO1yeLaB3fDSzOjFaPSyew/viewform","https://docs.google.com/forms/d/e/1FAIpQLSdHxEYqBCzKIfyICO4Y6M3Ibi3qj-K98x0D47e4IDVN8S6sdw/viewform","","","","NA_Mutual_Aid_Networks.csv",,"2020-04-01"
"Riverwards COVID19 Awareness And Preparation","FacebookMutualAid","https://www.facebook.com/groups/RiverwardsCOVID19AwarenessAndPreparation/","https://www.facebook.com/groups/RiverwardsCOVID19AwarenessAndPreparation/","Riverwards, Philadelphia, PA",,,,"USA","","","","","","","NA_Mutual_Aid_Networks.csv",,"2020-04-01"
"Berks Mutual Aid Society","FacebookMutualAid","https://www.facebook.com/groups/224692268586202/","https://www.facebook.com/groups/224692268586202/","Reading, PA",,,,"USA","","https://airtable.com/shr84jFSWVFn41v7o","https://airtable.com/shr84jFSWVFn41v7o","","","","NA_Mutual_Aid_Networks.csv",,"2020-04-01"
"Cumberland Valley Cares","","https://www.cumberlandvalleycares.com/","https://www.facebook.com/cumberlandvalleycares/","Harrisburg, PA",,,,"USA","","https://www.cumberlandvalleycares.com/request-delivery","https://www.cumberlandvalleycares.com/request-delivery","","","","NA_Mutual_Aid_Networks.csv",,"2020-04-01"
"Lawrenceville/Bloomfield/Garfield/Polish Hill Buddy System","","https://docs.google.com/forms/d/e/1FAIpQLSe0Hev553cyD0avwMqE0B0LZwv36amVO09U8tC--qxCY_R7uQ/viewform","","Lawrenceville/Bloomfield/Garfield/Polish, Pittsburgh, PA",,,,"USA","","https://docs.google.com/forms/d/e/1FAIpQLSe0Hev553cyD0avwMqE0B0LZwv36amVO09U8tC--qxCY_R7uQ/viewform","https://docs.google.com/forms/d/e/1FAIpQLSe0Hev553cyD0avwMqE0B0LZwv36amVO09U8tC--qxCY_R7uQ/viewform","Lawrenceville: 412-802-7220, Bloomfield: 412-681-8800, Gaarfield: 412-426-5329","","","NA_Mutual_Aid_Networks.csv",,"2020-04-01"
"Sharpsburg Urgent Need Assessment","","https://docs.google.com/forms/d/e/1FAIpQLSdI3ZPUOmzXTcim5Aj8KSM_F-49j-VSxLHIf5_4o08bTF3eOA/viewform","","Sharpsburg, Pittsburgh, PA",,,,"USA","","https://docs.google.com/forms/d/e/1FAIpQLSdI3ZPUOmzXTcim5Aj8KSM_F-49j-VSxLHIf5_4o08bTF3eOA/viewform","","","","","NA_Mutual_Aid_Networks.csv",,"2020-04-01"
"Roots of Faith Food Distribution","FacebookMutualAid","https://www.facebook.com/931040436951291/photos/a.982949021760432/2724189550969695/?type=3&theater","","Sharpsburg, Pittsburgh, PA",,,,"USa","","https://www.facebook.com/931040436951291/photos/a.982949021760432/2724189550969695/?type=3&theater","","","","","NA_Mutual_Aid_Networks.csv",,"2020-04-01"
"West Chester IFC","","https://docs.google.com/forms/d/e/1FAIpQLSfRaAzoa_V0whmEN5mcLzyvmF40Z1X-D1rJyH6AV8g4O5UinQ/viewform?usp=sf_link","","West Chester, PA",,,,"USA","","","","","","","NA_Mutual_Aid_Networks.csv",,"2020-04-01"
"Rhode Island / Providence: Providence Community Mutual Aid","","https://docs.google.com/forms/d/e/1FAIpQLSenjuUhXCRwz0AvamQTihj6WsK-EX0ukG-aC88i4lFVaH6Q4A/viewform","","Providence, RI",,,,"USA","","https://docs.google.com/forms/d/e/1FAIpQLSenjuUhXCRwz0AvamQTihj6WsK-EX0ukG-aC88i4lFVaH6Q4A/viewform","https://docs.google.com/spreadsheets/d/18zZMjfXlqeAp1GVsLuxSNNjLOqI2AVbN7qlYjpf9EUw/edit#gid=1055493001","","","","NA_Mutual_Aid_Networks.csv",,"2020-04-01"
"Providence Community Mutual Aid","","https://docs.google.com/forms/d/e/1FAIpQLSenjuUhXCRwz0AvamQTihj6WsK-EX0ukG-aC88i4lFVaH6Q4A/viewform","","Providence, RI",,,,"USA","","","","","","","NA_Mutual_Aid_Networks.csv",,"2020-04-01"
"COVID-19 Mutual Aid: PVD","","https://www.letserasethestigma.com/covid19","","Providence, RI",,,,"USA","","","","","","","NA_Mutual_Aid_Networks.csv",,"2020-04-01"
"COVID-19 PVD Area Mutual Aid and Community Assistance","FacebookMutualAid","https://www.facebook.com/groups/648623035913789/about/","https://www.facebook.com/groups/648623035913789/about/","Providence, RI",,,,"USA","","","","","","","NA_Mutual_Aid_Networks.csv",,"2020-04-01"
"Rhode Island Pride COVID-19 Emergency Food/Toiletries/Sanitation Supply Drive","","http://tinyurl.com/PrideRISupplyDrive","","Providence, RI",,,,"USA","","","","","","","NA_Mutual_Aid_Networks.csv",,"2020-04-01"
"AMOR - COVID19 Community Response Volunteer Sign Up","","https://docs.google.com/forms/d/e/1FAIpQLSch4w517Oqv5_KoH4sF14eorbmUQUBvlWgktvIuXZ8iDtFCUA/viewform","https://www.facebook.com/amornetwork/","Providence, RI",,,,"USA","","","https://docs.google.com/forms/d/e/1FAIpQLSe0YT2Zh9kOh4Yi6jfoDbPHXeE0CYzMbm4wjNN8KFrMNNr7vw/viewform","","","","NA_Mutual_Aid_Networks.csv",,"2020-04-01"
"SK Mutual Aid and Support","","https://docs.google.com/forms/d/e/1FAIpQLSc4edntuEBjx1NgMWojVi8kFFO5Ra4yoZ-NkZbyEEhAnrhoxw/viewform?","","South Kingston, RI",,,,"USA","","","","","","","NA_Mutual_Aid_Networks.csv",,"2020-04-01"
"COVID-19 South County Mutual Aid and Support","FacebookMutualAid","https://www.facebook.com/groups/210087673679116/?","https://www.facebook.com/groups/210087673679116/?","South Kingston, RI",,,,"USA","","","","","","","NA_Mutual_Aid_Networks.csv",,"2020-04-01"
"Little Compton Locals Helping Locals","FacebookMutualAid","https://www.facebook.com/groups/2401292766814760/about/","https://www.facebook.com/groups/2401292766814760/about/","Little Compton, RI",,,,"USA","","","","","","","NA_Mutual_Aid_Networks.csv",,"2020-04-01"
"Tri-Cities TN/VA Mutual Aid Network","","https://docs.google.com/forms/d/e/1FAIpQLSfMYhJ0wEYYVpE8Zuqino79A8EX9i0Xjh9Jt-7i84Zr0q28yQ/viewform","","Johnson City, TN",,,,"USA","","","","","","","NA_Mutual_Aid_Networks.csv",,"2020-04-01"
"First Aid Collective Knoxville","","https://linktr.ee/firstaidcollectiveknox","","Knoxville, TN",,,,"USA","","","","","","","NA_Mutual_Aid_Networks.csv",,"2020-04-01"
"Memphis-Midsouth Mutual Aid for Covid-19","FacebookMutualAid","https://facebook.com/groups/2689224457972091/","https://facebook.com/groups/2689224457972091/","Memphis, TN",,,,"USA","","","","","","","NA_Mutual_Aid_Networks.csv",,"2020-04-01"
"Nashville Mutual Aid","","https://docs.google.com/spreadsheets/d/1Sx_rYU95zVizTW5FOAF6lYCq5AkYOpMppOsVA3wn3rg/edit#gid=0","","Nashville, TN",,,,"USA","","","","","","","NA_Mutual_Aid_Networks.csv",,"2020-04-01"
"Covid Help Nashville","","https://twitter.com/covidhelpnash","https://twitter.com/covidhelpnash","Nashville, TN",,,,"USA","","","https://docs.google.com/forms/d/e/1FAIpQLSfWckeWzE58zb2a6rTl2PhD6RcDvoCb1PX8W_cIhe0qcjTS-A/viewform","","","","NA_Mutual_Aid_Networks.csv",,"2020-04-01"
"Connecting Lincoln","","https://connectinglincoln.com/","https://www.facebook.com/connectinglincoln/","Fayetteville, TN",,,,"USA","","","","","","","NA_Mutual_Aid_Networks.csv",,"2020-04-01"
"Mutual Aid Austin","","https://docs.google.com/document/d/1bDORfX5FdHRBVa8r3H5SSfXUoOkH_FqhH0NpJqsnV7c/edit","","Austin, TX",,,,"USA","","","https://docs.google.com/forms/d/1JeZheRj_S8WOEIqfqqPJqRJlvaeH7cssOJjkDzVmmKc/viewform?edit_requested=true","","","","NA_Mutual_Aid_Networks.csv",,"2020-04-01"
"Care Web Austin","","https://docs.google.com/spreadsheets/d/1Eafuk2C9FZu5aW_gpPcDJPkbMCL6KA7UuBz2xfNAjug/edit?fbclid=IwAR2NAbQuIpG0E495_A6OqIEmMyXCuAdI_teuZtcXpxAeZRlHwKK8bRzB1xU#gid=744348015","","Austin, TX",,,,"USA","","","","","","","NA_Mutual_Aid_Networks.csv",,"2020-04-01"
"ATX Free Food Sharing","FacebookMutualAid","https://www.facebook.com/groups/307913700125933/","https://www.facebook.com/groups/307913700125933/","Austin, TX",,,,"USA","","","","","","","NA_Mutual_Aid_Networks.csv",,"2020-04-01"
"Corpus Christ Mutual Aid","FacebookMutualAid","https://www.facebook.com/CORPUSDSA/","https://www.facebook.com/CORPUSDSA/","Corpus Christi, TX",,,,"USA","","https://docs.google.com/forms/d/e/1FAIpQLScZu7FTVoYqIrD6OU1sOAy2sDtUcG0-cjfKcp-iY1S00fzBrQ/viewform","https://docs.google.com/forms/d/e/1FAIpQLSdlJRBXdjnbueuVBCsCYK1SGujEHTh4FjbYWjzYhFQlRIKJMw/viewform","","","","NA_Mutual_Aid_Networks.csv",,"2020-04-01"
"361 Information & Resource Exchange","FacebookMutualAid","https://www.facebook.com/groups/1459248917568349/?ref=group_header","https://www.facebook.com/groups/1459248917568349/?ref=group_header","Corpus Christi, TX",,,,"USA","","","","","","","NA_Mutual_Aid_Networks.csv",,"2020-04-01"
"North Texas Mutual Aid Coalition","","https://ntxmutualaid.org/","","North Texas, Dallas, TX",,,,"USA","","https://docs.google.com/forms/d/e/1FAIpQLScnL2Cna1QVYTdsFsiLL3cyoj7uCeRDqHNKWK9CzB8AOviYbQ/viewform","https://docs.google.com/forms/d/e/1FAIpQLScnL2Cna1QVYTdsFsiLL3cyoj7uCeRDqHNKWK9CzB8AOviYbQ/viewform","","","","NA_Mutual_Aid_Networks.csv",,"2020-04-01"
"North Texas Covid-19 Mutual Aid","","https://ntxmutualaid.org/","","Dallas, TX",,,,"USA","","","","","","","NA_Mutual_Aid_Networks.csv",,"2020-04-01"
"Laredo Mutual Aid/Ayuda Mutua Laredo","","https://docs.google.com/document/d/1dpMzMzsA83jbVEXS8m7QKOtK4nj6gIUk1U1t6P4wShY/preview?fbclid=IwAR2sbt30iaqzl6p00-Qb2kaYYAzip-73QW73YJl7DHuHlxFlWbm-LTzPINM","https://www.facebook.com/groups/2190227557872562","Laredo, TX",,,,"USA","","","","","","","NA_Mutual_Aid_Networks.csv",,"2020-04-01"
"South Texas Food Bank","","http://www.southtexasfoodbank.org","https://www.facebook.com/southtexasfoodbank/","Laredo, TX",,,,"USA","","","","","","","NA_Mutual_Aid_Networks.csv",,"2020-04-01"
"Texas / San Antonio: Puro Mutual Aid Network--Giving and Receiving Support in San Antonio","","https://docs.google.com/forms/d/e/1FAIpQLSduVw7ubuyY2QhX_0dncWJlOB5xVfs-S-ySXki3kXLJCFpK_g/viewform","","San Antonio, TX",,,,"USA","","","","","","","NA_Mutual_Aid_Networks.csv",,"2020-04-01"
"Systema de ayuda mutua comunitaria — Dando y recibiendo apoyo en San Antonio","","https://docs.google.com/forms/d/e/1FAIpQLSc-Vh30rfu7-eCNZ4mzfZPH5-Jzosw9Z_h-n7Tr14r4JpaZ1A/viewform","","San Antonio, TX",,,,"USA","","","","","","","NA_Mutual_Aid_Networks.csv",,"2020-04-01"
"Austin Mutual Aid","FacebookMutualAid","https://www.facebook.com/groups/1043810232661482/","https://www.facebook.com/groups/1043810232661482/","Austin, TX",,,,"USA","","","","","","","NA_Mutual_Aid_Networks.csv",,"2020-04-01"
"ATX Mutual Aid for Covid19","FacebookMutualAid","https://www.facebook.com/groups/2600062263571948/","https://www.facebook.com/groups/2600062263571948/","Austin, TX",,,,"USA","","","","","","","NA_Mutual_Aid_Networks.csv",,"2020-04-01"
"Aid Network Denton","","https://docs.google.com/document/d/1mNdlT_Yl9uhwDGuBxyYYfqXzdiM6R3BcSsBUbbRqzN4/edit?fbclid=IwAR3km02Ec2dU-Cz4SaxbpZFIHrggtqdqYO0zhIU7H_JG0ACmslnxk7r3MzA#","","Denton, TX",,,,"USA","","https://docs.google.com/forms/d/180eQT1XLxjkZMgJl54bL9Asv0JCH10T-_Cg07rZ5Lhc/viewform?edit_requested=true","https://docs.google.com/forms/d/1YTjMuCCquDnawbjAeDJSubQXuJkL8-1K22Z2rOPP9vM/viewform?edit_requested=true","","","","NA_Mutual_Aid_Networks.csv",,"2020-04-01"
"SLC COVID-19 Community Connections","FacebookMutualAid","https://www.facebook.com/groups/2233166066785826/?ref=share","https://www.facebook.com/groups/2233166066785826/?ref=share","Salt Lake City, UT",,,,"USA","","","","","","","NA_Mutual_Aid_Networks.csv",,"2020-04-01"
"Bluff Area Mutual Aid (Coronavirus Response)","","https://canyonechojournal.com/bluff-area-mutual-aid/","","Bluff, UT",,,,"USA","","https://docs.google.com/forms/d/e/1FAIpQLScr0tJaHQPuU-RriqMjkJa04rvD4gJSHrY7uglxI3EPyZESLQ/viewform","https://docs.google.com/forms/d/e/1FAIpQLSeSh_LrP-7ZABU02tFvI0mIjNHlf87x3uQg_FfC69hnoLN4WA/viewform?usp=sf_link","","","","NA_Mutual_Aid_Networks.csv",,"2020-04-01"
"Utah / Salt Lake Valley: Salt Lake Valley COVID Mutual Aid","","https://www.covid19mutualaidslc.com","","Salt Lake City, UT",,,,"USA","","","","","","","NA_Mutual_Aid_Networks.csv",,"2020-04-01"
"Utah Valley Mutual Aid","","http://utahmutualaid.org/","","Saratoga Springs, UT",,,,"USA","","https://docs.google.com/forms/d/e/1FAIpQLSdxm15E4lYHn1c3XrtrN7ze5eJbQiLizwKYsr_gq_NQA6R2tw/viewform?usp=sf_link","https://www.facebook.com/groups/utahmutualaid/","","","","NA_Mutual_Aid_Networks.csv",,"2020-04-01"
"Davis/Weber COVID-19 Community Connections","FacebookMutualAid","https://www.facebook.com/groups/866871440402154/?ref=share","https://www.facebook.com/groups/866871440402154/?ref=share","Weber County, UT",,,,"USA","","","","","","","NA_Mutual_Aid_Networks.csv",,"2020-04-01"
"Salt Lake Valley Covid19 Mutual Aid","","https://www.covid19mutualaidslc.com/","","West Valley City, UT",,,,"USA","","","","","","","NA_Mutual_Aid_Networks.csv",,"2020-04-01"
"Cville Community Care Team: COVID Response","","https://congregatecville.com/","","Charlottesville, VA",,,,"USA","","","","","","","NA_Mutual_Aid_Networks.csv",,"2020-04-01"
"Mutual Aid Charlottesville","FacebookMutualAid","https://www.facebook.com/groups/500721927287565/?ref=br_rs","https://www.facebook.com/groups/500721927287565/?ref=br_rs","Charlottesville, VA",,,,"USA","","","","","","","NA_Mutual_Aid_Networks.csv",,"2020-04-01"
"COVID-19 Mutual Aid- Occoquan VA","FacebookMutualAid","https://www.facebook.com/groups/1234263820271838/","https://www.facebook.com/groups/1234263820271838/","Occoquan, VA",,,,"USA","","","","","","","NA_Mutual_Aid_Networks.csv",,"2020-04-01"
"Richmond Mutual Aid Supply Drive","","https://twitter.com/MayDayRVA/status/1239408495075753984?s=20","","Richmond, VA",,,,"USA","","","DM administrators","804-404-2346","","","NA_Mutual_Aid_Networks.csv",,"2020-04-01"
"RVA COVID-19 Mutual Aid + Community Care","FacebookMutualAid","https://www.facebook.com/groups/rvamutualaid/?multi_permalinks=1384853371903841%2C1384527925269719%2C1384298955292616%2C1384273458628499%2C1384257545296757&notif_id=1584555197368757&notif_t=group_activity","https://www.facebook.com/groups/rvamutualaid/?multi_permalinks=1384853371903841%2C1384527925269719%2C1384298955292616%2C1384273458628499%2C1384257545296757&notif_id=1584555197368757&notif_t=group_activity","Richmond, VA",,,,"USA","","","","","","","NA_Mutual_Aid_Networks.csv",,"2020-04-01"
"Shenandoah Mutual Aid - Volunteer Form","","https://www.shenandoahmutualaid.com/","","Shenandoah, VA",,,,"USA","","https://docs.google.com/forms/d/e/1FAIpQLSe4fJopOY18TF7oU8FIuePijNgiao7Aqg9Dlc2AeVjfiX1t_g/viewform?fbclid=IwAR0S_fJ58Fwto0Rg9-jUwF6r8adNb3cGZyqgvaakHS1f7O7Vzj1O9c7mqP0","https://docs.google.com/forms/d/e/1FAIpQLSe28TtnAAgcjXnSGdSIV216I-7IKE_aMWKk3T5shzkGdxy-DA/viewform?fbclid=IwAR0-LIrGu2wo7g8F_HoHbuEJTdxIg6MyaP5DTTJMLxnpYAWYAX2ca2XThnY","","","","NA_Mutual_Aid_Networks.csv",,"2020-04-01"
"Rockbridge Community Aid: Covid-19","","https://www.50waysrockbridge.org/covid-19-lex-rockbridge-resources","https://www.facebook.com/groups/3458331667526756/","Lexington, VA",,,,"USA","","https://docs.google.com/forms/d/e/1FAIpQLSdCn3O_4t8N9KtAzYCSoUtOyBbZjDowPAoI3K9vlg9lV0-lDQ/viewform","https://docs.google.com/forms/d/e/1FAIpQLSesh8iFpkEjQOnksop2vSMYXJ27Og8UzXxdBteFIGQD_OTUKQ/viewform","","","","NA_Mutual_Aid_Networks.csv",,"2020-04-01"
"Corona Aid 757","MutualAidGroup","http://coronaaid757.com","http://facebook.com/groups/510830746536540","Norfolk, VA",,,,"USA","","http://bit.ly/coronaaid757","http://bit.ly/coronaaidvolunteersignup","","","","NA_Mutual_Aid_Networks.csv",,"2020-04-01"
"Upper Valley Mutual Aid","","https://docs.google.com/forms/d/e/1FAIpQLSe-T8ViQkEh5P60c8t6eTky1KIyKBHsz1TFB2zZKFYcmNV6dQ/viewform?usp=sf_link","","Barnard, VT",,,,"USA","","","","","","","NA_Mutual_Aid_Networks.csv",,"2020-04-01"
"Barre Town COVID-19 Mutual Aid Volunteer/Needs Sign-up","","https://docs.google.com/forms/d/e/1FAIpQLSd9g1jjGGEQxbaYgF19Y9hrJG-8I6vCtdikrjen7eTdBii7Ow/viewform?usp=send_form","","Barre Town, VT",,,,"USA","","","","","","","NA_Mutual_Aid_Networks.csv",,"2020-04-01"
"Bennington College Mutual Aid","","https://docs.google.com/spreadsheets/d/1qnOL1_DcE_E0o-pVLeALoIlC_RHPkHEPc2f2G2cfM5Q/edit#gid=1727309836","","Bennington, VT",,,,"USA","","","","","","","NA_Mutual_Aid_Networks.csv",,"2020-04-01"
"Berlin area COVID-19 Mutual Aid Volunteer Signup","","https://docs.google.com/forms/d/e/1FAIpQLSf4g1a9jAQZZbvtVqkp-C1yPWITX7yKNNWMUZ8xOiNYVYbHRA/viewform","","Berlin, VT",,,,"USA","","","","","","","NA_Mutual_Aid_Networks.csv",,"2020-04-01"
"Bradford-Area COVID-19 Mutual Aid Volunteer Sign-up","","https://docs.google.com/forms/d/e/1FAIpQLScDLwcYn4K0SwDLTICDmtvCEpe0_olt2XllwTxGSlWDBugzQA/viewform","","Bradford, VT",,,,"USA","","","https://docs.google.com/forms/d/e/1FAIpQLScDLwcYn4K0SwDLTICDmtvCEpe0_olt2XllwTxGSlWDBugzQA/viewform","","","","NA_Mutual_Aid_Networks.csv",,"2020-04-01"
"Vermont / Brattleboro: Brattleboro Area Mutual Aid (Neighborhood Help)","","https://docs.google.com/forms/d/e/1FAIpQLSe70gcANLcUJSW1cFObNj826sH8fXGent-z6hP-c6feFN7O9A/viewform?fbclid=IwAR31w2E6sdfPNkl7Vd-XplJSm_1c8zPeNLr2a76BcckW1ZP3mg9I01h9zwo","","Brattleboro, VT",,,,"USA","","","","","","","NA_Mutual_Aid_Networks.csv",,"2020-04-01"
"Brattleboro Area Mutual Aid","","https://linktr.ee/scoffsatgravity","","Brattleboro, VT",,,,"USA","","https://docs.google.com/spreadsheets/d/1D-85W9O6WzZhnv5l4aIQnFJ6HDH-uoVT280SrwRin-A/edit?usp=drivesdk","https://docs.google.com/spreadsheets/d/1P0qfRBYbyCwoGgFiv_WQU4K0a-TTDpiI7yv9wPxuA4M/edit?usp=drivesdk","","","","NA_Mutual_Aid_Networks.csv",,"2020-04-01"
"Burlington Coronavirus Mutual Aid","FacebookMutualAid","https://www.facebook.com/groups/618241819020229/","","Burlington, VT",,,,"USA","","","","","","","NA_Mutual_Aid_Networks.csv",,"2020-04-01"
"Chittenden County Mutual Aid","","https://docs.google.com/forms/d/e/1FAIpQLSdic_eBjoA-4_yqDEDoAqvsn3YGgQQK-InOVI8lRyOg3zimBw/viewform?fbclid=IwAR1OpmgZLiz_qFtOWzqfHHUEL9JqQWRuuMmvUEGQJykH6HOOeT5S-ZNvtjE","","Burlington, VT",,,,"USA","","https://docs.google.com/forms/d/e/1FAIpQLSdic_eBjoA-4_yqDEDoAqvsn3YGgQQK-InOVI8lRyOg3zimBw/viewform?fbclid=IwAR1OpmgZLiz_qFtOWzqfHHUEL9JqQWRuuMmvUEGQJykH6HOOeT5S-ZNvtjE","https://docs.google.com/forms/d/e/1FAIpQLSftjWoj2SptOV8-gQ0Vyzx5aBCYxRqd7z5kt87ivDKajviHFQ/viewform?fbclid=IwAR3ad-ECp_NEVUvLovOpOs9wFmlCuCVBi_U9Q4lmABBuAsjWIo5_bzWtcSo","","","","NA_Mutual_Aid_Networks.csv",,"2020-04-01"
"Chelsea/Vershire/Corinth/Tunbridge/Washington COVID-19 Mutual Aid","","https://docs.google.com/forms/d/e/1FAIpQLSe36fW0ogNFX8c3eWz45w5kiiWTAdzhHYFWdTDczXgBmiQeLA/viewform","","Chelsea, VT",,,,"USA","","","","","","","NA_Mutual_Aid_Networks.csv",,"2020-04-01"
"Northern NEK Mutual Aid","","https://forms.gle/GKunAFP7iyJrxz4B9","","Colebrook, VT",,,,"USA","","https://forms.gle/GKunAFP7iyJrxz4B9","https://forms.gle/5ZSn35ZpVPpx2VvT9","","","","NA_Mutual_Aid_Networks.csv",,"2020-04-01"
"Craftsbury Area Coronavirus Needs & Volunteer Sign-up","","https://docs.google.com/forms/d/e/1FAIpQLSfpBAkJV-hp2hdNZW6XkAEoNZTJoTRr00-s4l9ao4ho1CTU1g/viewform","","Craftbury, VT",,,,"USA","","","","","","","NA_Mutual_Aid_Networks.csv",,"2020-04-01"
"Deerfield Valley Mutual Aid","","https://docs.google.com/forms/d/e/1FAIpQLSc1-oWumdVXB4wo4eO76aNsQSpxkTjXO4my1_yiriERlKGilg/viewform","","Dover, VT",,,,"USA","","","","","","","NA_Mutual_Aid_Networks.csv",,"2020-04-01"
"Champlain Islands Mutual Aid sign up","","https://docs.google.com/forms/d/e/1FAIpQLSdAFCT90nQa584y4rPGFPoyieGT_MG7ajBRuY2BJuDEFBy8ow/viewform","","Grand Isle, VT",,,,"USA","","","https://docs.google.com/forms/d/e/1FAIpQLSdAFCT90nQa584y4rPGFPoyieGT_MG7ajBRuY2BJuDEFBy8ow/viewform","","","","NA_Mutual_Aid_Networks.csv",,"2020-04-01"
"Hartland-Area Mutual Aid","","https://docs.google.com/forms/d/e/1FAIpQLSfG9nNy5tJlqN4yWXLIvX6abE1hHSUo7sw2SkRhsSy1h6sgaA/viewform?fbclid=IwAR0SC4N2J_cWXKv1u-SwLCXXGxWEp7GVXTUoQ5mm3ujf4USjT6rl9oxQFh0","","Harland, VT",,,,"USA","","","https://docs.google.com/forms/d/e/1FAIpQLSfG9nNy5tJlqN4yWXLIvX6abE1hHSUo7sw2SkRhsSy1h6sgaA/viewform?fbclid=IwAR0SC4N2J_cWXKv1u-SwLCXXGxWEp7GVXTUoQ5mm3ujf4USjT6rl9oxQFh0","","","","NA_Mutual_Aid_Networks.csv",,"2020-04-01"
"Addison County Mutual Aid","MutualAidGroup","https://sites.google.com/view/acvtmutualaid/home","","Middlebury, VT",,,,"USA","","https://docs.google.com/forms/d/e/1FAIpQLSd0Vb6YwJbKRB1nWamFOzDalpzZTJ03k5Q0TGBF2iEarcwVRg/viewform","https://docs.google.com/forms/d/e/1FAIpQLSfQOlYvwEaiwzjC8RzgViwFFbZhMv2TwJiQUrikhpJcEOwlQg/viewform","","","","NA_Mutual_Aid_Networks.csv",,"2020-04-01"
"Montpelier, VT COVID-19 Mutual Aid Effort","","https://sites.google.com/view/mtpvtmutualaid/home","https://www.facebook.com/groups/253737125617700/","Montpelier, VT",,,,"USA","","https://docs.google.com/forms/d/e/1FAIpQLScvRnkqbFnARjS0XeqkERcgmQCUAYRkx2j7U3P8WrQAnyPoCA/viewform?fbclid=IwAR3FJeE1qMcX3npE8GQk8LrzDNNHHV7e_NO8uLTCUEHqtKh8Z4iFXtYsTaI","https://docs.google.com/forms/d/e/1FAIpQLSd_OzV19STtbZ7_UfRyr3GbbaFXygOscTmb1DV2LSH3XZsizA/viewform?fbclid=IwAR1b3RvLZFEaf2B8wwXP08_aPRv2jaVr0Mrdr5KgAw7PiTEqmO9_7ItiAx4","","","","NA_Mutual_Aid_Networks.csv",,"2020-04-01"
"COVID-19 Mutual Aid-Central Vermont","FacebookMutualAid","https://www.facebook.com/groups/253737125617700/","https://www.facebook.com/groups/253737125617700/","Montpelier, VT",,,,"USA","","","","","","","NA_Mutual_Aid_Networks.csv",,"2020-04-01"
"Southern NEK Mutual Aid","","https://forms.gle/nWZGPctjhijd3Xi36","","Peacham, VT",,,,"USA","","https://forms.gle/nWZGPctjhijd3Xi36","https://forms.gle/hMsFiqJ29LErgqs79","","","","NA_Mutual_Aid_Networks.csv",,"2020-04-01"
"Vermont / Putney: Putney Area Mutual Aid (Neighborhood Help)","","https://docs.google.com/forms/d/e/1FAIpQLScjw546J7Ib-A3-h88izc3GL0jc_-MESsQDybKQ_0b1JpQxAw/viewform?fbclid=IwAR29cZbbz8VJvmIWNpC4gnhAi2JZj4pX1AU8oWGPUYlfr1n1o0EnQwBfJkg","","Putney, VT",,,,"USA","","","","","","","NA_Mutual_Aid_Networks.csv",,"2020-04-01"
"Vermont / Royalton: Royalton-Area COVID-19 Mutual Aid Volunteer Sign-up","","https://docs.google.com/forms/d/1EzLdwcNg39AMIOtDIMuZ522Mteb6-e6MgOc-pQ28XGw/viewform?fbclid=IwAR2zX4nYBBoKn2mhWUQ34Nvm0hWu5Nc_bqYH32pC9qZEo4C5mDQbun9PNpU&edit_requested=true","","Royalton, VT",,,,"USA","","","","","","","NA_Mutual_Aid_Networks.csv",,"2020-04-01"
"Rutland County Mutual Aid","","https://sites.google.com/view/rutvtmutualaid?fbclid=IwAR0DE58yEqe4umAUwOyykjcLR6P7188uL5V7En2LCEH2mFiJeZTQlKNXcIM","","Rutland, VT",,,,"USA","","","https://docs.google.com/forms/d/e/1FAIpQLSfhRQdUOXzUF-VhFgsmlqlDzNW4QMEqMr1ALtEzz_blzO3HGA/viewform","","","","NA_Mutual_Aid_Networks.csv",,"2020-04-01"
"Worcester Covid-19 Mutual Aid","","https://docs.google.com/forms/d/1HBrK1QB1W1ES2G2K6sdA51stmscdKohyC6R3zMXni2I/viewform?ts=5e6f6182&edit_requested=true","","Worcester, VT",,,,"USA","","https://docs.google.com/forms/d/1i-ajw5xGi2ybiowBL1UvzyXoWl6EgbJL679ImBQscJY/viewform?ts=5e6f61bd&edit_requested=true","https://docs.google.com/forms/d/1HBrK1QB1W1ES2G2K6sdA51stmscdKohyC6R3zMXni2I/viewform?ts=5e6f6182&edit_requested=true","","","","NA_Mutual_Aid_Networks.csv",,"2020-04-01"
"Barre Mutual Aid","","https://barremutualaid.recovers.org/","","Barre, VT",,,,"USA","","","","","","","NA_Mutual_Aid_Networks.csv",,"2020-04-01"
"Bethel VT Strong","","http://www.bethelvtstrong.org","","Bethel, VT",,,,"USA","","","","","","","NA_Mutual_Aid_Networks.csv",,"2020-04-01"
"Whatcom Mutual Aid","FacebookMutualAid","https://www.facebook.com/groups/2466079660320179/?ref=br_rs","https://www.facebook.com/groups/2466079660320179/?ref=br_rs","Bellingham, WA",,,,"USA","","","","","","","NA_Mutual_Aid_Networks.csv",,"2020-04-01"
"Kitsap Community Mutual Aid","FacebookMutualAid","https://www.facebook.com/kitsapcovid19solidarity/","https://www.facebook.com/kitsapcovid19solidarity/","Bremerton, WA",,,,"USA","","","","","","","NA_Mutual_Aid_Networks.csv",,"2020-04-01"
"Snohomish County, Washington Mutual Aid","FacebookMutualAid","https://www.facebook.com/groups/253259112349167/","https://www.facebook.com/groups/253259112349167/","Everett, WA",,,,"USA","","","","","","","NA_Mutual_Aid_Networks.csv",,"2020-04-01"
"Common Stash: Mutual Aid in So-called Olympia","","https://www.commonstash.org/","","Olympia, WA",,,,"USA","","","","","","","NA_Mutual_Aid_Networks.csv",,"2020-04-01"
"Olympia Mutual Aid Collective","FacebookMutualAid","https://www.facebook.com/groups/210315513383928/?ref=br_rs","https://www.facebook.com/groups/210315513383928/?ref=br_rs","Olympia, WA",,,,"USA","","","","","","","NA_Mutual_Aid_Networks.csv",,"2020-04-01"
"Whitman County COVID-19 Community Response and Recovery","FacebookMutualAid","https://www.facebook.com/groups/240389003760287/?multi_permalinks=240875103711677%2C240889617043559%2C240839907048530%2C240823527050168&notif_id=1584547150062936&notif_t=group_activity","https://www.facebook.com/groups/240389003760287/?multi_permalinks=240875103711677%2C240889617043559%2C240839907048530%2C240823527050168&notif_id=1584547150062936&notif_t=group_activity","Pullman, WA",,,,"USA","","","","","","","NA_Mutual_Aid_Networks.csv",,"2020-04-01"
"Puget Sound Community Mutual Aid Intake","","https://docs.google.com/forms/d/10V7JhoWdPuOadYwa44q1DPm26gAMXicyDJ6FcGH90s0/viewform?fbclid=IwAR179fBcagquXHQOB0zLE2JK3FEw4vbRCCC3TtBf5r6hIp62O4xMrI924gs&edit_requested=true","","Puget Sound, Seattle, WA",,,,"USA","","","","","","","NA_Mutual_Aid_Networks.csv",,"2020-04-01"
"Washington / Seattle: Seattle-Area COVID-19","","https://docs.google.com/forms/d/1rOkXW6ElVT0MH9oSI-TuW8L5szCt-ULbZhWebARRZNI/viewform","","Seattle, WA",,,,"USA","","https://docs.google.com/forms/d/1rOkXW6ElVT0MH9oSI-TuW8L5szCt-ULbZhWebARRZNI/viewform","https://docs.google.com/forms/d/e/1FAIpQLSeWvT_GQbcTTM2O1VVGJ6wsQeYW27PO1RvhSKSj45QR4lvNQQ/viewform?fbclid=IwAR0iXBhTQWeIPmcwWYltDO2FhoIrItsAN8f66IW-zDzMaLNXAxBQyiRvGmQ","","","","NA_Mutual_Aid_Networks.csv",,"2020-04-01"
"Washington / Seattle: #covid19mutualaid links","","https://docs.google.com/document/d/101hAWGpF4kowM1k2KkHgY5yjpKTvErCGa2FTEg3mGu4/mobilebasic?urp=gmail_link","","Seattle, WA",,,,"USA","","","","","","","NA_Mutual_Aid_Networks.csv",,"2020-04-01"
"Washington / South Seattle and Eastside: COVID-19/Coronavirus South Seattle and Eastside Mutual Aid “Offer Support” / Volunteer Form","FacebookMutualAid","https://www.facebook.com/groups/555635161739149/","https://www.facebook.com/groups/555635161739149/","South Seattle and Eastside, Seattle, WA",,,,"USA","","https://docs.google.com/forms/d/e/1FAIpQLSdFzVouVJHJ2jRyrR90zDRr7iV-nPJZHjKBTKVYuobP29BZ5g/viewform","https://docs.google.com/forms/d/e/1FAIpQLSdqoK6a4mmYc2tpVPVTDfq2EDjsSMDct8Am5duoCx44i-fIoQ/viewform","","","","NA_Mutual_Aid_Networks.csv",,"2020-04-01"
"Seattle Service+ Industry Mutual Aid Exchange","FacebookMutualAid","https://www.facebook.com/groups/SSIMAE/?ref=br_rs","https://www.facebook.com/groups/SSIMAE/?ref=br_rs","Seattle, WA",,,,"USA","","","","","","","NA_Mutual_Aid_Networks.csv",,"2020-04-01"
"Washington / Tacoma: Tacoma Mutual Aid Network","FacebookMutualAid","https://facebook.com/profile.php?id=189809985274895&ref=content_filter","https://facebook.com/profile.php?id=189809985274895&ref=content_filter","Tacoma, WA",,,,"USA","","https://docs.google.com/forms/d/e/1FAIpQLScQLH-RwSCAVCAm310EF91j74mvjIG49Za0F__8Mb1S3ZFEwA/viewform","https://docs.google.com/forms/d/1pFS8VjC5L5eihXWarB9UltjSaVJtFhAhsGpHpC1EFiY/viewform?edit_requested=true&fbclid=IwAR38dYzxf8yFOW2sgA3L2_CxH0BEdAspQZ80M_c445B8Es9lTpGIhoYFM_0","","","","NA_Mutual_Aid_Networks.csv",,"2020-04-01"
"Snohomish County COVID/Coronavirus Mutual Aid Group","FacebookMutualAid","https://www.facebook.com/groups/142262693785689/","https://www.facebook.com/groups/142262693785689/","Edmonds, WA",,,,"USA","","","","","","","NA_Mutual_Aid_Networks.csv",,"2020-04-01"
"Spokane County Mutual Aid","","https://www.mutualaidspokanecounty.com/?fbclid=IwAR0IsCRA7iiVrvQvheqe5uIp7Pt03IFzQ8kJDBXyo9UcXGWL9AtrhZy42gY","https://www.facebook.com/SpokaneCountyMutualAid","Spokane, WA",,,,"USA","","https://docs.google.com/forms/d/e/1FAIpQLScmyNLY7AhhLyskYEEnMa-R9SsMJXP1uvF4_MJLLiRJ02F5eg/viewform","https://docs.google.com/forms/d/e/1FAIpQLSfll7ugjAmwwUFBbb7Y_zhi2QQrZvdwWXh0XNYTDe_ioNhLCw/viewform","","","","NA_Mutual_Aid_Networks.csv",,"2020-04-01"
"Dane County Neighbors Helping Neighbors","FacebookMutualAid","https://www.facebook.com/groups/1978475378963725/","https://www.facebook.com/groups/1978475378963725/","Dane County, WI",,,,"USA","","","","","","","NA_Mutual_Aid_Networks.csv",,"2020-04-01"
"Rock County Mutual Aid Infohub","","https://docs.google.com/spreadsheets/d/1ym2k7Du-_UuxCeqA4qH2sQN744fPoV6q-H-L3-8Ub-Y/edit#gid=0","https://www.facebook.com/groups/494748384527251/","Janesville, WI",,,,"USA","","","","","","","NA_Mutual_Aid_Networks.csv",,"2020-04-01"
"Wisconsin / Madison: COVID-19 Madison Mutual Aid","","https://docs.google.com/spreadsheets/u/0/d/1P3fVeaCTFWLc9B1N9U6Ks2DhEOdPCoZZUgC3iduQgeg/htmlview?urp=gmail_link#gid=808612577","https://www.facebook.com/groups/502401850648815/?ref=share","Madison, WI",,,,"USA","","","","","","","NA_Mutual_Aid_Networks.csv",,"2020-04-01"
"DSA Mutual Aid | Solidarity Economy Milwaukee","","http://milwaukee.dsawi.org/our-committees-and-working-groups/solidarity-economy-mutual-aid-working-group/","","Milwaukee, WI",,,,"USA","","","","","","","NA_Mutual_Aid_Networks.csv",,"2020-04-01"
"Coronavirus Quarantine Support with the Madison General Defense Committee","","https://docs.google.com/forms/d/e/1FAIpQLSdGqbTyMCsnrBQ3sqBfE9Cmkh_cDAu9qz-edGnLpwq6GRElEQ/viewform","https://www.facebook.com/madTownCommunitySelfDefense/","Madison, WI",,,,"USA","","https://tinyurl.com/quarantine-support .","https://tinyurl.com/quarantine-volunteer","","","","NA_Mutual_Aid_Networks.csv",,"2020-04-01"
"Coulee Region Mutual Aid","","https://docs.google.com/spreadsheets/d/1FAkVneo2sz65WxntP9f14REKF5JiWEHy7AQ5ye-XbtA/edit#gid=1942124999","https://www.facebook.com/groups/1508364889328693/?ref=share","La Crosse, WI",,,,"USA","","","","","","","NA_Mutual_Aid_Networks.csv",,"2020-04-01"
"Greater Green Bay Mutual Aid Network","FacebookMutualAid","https://www.facebook.com/groups/645928876235863/?ref=share","https://www.facebook.com/groups/645928876235863/?ref=share","Green Bay, WI",,,,"USA","","","","","","","NA_Mutual_Aid_Networks.csv",,"2020-04-01"
"Chequamegon Bay Community Care","","http://www.cheqbaycc.org/","","Chequamegon Bay, WI",,,,"USA","","http://www.cheqbaycc.org/support-request.html","http://www.cheqbaycc.org/volunteer-signup.html","","","","NA_Mutual_Aid_Networks.csv",,"2020-04-01"
"Morgantown Delivery Team","","https://docs.google.com/forms/d/e/1FAIpQLSfmNtj_qPev4UM5pThgNs169nxCryEsJrIu1a8XujY3WynGIg/viewform?fbclid=IwAR3ukqdosbB17C7luB5hr1roz76RI7hcx_Dvy2I6BwMKOT2cYxuxymnNAX0","","Morgantown, WV",,,,"USA","","","","","","","NA_Mutual_Aid_Networks.csv",,"2020-04-01"
"Huntington Delivery Team","","https://docs.google.com/forms/d/1HHE6cZKccnIBioAt0-qLuxeKuzU-DeG6gYNVIBjB_hs/viewform?fbclid=IwAR3AkXF5joHjl5LfqrsVEp5r0Y0RTmeK2BtaEMlXWbkZuekE4H3hyo9Eo0Y&edit_requested=true","","Huntington, WV",,,,"USA","","","","","","","NA_Mutual_Aid_Networks.csv",,"2020-04-01"
"WV Food ER 2020 Volunteer Sign Up","","https://docs.google.com/forms/d/e/1FAIpQLSc710j6S-fgPpbYjJu3KTXKOMlfDtG4SNj7wHqqOJcWun37-w/viewform","","WV",,,,"USA","","","https://docs.google.com/forms/d/e/1FAIpQLSc710j6S-fgPpbYjJu3KTXKOMlfDtG4SNj7wHqqOJcWun37-w/viewform","","","","NA_Mutual_Aid_Networks.csv",,"2020-04-01"
"Laramie Mutual Aid","","https://docs.google.com/document/d/1d7aSkS1Fdxc2CIpiJSgh03CtJAFZIaUtgRSsytagyio/edit","","Laramie, WY",,,,"USA","","https://docs.google.com/forms/d/1nCLqIOFlkmT4uXVeGsW8IRFKRX8K4OY4QoCO8L1zZtk/edit?usp=sharing","https://docs.google.com/forms/d/1I1vc4pP8nUOz02oA1EcdSGDfqrllOAkHcE2nXP3eD-E/viewform?edit_requested=true","","","","NA_Mutual_Aid_Networks.csv",,"2020-04-01"
"Safe Neighbors","FacebookMutualAid","https://www.facebook.com/Safe-Neighbors-104569204510137/","https://www.facebook.com/Safe-Neighbors-104569204510137/","Cheyenne, WY",,,,"USA","","","","","","","NA_Mutual_Aid_Networks.csv",,"2020-04-01"
"Wyoming Covid-19 Mutual Aid & Resource Page","","https://docs.google.com/document/d/14_GKzvsNFcs0ZHiGHwQ_2rOwIvBMqSUu6IzFwdxQFNs/edit","","WY",,,,"USA","","","","","","","NA_Mutual_Aid_Networks.csv",,"2020-04-01"
